{"type":"FeatureCollection","features":[{"type":"Feature","geometry":{"type":"MultiPolygon","coordinates":[[[[-101.846199036,22.011760712],[-101.965301514,21.883050919],[-102.046096802,21.851669312],[-102.083297729,21.768610001],[-102.24030304,21.655550003],[-102.493103027,21.68721962],[-102.644996643,21.763889313],[-102.741401672,21.724170685],[-102.851699829,21.823329926],[-102.844703674,21.930269241],[-102.70690155,22.083330154],[-102.635002136,22.278329849],[-102.45059967,22.337219238],[-102.325798035,22.458890915],[-102.287200928,22.456390381],[-102.273597717,22.355829239],[-102.219200134,22.372219086],[-102.155799866,22.324169159],[-102.154403687,22.285270691],[-102.024200439,22.251939774],[-102.056396484,22.137779236],[-101.936401367,22.114440918],[-101.846199036,22.011760712]]]]},"properties":{"name":"Aguascalientes","mapcolor":5,"cartodb_id":5}},{"type":"Feature","geometry":{"type":"MultiPolygon","coordinates":[[[[-113.139717102,29.017776489],[-113.240570068,29.067775726],[-113.450843811,29.286663055],[-113.511947632,29.30305481],[-113.600280762,29.439163208],[-113.573898315,29.505832672],[-113.588623047,29.583610535],[-113.405288696,29.482498169],[-113.365013123,29.403331757],[-113.381958008,29.319999695],[-113.184173584,29.294166565],[-113.189453125,29.141109467],[-113.124450684,29.058887482],[-113.139717102,29.017776489]]],[[[-115.179458618,28.024719238],[-115.303886414,28.098888397],[-115.355293274,28.090274811],[-115.249732971,28.22833252],[-115.280563354,28.315830231],[-115.240837097,28.370552063],[-115.178886414,28.308887482],[-115.146118164,28.178886414],[-115.179458618,28.024719238]]],[[[-115.01789856,31.947488785],[-115.03527832,31.957221985],[-115.014450073,31.907775879],[-114.953056335,31.896385193],[-114.873901367,31.805553436],[-114.823898315,31.796665192],[-114.779449463,31.643608093],[-114.851119995,31.526386261],[-114.881118774,31.154720306],[-114.818069458,31.059997559],[-114.829727173,30.996109009],[-114.705291748,30.924999237],[-114.693893433,30.651107788],[-114.624450684,30.48777771],[-114.659729004,30.198608398],[-114.545288086,30.001110077],[-114.413352966,29.919166565],[-114.376953125,29.798053741],[-114.304458618,29.759162903],[-114.263343811,29.784721375],[-114.206123352,29.758609772],[-114.056121826,29.595832825],[-113.728347778,29.357219696],[-113.650848389,29.261665344],[-113.654716492,29.208610535],[-113.548339844,29.110275269],[-113.546401978,28.956386566],[-113.504730225,28.891387939],[-113.453056335,28.892498016],[-113.463623047,28.939163208],[-113.412513733,28.964996338],[-113.348342896,28.908607483],[-113.343338013,28.795829773],[-113.231666565,28.830276489],[-113.194168091,28.814441681],[-113.111953735,28.479721069],[-113.018066406,28.437496185],[-112.862792969,28.433330536],[-112.872512817,28.275554657],[-112.787780762,28.193054199],[-112.778633118,28.029720306],[-112.721946716,28.002220154],[-112.722396851,27.999740601],[-114.140823364,28.00053978],[-114.128616333,28.023887634],[-114.111953735,28.178333282],[-114.182792664,28.261665344],[-114.097503662,28.398887634],[-114.063606262,28.52722168],[-114.143066406,28.594444275],[-114.161956787,28.671665192],[-114.264183044,28.683609009],[-114.261672974,28.713607788],[-114.392501831,28.829998016],[-114.405288696,28.885829926],[-114.490837097,28.938610077],[-114.541122437,28.929164886],[-114.557510376,28.975276947],[-114.613616943,29.021942139],[-114.64806366,29.114440918],[-114.710006714,29.134998322],[-114.74445343,29.199443817],[-114.950286865,29.377498627],[-115.1875,29.427757263],[-115.232513428,29.48916626],[-115.469451904,29.62638855],[-115.526123047,29.628330231],[-115.572776794,29.696388245],[-115.693893433,29.76832962],[-115.694458008,29.866943359],[-115.729171753,29.930274963],[-115.808326721,29.954441071],[-115.783073425,30.107498169],[-115.826400757,30.331943512],[-115.868057251,30.384441376],[-115.968063354,30.398052216],[-115.929168701,30.445552826],[-115.980560303,30.496665955],[-115.957778931,30.444721222],[-116.013343811,30.43888855],[-115.991386414,30.373054504],[-116.036392212,30.442775726],[-116.054168701,30.797775269],[-116.206947327,30.892219543],[-116.257507324,30.957775116],[-116.326683044,30.973609924],[-116.301681519,31.08972168],[-116.336936951,31.213886261],[-116.49445343,31.424999237],[-116.593338013,31.469997406],[-116.677513123,31.555274963],[-116.637512207,31.586666107],[-116.635276794,31.658885956],[-116.721679688,31.748054504],[-116.625839233,31.738609314],[-116.603057861,31.840274811],[-116.744171143,31.916942596],[-116.784179688,31.983886719],[-116.848892212,31.996109009],[-116.909729004,32.22833252],[-117.026672363,32.299995422],[-117.1222229,32.455825806],[-117.122375488,32.535331726],[-116.106124878,32.619407654],[-114.721260071,32.720809937],[-114.808601379,32.6159935],[-114.81930542,32.504447937],[-114.936698914,32.473049164],[-114.964202881,32.368610382],[-115.041496277,32.254669189],[-114.998901367,32.136108398],[-115.01789856,31.947488785]]]]},"properties":{"name":"Baja California","mapcolor":1,"cartodb_id":1}},{"type":"Feature","geometry":{"type":"MultiPolygon","coordinates":[[[[-111.206123352,25.802776337],[-111.230293274,25.834163666],[-111.191390991,26.038887024],[-111.086669922,26.074443817],[-111.099456787,26.004444122],[-111.069168091,25.971385956],[-111.142227173,26.003608704],[-111.206123352,25.802776337]]],[[[-112.133621216,25.281108856],[-112.202507019,24.844997406],[-112.132781982,24.71472168],[-112.142227173,24.647777557],[-112.070846558,24.594718933],[-112.052230835,24.518054962],[-112.179168701,24.662498474],[-112.153343201,24.708885193],[-112.180557251,24.784164429],[-112.304168701,24.810554504],[-112.236679077,24.914997101],[-112.133621216,25.281108856]]],[[[-110.696090698,25.088840485],[-110.578903198,25.033885956],[-110.532226562,24.884719849],[-110.643890381,24.931110382],[-110.708892822,25.042499542],[-110.696090698,25.088840485]]],[[[-111.708068848,24.328330994],[-112.016677856,24.532497406],[-111.836936951,24.541110992],[-111.826133728,24.49249649],[-111.694732666,24.391666412],[-111.708068848,24.328330994]]],[[[-109.788352966,24.131942749],[-109.871398926,24.187496185],[-109.915557861,24.368888855],[-109.788352966,24.131942749]]],[[[-112.722396851,27.999740601],[-112.752502441,27.834720612],[-112.705841064,27.806941986],[-112.673339844,27.721385956],[-112.625839233,27.712776184],[-112.572776794,27.630554199],[-112.503890991,27.627220154],[-112.344451904,27.539997101],[-112.292793274,27.341663361],[-112.203338623,27.238609314],[-112.230010986,27.232776642],[-112.221679688,27.197498322],[-111.955291748,27.10194397],[-111.947509766,27.076942444],[-112.004180908,27.053333282],[-112.030838013,27.001110077],[-111.89806366,26.839443207],[-111.917236328,26.738887787],[-111.761947632,26.56388855],[-111.730293274,26.552776337],[-111.685287476,26.602218628],[-111.806121826,26.707221985],[-111.868621826,26.872497559],[-111.84777832,26.901107788],[-111.560836792,26.723609924],[-111.55695343,26.564998627],[-111.442230225,26.51361084],[-111.479446411,26.4177742],[-111.401397705,26.345554352],[-111.395568848,26.236942291],[-111.321121216,26.107776642],[-111.361953735,25.958332062],[-111.325012207,25.844718933],[-111.293327332,25.836387634],[-111.299728394,25.780277252],[-111.228057861,25.715831757],[-111.165283203,25.57749939],[-111.018341064,25.525554657],[-111.019447327,25.419166565],[-110.946121216,25.308887482],[-110.911117554,25.173053741],[-110.855010986,25.08833313],[-110.746673584,25.019721985],[-110.690841675,24.908885956],[-110.668327332,24.796943665],[-110.726669312,24.674163818],[-110.734176636,24.578330994],[-110.688903809,24.380554199],[-110.612792969,24.284442902],[-110.505836487,24.221664429],[-110.304168701,24.18888855],[-110.340011597,24.159999847],[-110.398902893,24.182220459],[-110.354171753,24.115833282],[-110.269447327,24.189163208],[-110.300003052,24.334442139],[-110.213623047,24.35194397],[-110.139450073,24.249443054],[-110.003341675,24.164165497],[-109.958892822,24.043888092],[-109.920288086,24.022499084],[-109.819458008,24.05305481],[-109.794448853,24.021385193],[-109.823623657,23.916385651],[-109.697776794,23.797775269],[-109.686401367,23.659999847],[-109.478347778,23.575553894],[-109.404167175,23.454166412],[-109.435012817,23.232776642],[-109.488342285,23.15555191],[-109.665557861,23.053886414],[-109.705001831,22.989440918],[-109.813056946,22.9177742],[-109.951950073,22.863887787],[-110.025009155,22.902496338],[-110.080566406,22.986663818],[-110.171951294,23.328330994],[-110.24861145,23.415275574],[-110.316680908,23.567497253],[-110.63445282,23.731666565],[-111.041671753,24.112220764],[-111.470840454,24.334442139],[-111.377792358,24.310276031],[-111.602783203,24.459720612],[-111.655006409,24.579719543],[-111.685287476,24.593887329],[-111.706123352,24.546943665],[-111.793617249,24.562496185],[-111.765556335,24.522777557],[-111.808326721,24.51361084],[-111.826950073,24.642498016],[-111.931121826,24.746665955],[-112.001953125,24.886386871],[-111.973892212,24.757499695],[-112.034179688,24.760829926],[-112.041397095,24.853054047],[-112.051963806,24.769721985],[-112.094451904,24.735832214],[-112.070846558,24.768608093],[-112.125839233,24.878051758],[-112.078613281,24.956386566],[-112.096122742,25.02583313],[-112.148902893,24.901107788],[-112.179458618,24.894165039],[-112.124183655,25.053886414],[-112.128067017,25.167499542],[-112.068069458,25.272220612],[-112.070846558,25.685276031],[-112.078903198,25.717777252],[-112.088348389,25.698329926],[-112.085281372,25.568332672],[-112.113342285,25.524166107],[-112.112503052,25.773609161],[-112.228347778,26.014720917],[-112.309173584,26.093608856],[-112.341949463,26.082496643],[-112.378341675,26.254997253],[-112.430007935,26.291385651],[-112.48638916,26.268886566],[-112.541671753,26.295829773],[-112.536956787,26.325832367],[-112.670837402,26.329166412],[-112.781112671,26.412220001],[-112.770843506,26.436386108],[-113.103347778,26.644996643],[-113.079727173,26.689441681],[-113.116668701,26.672222137],[-113.229171753,26.711387634],[-113.231666565,26.78055191],[-113.128067017,26.880554199],[-113.128341675,26.958885193],[-113.178619385,26.970275879],[-113.185012817,26.874996185],[-113.241386414,26.817497253],[-113.203613281,26.822219849],[-113.243347168,26.796108246],[-113.250289917,26.742774963],[-113.445846558,26.821662903],[-113.401123047,26.824165344],[-113.438606262,26.844718933],[-113.532791138,26.745830536],[-113.597503662,26.736942291],[-113.730293274,26.836666107],[-113.83556366,26.974163055],[-113.908340454,27.000553131],[-114.001403809,26.982776642],[-114.087783813,27.096664429],[-114.170013428,27.147499084],[-114.243896484,27.165554047],[-114.281112671,27.143886566],[-114.410568237,27.184719086],[-114.433616638,27.231941223],[-114.478622437,27.242221832],[-114.513633728,27.413608551],[-114.608337402,27.487499237],[-114.736679077,27.533885956],[-114.799453735,27.621944427],[-114.862792969,27.646110535],[-114.843902588,27.658054352],[-114.8722229,27.694442749],[-114.908340454,27.670555115],[-114.950843811,27.720832825],[-115.006668091,27.722221375],[-115.0597229,27.831108093],[-115.041122437,27.86277771],[-114.99861145,27.831665039],[-114.855827332,27.836387634],[-114.613616943,27.767219543],[-114.501403809,27.769443512],[-114.347229004,27.878887177],[-114.332229614,27.781387329],[-114.278900146,27.732498169],[-114.165847778,27.693054199],[-114.048339844,27.71472168],[-114.002227783,27.686664581],[-113.971389771,27.719997406],[-114.036117554,27.770553589],[-114.161117554,27.716941833],[-114.225852966,27.769443512],[-114.237228394,27.832775116],[-114.310562134,27.86555481],[-114.285003662,27.946388245],[-114.218269348,28.000209808],[-114.157226562,28.049442291],[-114.159301758,28.000549316],[-114.160568237,27.962776184],[-114.140823364,28.00053978],[-112.722396851,27.999740601]]]]},"properties":{"name":"Baja California Sur","mapcolor":2,"cartodb_id":2}},{"type":"Feature","geometry":{"type":"MultiPolygon","coordinates":[[[[-91.834457397,18.638053894],[-91.841949463,18.659442902],[-91.646118164,18.753608704],[-91.553344727,18.788330078],[-91.523895264,18.770553589],[-91.52444458,18.748607635],[-91.622512817,18.736663818],[-91.691390991,18.657497406],[-91.723342896,18.659442902],[-91.703063965,18.695552826],[-91.834457397,18.638053894]]],[[[-92.478286743,18.651676178],[-91.981399536,18.72833252],[-91.858901978,18.611110687],[-91.878341675,18.581108093],[-91.940567017,18.591663361],[-91.946395874,18.628051758],[-92.005004883,18.614719391],[-91.991668701,18.590553284],[-92.034454346,18.594718933],[-92.050567627,18.544719696],[-91.956680298,18.543331146],[-91.886123657,18.500831604],[-91.970840454,18.583885193],[-91.903060913,18.575275421],[-91.870559692,18.528888702],[-91.889724731,18.516666412],[-91.825561523,18.495830536],[-91.857223511,18.430553436],[-91.803344727,18.379997253],[-91.814178467,18.442775726],[-91.771118164,18.441387177],[-91.801956177,18.484443665],[-91.475006104,18.439441681],[-91.481948853,18.49249649],[-91.538345337,18.461387634],[-91.490844727,18.518054962],[-91.33416748,18.5652771],[-91.303344727,18.618888855],[-91.189727783,18.644165039],[-91.29750061,18.628330231],[-91.263626099,18.740833282],[-91.414459229,18.811107635],[-91.237228394,18.957221985],[-91.375289917,18.882499695],[-91.420288086,18.819999695],[-91.511123657,18.808609009],[-91.430007935,18.897220612],[-91.174453735,19.0027771],[-90.997512817,19.118610382],[-90.756668091,19.315830231],[-90.681121826,19.762218475],[-90.523345947,19.881385803],[-90.454727173,19.975276947],[-90.500564575,20.085277557],[-90.465011597,20.398052216],[-90.491119385,20.520832062],[-90.458618164,20.727775574],[-90.383621216,20.816665649],[-90.373374939,20.84529686],[-90.378067017,20.553890228],[-90.206680298,20.557779312],[-90.226959229,20.489719391],[-90.065002441,20.443050385],[-90.028343201,20.494440079],[-89.418327332,19.651939392],[-89.43044281,17.819162369],[-90.982421875,17.820652008],[-90.983062744,17.96777916],[-91.188606262,17.976110458],[-91.321121216,18.063329697],[-91.453903198,18.099439621],[-91.609176636,18.096660614],[-91.626403809,17.95083046],[-91.855293274,17.951389313],[-91.979446411,18.017780304],[-92.157791138,18.15722084],[-92.153060913,18.511940002],[-92.421676636,18.513050079],[-92.478286743,18.651676178]]]]},"properties":{"name":"Campeche","mapcolor":15,"cartodb_id":15}},{"type":"Feature","geometry":{"type":"MultiPolygon","coordinates":[[[[-91.4375,17.241107941],[-91.352783203,17.176387787],[-91.277236938,17.178333282],[-91.184448242,17.035552979],[-91.118347168,17.010276794],[-91.062789917,16.902774811],[-90.985839844,16.868053436],[-90.983337402,16.903053284],[-90.955291748,16.899166107],[-90.966125488,16.871944427],[-90.921112061,16.829719543],[-90.803344727,16.80499649],[-90.714279175,16.726459503],[-90.658065796,16.644165039],[-90.665283203,16.583053589],[-90.631668091,16.581386566],[-90.645004272,16.519165039],[-90.611114502,16.510555267],[-90.634170532,16.483886719],[-90.546401978,16.484996796],[-90.481674194,16.458332062],[-90.480834961,16.426109314],[-90.395843506,16.415554047],[-90.378890991,16.365276337],[-90.420288086,16.359722137],[-90.391113281,16.340831757],[-90.459457397,16.2527771],[-90.436401367,16.237220764],[-90.459732056,16.190830231],[-90.427505493,16.167499542],[-90.460845947,16.106388092],[-90.431671143,16.102218628],[-90.458068848,16.074718475],[-91.729171753,16.074996948],[-92.211395264,15.262220383],[-92.065841675,15.077775955],[-92.149734497,14.994443893],[-92.141677856,14.897499084],[-92.185836792,14.843610764],[-92.154449463,14.675832748],[-92.187225342,14.58833313],[-92.246780396,14.550546646],[-92.798339844,15.105554581],[-92.844451904,15.170555115],[-92.775283813,15.151943207],[-92.743896484,15.086666107],[-92.769180298,15.171110153],[-92.845565796,15.2088871],[-92.851394653,15.181665421],[-92.976119995,15.25916481],[-93.194168091,15.481388092],[-93.546401978,15.759721756],[-93.928894043,15.994720459],[-93.929458618,16.016109467],[-93.881958008,15.998609543],[-93.855834961,16.021663666],[-93.894180298,16.087776184],[-94.073623657,16.136943817],[-94.083435059,16.150949478],[-94.036392212,16.283330917],[-94.123062134,16.510000229],[-94.035842896,16.653049469],[-94.041397095,16.800550461],[-93.909179688,16.881940842],[-93.905288696,17.013050079],[-93.868057251,17.012220383],[-93.873428345,17.150279999],[-93.626953125,17.307500839],[-93.589401245,17.375459671],[-93.526672363,17.508609772],[-93.391952515,17.607780457],[-93.309448242,17.959720612],[-93.264183044,17.991390228],[-93.142227173,17.943609238],[-92.994743347,17.918889999],[-93.013061523,17.730270386],[-92.986106873,17.544719696],[-92.905563354,17.53027916],[-92.832229614,17.404439926],[-92.761672974,17.361660004],[-92.386672974,17.667770386],[-92.365837097,17.716939926],[-92.153633118,17.789440155],[-92.068618774,17.788610458],[-92.077789307,17.832780838],[-91.989898682,17.912220001],[-91.950561523,17.895549774],[-91.945556641,17.854719162],[-91.912513733,17.887220383],[-91.82333374,17.889160156],[-91.78666687,17.855550766],[-91.772872925,17.77368927],[-91.793617249,17.726669312],[-91.698623657,17.714160919],[-91.664169312,17.644720078],[-91.665283203,17.505550385],[-91.507583618,17.469900131],[-91.496116638,17.404159546],[-91.426391602,17.386940002],[-91.388061523,17.326660156],[-91.4375,17.241107941]]]]},"properties":{"name":"Chiapas","mapcolor":22,"cartodb_id":22}},{"type":"Feature","geometry":{"type":"MultiPolygon","coordinates":[[[[-108.471298218,26.961330414],[-108.604202271,27.038059235],[-108.665298462,27.151939392],[-108.636398315,27.319160461],[-108.667503357,27.404159546],[-108.655296326,27.520000458],[-108.775001526,27.599439621],[-108.809700012,27.711669922],[-108.913902283,27.784999847],[-109.146400452,28.175830841],[-109.055801392,28.299160004],[-109.022003174,28.275829315],[-108.976997375,28.305549622],[-108.88079834,28.298330307],[-108.652496338,28.212219238],[-108.565597534,28.289169312],[-108.689498901,28.696390152],[-108.623901367,28.771110535],[-108.707801819,29.400829315],[-108.613601685,29.401109695],[-108.558097839,29.992769241],[-108.67780304,30.57583046],[-108.73500061,30.632499695],[-108.798103333,31.204999924],[-108.836097717,31.15694046],[-108.891403198,31.192220688],[-108.827308655,31.343450546],[-108.21006012,31.343742371],[-108.202659607,31.786804199],[-107.282997131,31.784980774],[-106.538970947,31.786197662],[-106.383041382,31.733762741],[-106.212753296,31.478128433],[-105.99835968,31.393817902],[-105.769729614,31.170780182],[-105.603218079,31.086427689],[-105.554382324,30.998285294],[-105.409065247,30.902509689],[-105.390312195,30.85308075],[-105.313781738,30.816507339],[-105.287597656,30.831949234],[-105.25818634,30.797653198],[-105.21434021,30.812086105],[-105.060562134,30.687870026],[-104.997543335,30.684333801],[-104.986930847,30.641324997],[-104.890678406,30.570556641],[-104.852996826,30.392263412],[-104.806472778,30.376447678],[-104.813957214,30.350469589],[-104.702613831,30.238489151],[-104.674758911,30.148963928],[-104.696495056,30.057302475],[-104.674369812,29.909282684],[-104.577560425,29.807935715],[-104.535247803,29.679466248],[-104.377593994,29.550611496],[-104.204734802,29.484041214],[-104.164382935,29.400714874],[-104.045631409,29.328119278],[-103.786994934,29.267259598],[-103.76776123,29.281240463],[-103.782157898,29.229795456],[-103.739852905,29.230348587],[-103.720314026,29.190631866],[-103.526237488,29.1466465],[-103.474075317,29.072134018],[-103.375450134,29.032108307],[-103.335517883,29.050338745],[-103.290145874,28.997732162],[-103.954696655,27.870550156],[-103.630897522,26.661079407],[-103.844200134,26.728889465],[-104.188301086,26.756389618],[-104.551101685,26.350559235],[-104.607498169,26.355550766],[-104.725601196,26.450550079],[-104.796699524,26.433330536],[-104.843902588,26.492769241],[-105.010002136,26.459440231],[-105.121902466,26.521390915],[-105.138298035,26.541389465],[-105.32610321,26.458890915],[-105.585296631,26.587779999],[-105.636901855,26.662780762],[-105.753898621,26.655000687],[-106.027496338,26.838609695],[-106.091903687,26.73500061],[-106.126998901,26.769439697],[-106.153297424,26.752220154],[-106.172203064,26.59139061],[-106.239501953,26.415000916],[-106.344703674,26.368890762],[-106.449996948,26.376390457],[-106.367500305,26.147499084],[-106.40309906,26.079999924],[-106.520797729,26.021110535],[-106.533599854,25.789169312],[-106.74030304,25.622499466],[-107.084098816,25.606090546],[-107.151702881,25.775550842],[-107.299697876,25.943330765],[-107.366401672,26.115280151],[-107.78440094,26.200279236],[-107.846702576,26.63999939],[-108.003898621,26.819719315],[-108.035598755,26.947500229],[-108.220596313,26.972770691],[-108.248901367,27.040830612],[-108.305297852,27.061389923],[-108.404998779,27.030830383],[-108.471298218,26.961330414]]]]},"properties":{"name":"Chihuahua","mapcolor":24,"cartodb_id":24}},{"type":"Feature","geometry":{"type":"MultiPolygon","coordinates":[[[[-103.290145874,28.997732162],[-103.280349731,28.986373901],[-103.266586304,29.007453918],[-103.153465271,28.978681564],[-102.988098145,29.190862656],[-102.866172791,29.229036331],[-102.908325195,29.269203186],[-102.883010864,29.353370667],[-102.82220459,29.411844254],[-102.804725647,29.530145645],[-102.676361084,29.744224548],[-102.637611389,29.732337952],[-102.576499939,29.778247833],[-102.551948547,29.749500275],[-102.503097534,29.785455704],[-102.384796143,29.767946243],[-102.36756134,29.84528923],[-102.324333191,29.880115509],[-102.063995361,29.784570694],[-101.973320007,29.81877327],[-101.924224854,29.78850174],[-101.819099426,29.814125061],[-101.805206299,29.779998779],[-101.759094238,29.787166595],[-101.639671326,29.756959915],[-101.581489563,29.76515007],[-101.543952942,29.810119629],[-101.538345337,29.763017654],[-101.470466614,29.788690567],[-101.448425293,29.760585785],[-101.401275635,29.76990509],[-101.416099548,29.745433807],[-101.368400574,29.657161713],[-101.305862427,29.652431488],[-101.308929443,29.580909729],[-101.254585266,29.628749847],[-101.261428833,29.526473999],[-101.067359924,29.473552704],[-101.009056091,29.373254776],[-100.796989441,29.242502213],[-100.768608093,29.166570663],[-100.668769836,29.080072403],[-100.647224426,28.92234993],[-100.589790344,28.89422226],[-100.497909546,28.660987854],[-100.403175354,28.589733124],[-100.419532776,28.54419136],[-100.345802307,28.500810623],[-100.37677002,28.478651047],[-100.351570129,28.394182205],[-100.292892456,28.320360184],[-100.297920227,28.280353546],[-100.223464966,28.241456985],[-100.214073181,28.201934814],[-100.096923828,28.154281616],[-99.993309021,28.00345993],[-99.941856384,27.986881256],[-99.874732971,27.797685623],[-99.815727234,27.780107498],[-99.807815552,27.770837784],[-99.973068237,27.635280609],[-100.182502747,27.79417038],[-100.311401367,27.709999084],[-100.42829895,27.400829315],[-100.584999084,27.395000458],[-100.822799683,27.235279083],[-100.795303345,27.026390076],[-100.75920105,27.046670914],[-100.699996948,27.010280609],[-100.658599854,27.071109772],[-100.549697876,27.030550003],[-100.532798767,26.867219925],[-100.565597534,26.771940231],[-100.61579895,26.750829697],[-100.694702148,26.628330231],[-100.794197083,26.707780838],[-101.218597412,26.370550156],[-101.035797119,26.149440765],[-100.949401855,26.11138916],[-100.913398743,26.056940079],[-100.917503357,25.987779617],[-100.832496643,25.918050766],[-100.819702148,25.743890762],[-100.709999084,25.611660004],[-100.642196655,25.608329773],[-100.634498596,25.553329468],[-100.571998596,25.528329849],[-100.577796936,25.498609543],[-100.674499512,25.536390305],[-100.691703796,25.489999771],[-100.581703186,25.444160461],[-100.441703796,25.327220917],[-100.30280304,25.325000763],[-100.189697266,25.275829315],[-100.25920105,25.254999161],[-100.19090271,25.190929413],[-100.229202271,25.213630676],[-100.374702454,25.157499313],[-100.437202454,25.211940765],[-100.54360199,25.228330612],[-100.708602905,25.198610306],[-100.773101807,25.155550003],[-100.825302124,25.038890839],[-100.698303223,24.931110382],[-100.787200928,24.892780304],[-100.823898315,24.559999466],[-100.872200012,24.601390839],[-100.996398926,24.589719772],[-101.242202759,24.810279846],[-101.321098328,24.778610229],[-101.360298157,24.821109772],[-101.445297241,24.761390686],[-101.579696655,24.754440308],[-101.61000061,24.788330078],[-101.585601807,24.858060837],[-101.746398926,24.905830383],[-101.837501526,25.026939392],[-102.257202148,25.155550003],[-102.665802002,25.118049622],[-102.666900635,25.07583046],[-102.829200745,24.861660004],[-102.811401367,24.696659088],[-102.951698303,24.798610687],[-103.160301208,24.849720001],[-103.238899231,24.904439926],[-103.25920105,25.058889389],[-103.398597717,25.150550842],[-103.504699707,25.275960922],[-103.428901672,25.333610535],[-103.41280365,25.385280609],[-103.48449707,25.465269089],[-103.484703064,25.541940689],[-103.325798035,25.743330002],[-103.336097717,26.075550079],[-103.278900146,26.284439087],[-103.322502136,26.383890152],[-103.630897522,26.661079407],[-103.954696655,27.870550156],[-103.290145874,28.997732162]]]]},"properties":{"name":"Coahuila","mapcolor":25,"cartodb_id":25}},{"type":"Feature","geometry":{"type":"MultiPolygon","coordinates":[[[[-103.745483398,18.68806839],[-104.004463196,18.896385193],[-104.315002441,19.008052826],[-104.327789307,19.095275879],[-104.44833374,19.090831757],[-104.594596863,19.143499374],[-104.540000916,19.253889084],[-104.473098755,19.230270386],[-104.429496765,19.284719467],[-104.386901855,19.271110535],[-104.255599976,19.319160461],[-104.129203796,19.383050919],[-104.146697998,19.463890076],[-104.067802429,19.51832962],[-103.822799683,19.392499924],[-103.644203186,19.480270386],[-103.491996765,19.325279236],[-103.52469635,19.072780609],[-103.479598999,18.967220306],[-103.57749939,18.881660461],[-103.610801697,18.88999939],[-103.631103516,18.791940689],[-103.683097839,18.775829315],[-103.745483398,18.68806839]]]]},"properties":{"name":"Colima","mapcolor":12,"cartodb_id":12}},{"type":"Feature","geometry":{"type":"MultiPolygon","coordinates":[[[[-99.284866333,19.142440796],[-99.340560913,19.357780457],[-99.224456787,19.405830383],[-99.113067627,19.540830612],[-99.085281372,19.475830078],[-99.031677246,19.454439163],[-99.028343201,19.372219086],[-98.967506409,19.306110382],[-98.939178467,19.137779236],[-98.963851929,19.089029312],[-99.031402588,19.061389923],[-99.133621216,19.116109848],[-99.284866333,19.142440796]]]]},"properties":{"name":"Distrito Federal","mapcolor":11,"cartodb_id":11}},{"type":"Feature","geometry":{"type":"MultiPolygon","coordinates":[[[[-104.311401367,22.319210052],[-104.345001221,22.451389313],[-104.491401672,22.410270691],[-104.612503052,22.472499847],[-104.660598755,22.62443924],[-104.757499695,22.676670074],[-104.998100281,22.548330307],[-104.998100281,22.678890228],[-104.879997253,22.783050537],[-104.914703369,22.924720764],[-105.17199707,23.039720535],[-105.3125,23.034719467],[-105.402099609,23.067459106],[-105.416702271,23.147220612],[-105.528900146,23.144439697],[-105.633903503,23.253440857],[-105.684196472,23.287220001],[-105.716400146,23.46972084],[-105.763298035,23.556659698],[-105.885803223,23.759719849],[-105.908096313,24.055269241],[-105.959701538,24.098890305],[-106.002197266,24.211940765],[-106.249198914,24.390270233],[-106.396102905,24.284719467],[-106.519203186,24.301940918],[-106.63860321,24.572500229],[-106.821098328,24.76333046],[-106.885002136,24.770280838],[-106.948898315,24.841939926],[-107.107498169,25.148609161],[-107.124702454,25.294439316],[-107.084098816,25.606090546],[-106.74030304,25.622499466],[-106.533599854,25.789169312],[-106.520797729,26.021110535],[-106.40309906,26.079999924],[-106.367500305,26.147499084],[-106.449996948,26.376390457],[-106.344703674,26.368890762],[-106.239501953,26.415000916],[-106.172203064,26.59139061],[-106.153297424,26.752220154],[-106.126998901,26.769439697],[-106.091903687,26.73500061],[-106.027496338,26.838609695],[-105.753898621,26.655000687],[-105.636901855,26.662780762],[-105.585296631,26.587779999],[-105.32610321,26.458890915],[-105.138298035,26.541389465],[-105.121902466,26.521390915],[-105.010002136,26.459440231],[-104.843902588,26.492769241],[-104.796699524,26.433330536],[-104.725601196,26.450550079],[-104.607498169,26.355550766],[-104.551101685,26.350559235],[-104.188301086,26.756389618],[-103.844200134,26.728889465],[-103.630897522,26.661079407],[-103.322502136,26.383890152],[-103.278900146,26.284439087],[-103.336097717,26.075550079],[-103.325798035,25.743330002],[-103.484703064,25.541940689],[-103.48449707,25.465269089],[-103.41280365,25.385280609],[-103.428901672,25.333610535],[-103.504699707,25.275960922],[-103.398597717,25.150550842],[-103.25920105,25.058889389],[-103.238899231,24.904439926],[-103.160301208,24.849720001],[-102.951698303,24.798610687],[-102.811401367,24.696659088],[-102.829200745,24.861660004],[-102.666900635,25.07583046],[-102.504997253,24.828609467],[-102.51360321,24.452220917],[-102.735298157,24.458890915],[-102.767196655,24.433889389],[-103.267501831,24.476110458],[-103.612503052,24.275550842],[-103.600601196,24.182500839],[-103.850898743,24.073059082],[-103.875602722,23.86138916],[-103.858596802,23.736940384],[-103.808296204,23.674720764],[-103.919700623,23.623329163],[-103.936698914,23.573059082],[-104.078102112,23.447500229],[-104.096099854,23.195829391],[-104.169700623,23.142780304],[-104.20110321,23.062770844],[-104.258598328,22.42193985],[-104.311401367,22.319210052]]]]},"properties":{"name":"Durango","mapcolor":27,"cartodb_id":27}},{"type":"Feature","geometry":{"type":"MultiPolygon","coordinates":[[[[-100.280296326,20.204509735],[-100.348602295,20.057220459],[-100.481399536,19.907779694],[-100.679199219,19.985279083],[-100.841400146,19.927499771],[-100.898399353,19.941110611],[-100.915298462,20.036659241],[-100.98449707,20.059719086],[-101.154403687,20.086389542],[-101.274398804,20.023889542],[-101.361099243,20.035270691],[-101.409202576,20.079999924],[-101.399398804,20.178609848],[-101.460601807,20.333679199],[-101.606903076,20.318050385],[-101.67389679,20.190830231],[-101.820800781,20.211940765],[-101.888900757,20.191110611],[-101.920303345,20.211109161],[-101.95059967,20.364440918],[-101.98059845,20.367290497],[-101.99420166,20.326940536],[-101.995597839,20.403049469],[-102.108802795,20.389080048],[-102.089202881,20.464439392],[-101.978302002,20.591110229],[-102.091903687,20.773609161],[-102.074699402,20.813890457],[-101.848297119,21.102220535],[-101.839996338,21.150550842],[-101.658302307,21.243049622],[-101.576400757,21.326660156],[-101.632003784,21.533330917],[-101.54360199,21.65694046],[-101.588302612,21.772779465],[-101.524902344,21.856639862],[-101.426696777,21.834999084],[-101.322799683,21.86138916],[-101.203903198,21.767499924],[-100.968597412,21.745000839],[-100.751701355,21.568889618],[-100.608100891,21.506389618],[-100.549697876,21.515550613],[-100.432502747,21.650550842],[-100.29699707,21.648889542],[-100.193199158,21.586259842],[-99.790542603,21.419179916],[-99.777511597,21.303609848],[-99.724731445,21.238889694],[-99.82333374,21.174160004],[-99.961120605,21.201389313],[-100.009498596,21.180269241],[-100.029403687,21.090000153],[-100.080596924,21.048330307],[-100.11000061,20.902219772],[-100.368103027,20.925830841],[-100.405296326,20.946659088],[-100.4661026,20.924999237],[-100.600601196,20.691110611],[-100.493301392,20.609170914],[-100.449203491,20.373609543],[-100.38809967,20.331110001],[-100.404403687,20.290830612],[-100.280296326,20.204509735]]]]},"properties":{"name":"Guanajuato","mapcolor":6,"cartodb_id":6}},{"type":"Feature","geometry":{"type":"MultiPolygon","coordinates":[[[[-99.050491333,18.370790482],[-99.031402588,18.237779617],[-98.927230835,18.202220917],[-98.904167175,18.125270844],[-98.831680298,18.134439468],[-98.763061523,18.011390686],[-98.616958618,17.973329544],[-98.448623657,17.994159698],[-98.34777832,17.892219543],[-98.321121216,17.865829468],[-98.379730225,17.688610077],[-98.379730225,17.532499313],[-98.303337097,17.411659241],[-98.290847778,17.248329163],[-98.075012207,17.112499237],[-98.013343811,17.041109085],[-98.056671143,16.884159088],[-98.081680298,16.760000229],[-98.167793274,16.70083046],[-98.240371704,16.702669144],[-98.206123352,16.645280838],[-98.329727173,16.545000076],[-98.328056335,16.405000687],[-98.468612671,16.383329391],[-98.5546875,16.319343567],[-98.782226562,16.55305481],[-98.864730835,16.524440765],[-99.036956787,16.596942902],[-99.692230225,16.708332062],[-99.849731445,16.787498474],[-99.837783813,16.814441681],[-99.878067017,16.870277405],[-99.900009155,16.825553894],[-99.938903809,16.882221222],[-100.078338623,16.941665649],[-100.186401367,16.955554962],[-101.048606873,17.266941071],[-101.104446411,17.358886719],[-101.417793274,17.518608093],[-101.497787476,17.621944427],[-101.556121826,17.617774963],[-101.633056641,17.666942596],[-101.787780762,17.876110077],[-101.950012207,17.977497101],[-102.047233582,17.988887787],[-102.144447327,17.919166565],[-102.180854797,17.921894073],[-102.146102905,18.174160004],[-101.987503052,18.202220917],[-101.900299072,18.261390686],[-101.863182068,18.290046692],[-101.877738953,18.537405014],[-101.844474792,18.595607758],[-101.619987488,18.60807991],[-101.574256897,18.524932861],[-101.509819031,18.485439301],[-101.45161438,18.479204178],[-101.295600891,18.53360939],[-101.087501526,18.501110077],[-101.011100769,18.517219543],[-100.94670105,18.441940308],[-100.90940094,18.450000763],[-100.915298462,18.477500916],[-100.79309845,18.472219467],[-100.685600281,18.387500763],[-100.62449646,18.353330612],[-100.593597412,18.402240753],[-100.720596313,18.525550842],[-100.769699097,18.791109085],[-100.728103638,18.860189438],[-100.682601929,18.78606987],[-100.586402893,18.85972023],[-100.527801514,18.844449997],[-100.455001831,18.809999466],[-100.386100769,18.528329849],[-100.305603027,18.390829086],[-100.259498596,18.397499084],[-100.122497559,18.516109467],[-100.093299866,18.607219696],[-99.888633728,18.657779694],[-99.795837402,18.633890152],[-99.650558472,18.76499939],[-99.496536255,18.6667099],[-99.311683655,18.463329315],[-99.256393433,18.459720612],[-99.227783203,18.526660919],[-99.149436951,18.533889771],[-99.050491333,18.370790482]]]]},"properties":{"name":"Guerrero","mapcolor":19,"cartodb_id":19}},{"type":"Feature","geometry":{"type":"MultiPolygon","coordinates":[[[[-98.659408569,19.585399628],[-98.655563354,19.595550537],[-98.581390381,19.738889694],[-98.695007324,19.838890076],[-98.872627258,19.849720001],[-98.914459229,19.803329468],[-98.958068848,19.807500839],[-98.976669312,19.867219925],[-98.942779541,19.992500305],[-99.030838013,20.041940689],[-99.203613281,19.976940155],[-99.277786255,19.820270538],[-99.381958008,19.776109695],[-99.428337097,19.883050919],[-99.519447327,19.951940536],[-99.485572815,20.081939697],[-99.559173584,20.145000458],[-99.663352966,20.13861084],[-99.829101562,20.270000458],[-99.819458008,20.512500763],[-99.489906311,20.661130905],[-99.519180298,20.71944046],[-99.49445343,20.81554985],[-99.390289307,20.915279388],[-99.345001221,21.045280457],[-99.373901367,21.098049164],[-99.317497253,21.101390839],[-99.294372559,21.148700714],[-99.218612671,21.112499237],[-99.065292358,21.181659698],[-99.034606934,21.157100677],[-99.043258667,21.268320084],[-98.943069458,21.293609619],[-98.905563354,21.216110229],[-98.81111145,21.184999466],[-98.620010376,21.215000153],[-98.605827332,21.334440231],[-98.515007019,21.398889542],[-98.477226257,21.352220535],[-98.487228394,21.241939545],[-98.410568237,21.154159546],[-98.337509155,21.152219772],[-98.29888916,21.233890533],[-98.263061523,21.213050842],[-98.272903442,21.183610916],[-98.288162231,21.129779816],[-98.212509155,21.15722084],[-98.130569458,21.074720383],[-98.153060913,21.019439697],[-98.176391602,21.027500153],[-98.220001221,20.961940765],[-98.230560303,20.83082962],[-98.366958618,20.858610153],[-98.421112061,20.790279388],[-98.51083374,20.756389618],[-98.498901367,20.712499619],[-98.424453735,20.718610764],[-98.566116333,20.501659393],[-98.494743347,20.376390457],[-98.452789307,20.359170914],[-98.402236938,20.441110611],[-98.335006714,20.434999466],[-98.095291138,20.661659241],[-98.030838013,20.642499924],[-98.029449463,20.606939316],[-98.042793274,20.506940842],[-98.098182678,20.432170868],[-98.162513733,20.324720383],[-98.238067627,20.313890457],[-98.245826721,20.276939392],[-98.244743347,20.217220306],[-98.134170532,20.198890686],[-98.095840454,20.104999542],[-98.258056641,19.84610939],[-98.143066406,19.672779083],[-98.257507324,19.713890076],[-98.315002441,19.640550613],[-98.343902588,19.589439392],[-98.492233276,19.644720078],[-98.659408569,19.585399628]]]]},"properties":{"name":"Hidalgo","mapcolor":8,"cartodb_id":8}},{"type":"Feature","geometry":{"type":"MultiPolygon","coordinates":[[[[-101.524902344,21.856639862],[-101.588302612,21.772779465],[-101.54360199,21.65694046],[-101.632003784,21.533330917],[-101.576400757,21.326660156],[-101.658302307,21.243049622],[-101.839996338,21.150550842],[-101.848297119,21.102220535],[-102.074699402,20.813890457],[-102.091903687,20.773609161],[-101.978302002,20.591110229],[-102.089202881,20.464439392],[-102.108802795,20.389080048],[-102.211700439,20.343050003],[-102.443603516,20.338050842],[-102.622200012,20.229160309],[-102.772399902,20.196889877],[-102.88809967,20.163909912],[-103.04889679,20.092220306],[-103.0963974,20.023889542],[-103.086402893,19.989170074],[-103.038902283,19.981389999],[-103.022003174,19.899719238],[-102.929000854,19.952449799],[-102.915100098,19.931379318],[-102.807601929,19.899589539],[-102.789703369,19.899740219],[-102.741500854,19.882400513],[-102.726997375,19.818609238],[-102.830001831,19.757049561],[-102.823799133,19.706680298],[-102.76309967,19.592500687],[-102.748100281,19.473609924],[-102.609199524,19.491390228],[-102.573097229,19.40694046],[-102.674499512,19.224439621],[-102.768096924,19.254999161],[-102.968902588,19.175279617],[-102.975601196,19.096660614],[-103.095001221,19.036109924],[-103.132797241,18.954999924],[-103.285301208,19.066669464],[-103.348297119,18.974439621],[-103.479598999,18.967220306],[-103.52469635,19.072780609],[-103.491996765,19.325279236],[-103.644203186,19.480270386],[-103.822799683,19.392499924],[-104.067802429,19.51832962],[-104.146697998,19.463890076],[-104.129203796,19.383050919],[-104.255599976,19.319160461],[-104.386901855,19.271110535],[-104.429496765,19.284719467],[-104.473098755,19.230270386],[-104.540000916,19.253889084],[-104.594596863,19.143499374],[-104.662780762,19.168052673],[-104.73500061,19.229999542],[-104.8097229,19.220832825],[-104.796951294,19.288608551],[-104.885276794,19.280277252],[-104.992507935,19.344997406],[-105.069732666,19.448329926],[-105.102508545,19.564998627],[-105.269996643,19.679721832],[-105.518623352,20.026107788],[-105.561950684,20.219165802],[-105.674728394,20.371665955],[-105.676963806,20.424163818],[-105.560287476,20.489997864],[-105.351959229,20.513053894],[-105.244171143,20.574165344],[-105.238067627,20.644443512],[-105.271591187,20.693254471],[-105.083297729,20.925279617],[-104.948898315,20.925550461],[-104.769996643,21.020549774],[-104.72190094,21.012779236],[-104.625,20.923610687],[-104.535003662,20.916109085],[-104.467201233,20.829719543],[-104.285598755,20.708049774],[-104.275001526,20.860830307],[-104.209999084,20.978050232],[-104.22769928,21.17773056],[-104.042503357,21.211389542],[-103.961402893,21.287780762],[-103.944900513,21.374969482],[-104.207199097,21.54722023],[-104.152801514,21.598049164],[-104.093597412,21.785829544],[-104.402801514,22.076389313],[-104.329597473,22.264539719],[-104.144203186,22.342220306],[-103.950302124,22.368049622],[-103.921699524,22.510829926],[-104.029403687,22.581939697],[-103.99420166,22.65860939],[-104.007003784,22.764720917],[-103.802001953,22.723049164],[-103.770599365,22.636669159],[-103.870796204,22.577220917],[-103.833602905,22.489440918],[-103.883903503,22.461109161],[-103.868598938,22.183889389],[-103.741401672,22.576389313],[-103.6588974,22.573329926],[-103.614997864,22.524719238],[-103.700897217,22.145990372],[-103.682502747,22.112779617],[-103.638298035,22.081670761],[-103.52230072,22.117290497],[-103.371696472,22.32749939],[-103.409202576,22.43555069],[-103.372497559,22.505830765],[-103.179496765,22.368610382],[-103.201400757,22.307779312],[-103.055603027,22.286109924],[-103.127799988,22.147779465],[-103.0911026,22.090269089],[-103.170799255,21.975280762],[-103.29309845,21.982500076],[-103.394203186,21.933330536],[-103.446998596,21.848049164],[-103.547798157,21.785549164],[-103.509498596,21.731939316],[-103.514198303,21.593050003],[-103.650299072,21.461389542],[-103.733596802,21.516389847],[-103.702796936,21.386940002],[-103.753097534,21.251659393],[-103.765602112,21.223890305],[-103.736999512,21.203329086],[-103.646102905,21.241939545],[-103.601699829,21.188049316],[-103.542800903,21.198059082],[-103.055801392,21.054439545],[-103.085601807,21.1875],[-103.03440094,21.306659698],[-102.96219635,21.284719467],[-102.906700134,21.328609467],[-102.833602905,21.320550919],[-102.687202454,21.381940842],[-102.639198303,21.54693985],[-102.769699097,21.617769241],[-102.741401672,21.724170685],[-102.644996643,21.763889313],[-102.493103027,21.68721962],[-102.24030304,21.655550003],[-102.083297729,21.768610001],[-102.046096802,21.851669312],[-101.965301514,21.883050919],[-101.846199036,22.011760712],[-101.800300598,22.015270233],[-101.524902344,21.856639862]]]]},"properties":{"name":"Jalisco","mapcolor":4,"cartodb_id":4}},{"type":"Feature","geometry":{"type":"MultiPolygon","coordinates":[[[[-98.627983093,19.475759506],[-98.666122437,19.405830383],[-98.636947632,19.165279388],[-98.662231445,18.996759415],[-98.753890991,18.968889236],[-98.963851929,19.089029312],[-98.939178467,19.137779236],[-98.967506409,19.306110382],[-99.028343201,19.372219086],[-99.031677246,19.454439163],[-99.085281372,19.475830078],[-99.113067627,19.540830612],[-99.224456787,19.405830383],[-99.340560913,19.357780457],[-99.284866333,19.142440796],[-99.324447632,19.090549469],[-99.304168701,18.972499847],[-99.429733276,18.882219315],[-99.496536255,18.6667099],[-99.650558472,18.76499939],[-99.795837402,18.633890152],[-99.888633728,18.657779694],[-100.093299866,18.607219696],[-100.122497559,18.516109467],[-100.259498596,18.397499084],[-100.305603027,18.390829086],[-100.386100769,18.528329849],[-100.455001831,18.809999466],[-100.527801514,18.844449997],[-100.586402893,18.85972023],[-100.529403687,18.94054985],[-100.5338974,18.983329773],[-100.284202576,19.262779236],[-100.297203064,19.334720612],[-100.138900757,19.415830612],[-100.18699646,19.641389847],[-100.144203186,19.827220917],[-100.056999207,19.877220154],[-100.122802734,19.93803978],[-99.962226868,20.129999161],[-99.950286865,20.242769241],[-99.829101562,20.270000458],[-99.663352966,20.13861084],[-99.559173584,20.145000458],[-99.485572815,20.081939697],[-99.519447327,19.951940536],[-99.428337097,19.883050919],[-99.381958008,19.776109695],[-99.277786255,19.820270538],[-99.203613281,19.976940155],[-99.030838013,20.041940689],[-98.942779541,19.992500305],[-98.976669312,19.867219925],[-98.958068848,19.807500839],[-98.914459229,19.803329468],[-98.872627258,19.849720001],[-98.695007324,19.838890076],[-98.581390381,19.738889694],[-98.655563354,19.595550537],[-98.659408569,19.585399628],[-98.712783813,19.57749939],[-98.627983093,19.475759506]]]]},"properties":{"name":"México","mapcolor":10,"cartodb_id":10}},{"type":"Feature","geometry":{"type":"MultiPolygon","coordinates":[[[[-103.479598999,18.967220306],[-103.348297119,18.974439621],[-103.285301208,19.066669464],[-103.132797241,18.954999924],[-103.095001221,19.036109924],[-102.975601196,19.096660614],[-102.968902588,19.175279617],[-102.768096924,19.254999161],[-102.674499512,19.224439621],[-102.573097229,19.40694046],[-102.609199524,19.491390228],[-102.748100281,19.473609924],[-102.76309967,19.592500687],[-102.823799133,19.706680298],[-102.830001831,19.757049561],[-102.726997375,19.818609238],[-102.741500854,19.882400513],[-102.789703369,19.899740219],[-102.807601929,19.899589539],[-102.915100098,19.931379318],[-102.929000854,19.952449799],[-103.022003174,19.899719238],[-103.038902283,19.981389999],[-103.086402893,19.989170074],[-103.0963974,20.023889542],[-103.04889679,20.092220306],[-102.88809967,20.163909912],[-102.772399902,20.196889877],[-102.622200012,20.229160309],[-102.443603516,20.338050842],[-102.211700439,20.343050003],[-102.108802795,20.389080048],[-101.995597839,20.403049469],[-101.99420166,20.326940536],[-101.98059845,20.367290497],[-101.95059967,20.364440918],[-101.920303345,20.211109161],[-101.888900757,20.191110611],[-101.820800781,20.211940765],[-101.67389679,20.190830231],[-101.606903076,20.318050385],[-101.460601807,20.333679199],[-101.399398804,20.178609848],[-101.409202576,20.079999924],[-101.361099243,20.035270691],[-101.274398804,20.023889542],[-101.154403687,20.086389542],[-100.98449707,20.059719086],[-100.915298462,20.036659241],[-100.898399353,19.941110611],[-100.841400146,19.927499771],[-100.679199219,19.985279083],[-100.481399536,19.907779694],[-100.348602295,20.057220459],[-100.280296326,20.204509735],[-100.182502747,20.082220078],[-100.122802734,19.93803978],[-100.056999207,19.877220154],[-100.144203186,19.827220917],[-100.18699646,19.641389847],[-100.138900757,19.415830612],[-100.297203064,19.334720612],[-100.284202576,19.262779236],[-100.5338974,18.983329773],[-100.529403687,18.94054985],[-100.586402893,18.85972023],[-100.682601929,18.78606987],[-100.728103638,18.860189438],[-100.769699097,18.791109085],[-100.720596313,18.525550842],[-100.593597412,18.402240753],[-100.62449646,18.353330612],[-100.685600281,18.387500763],[-100.79309845,18.472219467],[-100.915298462,18.477500916],[-100.90940094,18.450000763],[-100.94670105,18.441940308],[-101.011100769,18.517219543],[-101.087501526,18.501110077],[-101.295600891,18.53360939],[-101.45161438,18.479204178],[-101.509819031,18.485439301],[-101.574256897,18.524932861],[-101.619987488,18.60807991],[-101.844474792,18.595607758],[-101.877738953,18.537405014],[-101.863182068,18.290046692],[-101.900299072,18.261390686],[-101.987503052,18.202220917],[-102.146102905,18.174160004],[-102.180854797,17.921894073],[-102.188903809,17.922496796],[-102.487503052,18.023330688],[-102.745010376,18.065830231],[-103.029449463,18.189998627],[-103.450012207,18.313610077],[-103.579177856,18.500831604],[-103.698623657,18.57749939],[-103.686950684,18.621387482],[-103.745483398,18.68806839],[-103.683097839,18.775829315],[-103.631103516,18.791940689],[-103.610801697,18.88999939],[-103.57749939,18.881660461],[-103.479598999,18.967220306]]]]},"properties":{"name":"Michoacán","mapcolor":9,"cartodb_id":9}},{"type":"Feature","geometry":{"type":"MultiPolygon","coordinates":[[[[-98.662231445,18.996759415],[-98.656402588,18.905000687],[-98.744743347,18.798330307],[-98.665283203,18.692499161],[-98.749923706,18.719020844],[-98.671112061,18.438610077],[-98.695281982,18.418329239],[-98.819168091,18.495000839],[-98.92250061,18.415000916],[-99.050491333,18.370790482],[-99.149436951,18.533889771],[-99.227783203,18.526660919],[-99.256393433,18.459720612],[-99.311683655,18.463329315],[-99.496536255,18.6667099],[-99.429733276,18.882219315],[-99.304168701,18.972499847],[-99.324447632,19.090549469],[-99.284866333,19.142440796],[-99.133621216,19.116109848],[-99.031402588,19.061389923],[-98.963851929,19.089029312],[-98.753890991,18.968889236],[-98.662231445,18.996759415]]]]},"properties":{"name":"Morelos","mapcolor":13,"cartodb_id":13}},{"type":"Feature","geometry":{"type":"MultiPolygon","coordinates":[[[[-106.621078491,21.565311432],[-106.647506714,21.693885803],[-106.58556366,21.715831757],[-106.530006409,21.690830231],[-106.485290527,21.61277771],[-106.515007019,21.513053894],[-106.621078491,21.565311432]]],[[[-106.399169922,21.419719696],[-106.511398315,21.450275421],[-106.471679688,21.510555267],[-106.346389771,21.503051758],[-106.327217102,21.468608856],[-106.399169922,21.419719696]]],[[[-105.271591187,20.693254471],[-105.322776794,20.767776489],[-105.417236328,20.753887177],[-105.544448853,20.784999847],[-105.467506409,20.819721222],[-105.318618774,21.017498016],[-105.241386414,21.064720154],[-105.213058472,21.227775574],[-105.238616943,21.347774506],[-105.180847168,21.450275421],[-105.221122742,21.520275116],[-105.279716492,21.521663666],[-105.436401367,21.607776642],[-105.497512817,21.775276184],[-105.654167175,21.98777771],[-105.640289307,22.286663055],[-105.714576721,22.468360901],[-105.694702148,22.473110199],[-105.644302368,22.486179352],[-105.454498291,22.54888916],[-105.479400635,22.681390762],[-105.575302124,22.75304985],[-105.541702271,22.836940765],[-105.444198608,22.90389061],[-105.487800598,22.97110939],[-105.462799072,23.040830612],[-105.402099609,23.067459106],[-105.3125,23.034719467],[-105.17199707,23.039720535],[-104.914703369,22.924720764],[-104.879997253,22.783050537],[-104.998100281,22.678890228],[-104.998100281,22.548330307],[-104.757499695,22.676670074],[-104.660598755,22.62443924],[-104.612503052,22.472499847],[-104.491401672,22.410270691],[-104.345001221,22.451389313],[-104.311401367,22.319210052],[-104.329597473,22.264539719],[-104.402801514,22.076389313],[-104.093597412,21.785829544],[-104.152801514,21.598049164],[-104.207199097,21.54722023],[-103.944900513,21.374969482],[-103.961402893,21.287780762],[-104.042503357,21.211389542],[-104.22769928,21.17773056],[-104.209999084,20.978050232],[-104.275001526,20.860830307],[-104.285598755,20.708049774],[-104.467201233,20.829719543],[-104.535003662,20.916109085],[-104.625,20.923610687],[-104.72190094,21.012779236],[-104.769996643,21.020549774],[-104.948898315,20.925550461],[-105.083297729,20.925279617],[-105.271591187,20.693254471]]]]},"properties":{"name":"Nayarit","mapcolor":3,"cartodb_id":3}},{"type":"Feature","geometry":{"type":"MultiPolygon","coordinates":[[[[-99.718162537,27.665857315],[-99.915847778,27.523050308],[-99.894996643,27.447500229],[-99.800292969,27.456939697],[-99.748336792,27.413059235],[-99.699172974,27.159160614],[-99.733062744,26.913610458],[-99.633903503,26.899169922],[-99.566390991,26.852500916],[-99.631118774,26.662220001],[-99.501106262,26.673049927],[-99.415008545,26.628330231],[-99.382507324,26.510000229],[-99.446670532,26.453609467],[-99.38722229,26.354999542],[-99.316116333,26.360830307],[-99.24861145,26.291109085],[-99.176963806,26.290000916],[-99.113739014,26.07777977],[-99.012077332,26.095479965],[-98.996490479,26.088720322],[-98.89666748,25.993890762],[-98.815292358,26.057779312],[-98.585006714,26.040830612],[-98.556396484,25.987220764],[-98.569168091,25.520549774],[-98.450561523,25.493049622],[-98.443893433,25.422779083],[-98.904716492,25.073749542],[-98.924850464,25.076660156],[-98.992782593,25.074169159],[-99.041397095,25.122499466],[-99.106117249,25.046670914],[-99.150558472,25.051389694],[-99.142501831,25.012220383],[-99.195281982,24.876110077],[-99.163887024,24.775829315],[-99.258903503,24.804159164],[-99.413887024,24.756660461],[-99.567779541,24.64304924],[-99.592788696,24.654439926],[-99.731666565,24.528610229],[-99.674179077,24.473890305],[-99.627227783,24.497219086],[-99.557243347,24.368049622],[-99.611953735,24.217500687],[-99.606399536,24.076940536],[-99.491119385,23.993610382],[-99.450561523,23.893610001],[-99.498901367,23.894720078],[-99.59777832,23.76333046],[-99.838623047,23.746669769],[-99.956390381,23.531669617],[-99.888343811,23.372499466],[-100.024200439,23.410270691],[-100.071998596,23.354999542],[-100.042800903,23.316110611],[-100.057197571,23.241109848],[-100.30329895,23.24805069],[-100.371902466,23.194440842],[-100.434402466,23.21639061],[-100.455299377,23.278329849],[-100.42780304,23.412220001],[-100.468101501,23.610830307],[-100.417198181,23.747499466],[-100.601402283,23.959999084],[-100.562202454,24.137500763],[-100.589698792,24.290830612],[-100.823898315,24.559999466],[-100.787200928,24.892780304],[-100.698303223,24.931110382],[-100.825302124,25.038890839],[-100.773101807,25.155550003],[-100.708602905,25.198610306],[-100.54360199,25.228330612],[-100.437202454,25.211940765],[-100.374702454,25.157499313],[-100.229202271,25.213630676],[-100.19090271,25.190929413],[-100.25920105,25.254999161],[-100.189697266,25.275829315],[-100.30280304,25.325000763],[-100.441703796,25.327220917],[-100.581703186,25.444160461],[-100.691703796,25.489999771],[-100.674499512,25.536390305],[-100.577796936,25.498609543],[-100.571998596,25.528329849],[-100.634498596,25.553329468],[-100.642196655,25.608329773],[-100.709999084,25.611660004],[-100.819702148,25.743890762],[-100.832496643,25.918050766],[-100.917503357,25.987779617],[-100.913398743,26.056940079],[-100.949401855,26.11138916],[-101.035797119,26.149440765],[-101.218597412,26.370550156],[-100.794197083,26.707780838],[-100.694702148,26.628330231],[-100.61579895,26.750829697],[-100.565597534,26.771940231],[-100.532798767,26.867219925],[-100.549697876,27.030550003],[-100.658599854,27.071109772],[-100.699996948,27.010280609],[-100.75920105,27.046670914],[-100.795303345,27.026390076],[-100.822799683,27.235279083],[-100.584999084,27.395000458],[-100.42829895,27.400829315],[-100.311401367,27.709999084],[-100.182502747,27.79417038],[-99.973068237,27.635280609],[-99.807815552,27.770837784],[-99.718162537,27.665857315]]]]},"properties":{"name":"Nuevo León","mapcolor":30,"cartodb_id":30}},{"type":"Feature","geometry":{"type":"MultiPolygon","coordinates":[[[[-96.75063324,18.430830002],[-96.635559082,18.522220612],[-96.674179077,18.681110382],[-96.405838013,18.541109085],[-96.356948853,18.38861084],[-96.254730225,18.291660309],[-96.236686707,18.213920593],[-96.205291748,18.180269241],[-96.161392212,18.18555069],[-96.150283813,18.141670227],[-96.094650269,18.164079666],[-95.862228394,18.119159698],[-95.804458618,18.051389694],[-95.799453735,17.941110611],[-95.915557861,17.779159546],[-95.790283203,17.524719238],[-95.725013733,17.501659393],[-95.560012817,17.533050537],[-95.439178467,17.633050919],[-95.364181519,17.641389847],[-95.210281372,17.733329773],[-95.205581665,17.648189545],[-95.251708984,17.594770432],[-95.069168091,17.346660614],[-95.001106262,17.335830688],[-94.967216492,17.222499847],[-94.328056335,17.172779083],[-93.873428345,17.150279999],[-93.868057251,17.012220383],[-93.905288696,17.013050079],[-93.909179688,16.881940842],[-94.041397095,16.800550461],[-94.035842896,16.653049469],[-94.123062134,16.510000229],[-94.036392212,16.283330917],[-94.083435059,16.150949478],[-94.136672974,16.22694397],[-94.205291748,16.196941376],[-94.295288086,16.219997406],[-94.368057251,16.294441223],[-94.424453735,16.278888702],[-94.416122437,16.200553894],[-94.271118164,16.134162903],[-94.341674805,16.176387787],[-94.221954346,16.162220001],[-94.181671143,16.118888855],[-94.090171814,16.095170975],[-94.068069458,16.089443207],[-93.962509155,15.996386528],[-94.062774658,16.036647797],[-94.395568848,16.170276642],[-94.528900146,16.187221527],[-94.724731445,16.196662903],[-94.615844727,16.258052826],[-94.578063965,16.318332672],[-94.667236328,16.361942291],[-94.789733887,16.257774353],[-94.808624268,16.286388397],[-94.77305603,16.331943512],[-94.861953735,16.427497864],[-95.067230225,16.274719238],[-94.870834351,16.251941681],[-94.835006714,16.283607483],[-94.831680298,16.25610733],[-94.931671143,16.240833282],[-94.778335571,16.224720001],[-94.756958008,16.194164276],[-95.135009766,16.20249939],[-95.145004272,16.164718628],[-95.220291138,16.149719238],[-95.359176636,16.056110382],[-95.366394043,16.013053894],[-95.420288086,15.978054047],[-95.944458008,15.818609238],[-96.181945801,15.691665649],[-96.43611145,15.688610077],[-96.476119995,15.643610001],[-96.839447021,15.727499008],[-97.196670532,15.913331985],[-97.785003662,15.968610764],[-97.871124268,16.021385193],[-97.870010376,16.061943054],[-98.167236328,16.196941376],[-98.064453125,16.183887482],[-98.098068237,16.214164734],[-98.398895264,16.261386871],[-98.5546875,16.319343567],[-98.468612671,16.383329391],[-98.328056335,16.405000687],[-98.329727173,16.545000076],[-98.206123352,16.645280838],[-98.240371704,16.702669144],[-98.167793274,16.70083046],[-98.081680298,16.760000229],[-98.056671143,16.884159088],[-98.013343811,17.041109085],[-98.075012207,17.112499237],[-98.290847778,17.248329163],[-98.303337097,17.411659241],[-98.379730225,17.532499313],[-98.379730225,17.688610077],[-98.321121216,17.865829468],[-98.34777832,17.892219543],[-98.3097229,17.923049927],[-98.246948242,17.909719467],[-98.159179688,18.024999619],[-97.942779541,18.032779694],[-97.922622681,17.998790741],[-97.844451904,17.924999237],[-97.738891602,17.992769241],[-97.796401978,18.172779083],[-97.719177246,18.309440613],[-97.64806366,18.340549469],[-97.613891602,18.293329239],[-97.641403198,18.172779083],[-97.449447632,17.977779388],[-97.369743347,18.102779388],[-97.281402588,18.160270691],[-97.206680298,18.179439545],[-97.080001831,18.13833046],[-96.962783813,18.150550842],[-96.886672974,18.240829468],[-96.787513733,18.284719467],[-96.726387024,18.385000229],[-96.75063324,18.430830002]]]]},"properties":{"name":"Oaxaca","mapcolor":20,"cartodb_id":20}},{"type":"Feature","geometry":{"type":"MultiPolygon","coordinates":[[[[-96.75063324,18.430830002],[-96.726387024,18.385000229],[-96.787513733,18.284719467],[-96.886672974,18.240829468],[-96.962783813,18.150550842],[-97.080001831,18.13833046],[-97.206680298,18.179439545],[-97.281402588,18.160270691],[-97.369743347,18.102779388],[-97.449447632,17.977779388],[-97.641403198,18.172779083],[-97.613891602,18.293329239],[-97.64806366,18.340549469],[-97.719177246,18.309440613],[-97.796401978,18.172779083],[-97.738891602,17.992769241],[-97.844451904,17.924999237],[-97.922622681,17.998790741],[-97.942779541,18.032779694],[-98.159179688,18.024999619],[-98.246948242,17.909719467],[-98.3097229,17.923049927],[-98.34777832,17.892219543],[-98.448623657,17.994159698],[-98.616958618,17.973329544],[-98.763061523,18.011390686],[-98.831680298,18.134439468],[-98.904167175,18.125270844],[-98.927230835,18.202220917],[-99.031402588,18.237779617],[-99.050491333,18.370790482],[-98.92250061,18.415000916],[-98.819168091,18.495000839],[-98.695281982,18.418329239],[-98.671112061,18.438610077],[-98.749923706,18.719020844],[-98.665283203,18.692499161],[-98.744743347,18.798330307],[-98.656402588,18.905000687],[-98.662231445,18.996759415],[-98.636947632,19.165279388],[-98.666122437,19.405830383],[-98.627983093,19.475759506],[-98.468338013,19.42193985],[-98.46056366,19.366939545],[-98.198623657,19.095550537],[-98.082496643,19.120830536],[-97.993621826,19.202770233],[-97.901947021,19.156389236],[-97.843902588,19.204439163],[-97.83416748,19.281669617],[-97.656402588,19.286109924],[-97.613342285,19.356389999],[-97.684173584,19.37443924],[-97.775009155,19.456390381],[-97.847229004,19.43555069],[-97.882781982,19.509719849],[-97.845573425,19.541389465],[-97.964172363,19.626390457],[-98.011123657,19.616109848],[-98.001106262,19.677780151],[-98.143066406,19.672779083],[-98.258056641,19.84610939],[-98.095840454,20.104999542],[-98.134170532,20.198890686],[-98.244743347,20.217220306],[-98.245826721,20.276939392],[-98.238067627,20.313890457],[-98.162513733,20.324720383],[-98.098182678,20.432170868],[-97.963058472,20.519720078],[-97.948623657,20.666660309],[-97.883056641,20.706390381],[-97.873901367,20.805000305],[-97.733901978,20.793050766],[-97.742233276,20.650550842],[-97.579177856,20.588609695],[-97.570648193,20.490299225],[-97.628890991,20.417770386],[-97.693336487,20.46972084],[-97.758872986,20.439899445],[-97.752792358,20.255279541],[-97.692497253,20.176109314],[-97.614730835,20.168329239],[-97.564453125,20.10667038],[-97.515007019,20.121110916],[-97.470573425,20.239719391],[-97.412231445,20.262220383],[-97.381446838,20.263729095],[-97.146392822,20.147220612],[-97.13722229,20.117500305],[-97.309448242,19.895549774],[-97.28527832,19.75],[-97.308898926,19.683889389],[-97.354446411,19.619720459],[-97.440002441,19.585830688],[-97.353347778,19.538330078],[-97.334457397,19.401390076],[-97.246398926,19.373609543],[-97.185562134,19.306659698],[-97.056121826,19.307779312],[-97.001678467,19.267499924],[-97.079727173,19.183050156],[-97.170013428,19.193609238],[-97.264717102,19.159999847],[-97.250839233,19.026390076],[-97.247787476,18.887220383],[-97.345291138,18.769439697],[-97.272781372,18.632499695],[-97.144180298,18.64332962],[-97.038619995,18.476669312],[-96.807510376,18.552780151],[-96.75063324,18.430830002]]]]},"properties":{"name":"Puebla","mapcolor":16,"cartodb_id":16}},{"type":"Feature","geometry":{"type":"MultiPolygon","coordinates":[[[[-100.122802734,19.93803978],[-100.182502747,20.082220078],[-100.280296326,20.204509735],[-100.404403687,20.290830612],[-100.38809967,20.331110001],[-100.449203491,20.373609543],[-100.493301392,20.609170914],[-100.600601196,20.691110611],[-100.4661026,20.924999237],[-100.405296326,20.946659088],[-100.368103027,20.925830841],[-100.11000061,20.902219772],[-100.080596924,21.048330307],[-100.029403687,21.090000153],[-100.009498596,21.180269241],[-99.961120605,21.201389313],[-99.82333374,21.174160004],[-99.724731445,21.238889694],[-99.777511597,21.303609848],[-99.790542603,21.419179916],[-99.743057251,21.521659851],[-99.690567017,21.554719925],[-99.579727173,21.42388916],[-99.411956787,21.461109161],[-99.366958618,21.556659698],[-99.296676636,21.563890457],[-99.255279541,21.625829697],[-99.200012207,21.643890381],[-99.087783813,21.287220001],[-99.043258667,21.268320084],[-99.034606934,21.157100677],[-99.065292358,21.181659698],[-99.218612671,21.112499237],[-99.294372559,21.148700714],[-99.317497253,21.101390839],[-99.373901367,21.098049164],[-99.345001221,21.045280457],[-99.390289307,20.915279388],[-99.49445343,20.81554985],[-99.519180298,20.71944046],[-99.489906311,20.661130905],[-99.819458008,20.512500763],[-99.829101562,20.270000458],[-99.950286865,20.242769241],[-99.962226868,20.129999161],[-100.122802734,19.93803978]]]]},"properties":{"name":"Querétaro","mapcolor":7,"cartodb_id":7}},{"type":"Feature","geometry":{"type":"MultiPolygon","coordinates":[[[[-88.299499512,18.48292923],[-88.483947754,18.477611542],[-88.600021362,18.235832214],[-88.681121826,18.185554504],[-88.710586548,18.061195374],[-88.83757019,17.936950684],[-88.8409729,17.877559662],[-89.035842896,18.005832672],[-89.143051147,17.956066132],[-89.141952515,17.818885803],[-89.43044281,17.819162369],[-89.418327332,19.651939392],[-87.753890991,20.662500381],[-87.540557861,21.024719238],[-87.539154053,21.502313614],[-87.501953125,21.493888855],[-87.48638916,21.463886261],[-87.240844727,21.436943054],[-87.141113281,21.48777771],[-87.129180908,21.554721832],[-87.170013428,21.567218781],[-87.256668091,21.527496338],[-87.341674805,21.552219391],[-87.396118164,21.504165649],[-87.414459229,21.526943207],[-87.360290527,21.579719543],[-87.268890381,21.561664581],[-87.112503052,21.623332977],[-87.003341675,21.578330994],[-86.908065796,21.429443359],[-86.828338623,21.430274963],[-86.813339233,21.183330536],[-86.738891602,21.151386261],[-86.783065796,21.032497406],[-86.825286865,21.012496948],[-86.878341675,20.83833313],[-87.067504883,20.614719391],[-87.226394653,20.503887177],[-87.430007935,20.21472168],[-87.471954346,20.092777252],[-87.433334351,19.895553589],[-87.434532166,19.868398666],[-87.442871094,19.847431183],[-87.472229004,19.776386261],[-87.480010986,19.831665039],[-87.44733429,19.853631973],[-87.441390991,19.909164429],[-87.484451294,19.943054199],[-87.459732056,19.876110077],[-87.520568848,19.802219391],[-87.585006714,19.796665192],[-87.664459229,19.627220154],[-87.657226562,19.678333282],[-87.738891602,19.674720764],[-87.730285645,19.592777252],[-87.660842896,19.561943054],[-87.670013428,19.505275726],[-87.566955566,19.560276031],[-87.446121216,19.542499542],[-87.418441772,19.580665588],[-87.432510376,19.600276947],[-87.436676025,19.571662903],[-87.527236938,19.581386566],[-87.444458008,19.579441071],[-87.4375,19.634162903],[-87.41166687,19.578887939],[-87.465560913,19.447219849],[-87.531677246,19.400276184],[-87.570556641,19.395553589],[-87.542510986,19.434444427],[-87.626403809,19.399997711],[-87.676391602,19.318054199],[-87.6875,19.247776031],[-87.640289307,19.210830688],[-87.552230835,19.316665649],[-87.5,19.326385498],[-87.511398315,19.282218933],[-87.461120605,19.31388855],[-87.539733887,19.215274811],[-87.652236938,18.76499939],[-87.729736328,18.6677742],[-87.759170532,18.412498474],[-87.828063965,18.310832977],[-87.847503662,18.190830231],[-87.853897095,18.235553741],[-87.891113281,18.241107941],[-87.857513428,18.320274353],[-87.885559082,18.286388397],[-87.924728394,18.438053131],[-88.080841064,18.517219543],[-88.001113892,18.681388855],[-88.037506104,18.869441986],[-88.122512817,18.720832825],[-88.130279541,18.782218933],[-88.253067017,18.684719086],[-88.188613892,18.733329773],[-88.194458008,18.670555115],[-88.150848389,18.686664581],[-88.299499512,18.48292923]]],[[[-86.993347168,20.255554199],[-87.020004272,20.391666412],[-86.938903809,20.53944397],[-86.900283813,20.564441681],[-86.828903198,20.541664124],[-86.73500061,20.590553284],[-86.885559082,20.353885651],[-86.993347168,20.255554199]]]]},"properties":{"name":"Quintana Roo","mapcolor":17,"cartodb_id":17}},{"type":"Feature","geometry":{"type":"MultiPolygon","coordinates":[[[[-100.057197571,23.241109848],[-100.089202881,23.120830536],[-100.025802612,23.127220154],[-99.908073425,23.002220154],[-99.936401367,22.930549622],[-100.048599243,22.838890076],[-100.016700745,22.803890228],[-99.530563354,22.614999771],[-99.536117554,22.726669312],[-99.424438477,22.633430481],[-99.378067017,22.679439545],[-99.231117249,22.446109772],[-98.879463196,22.340549469],[-98.68611145,22.41917038],[-98.616088867,22.418489456],[-98.345573425,22.228330612],[-98.46925354,22.017139435],[-98.481369019,21.998680115],[-98.499946594,21.97413063],[-98.588562012,21.975269318],[-98.57333374,21.941110611],[-98.518623352,21.951389313],[-98.555007935,21.933330536],[-98.537231445,21.911659241],[-98.563903809,21.884439468],[-98.521118164,21.836669922],[-98.490280151,21.851940155],[-98.450843811,21.78222084],[-98.525283813,21.720550537],[-98.562789917,21.728330612],[-98.562789917,21.689439774],[-98.612792969,21.694719315],[-98.642227173,21.608890533],[-98.524436951,21.528329849],[-98.515007019,21.398889542],[-98.605827332,21.334440231],[-98.620010376,21.215000153],[-98.81111145,21.184999466],[-98.905563354,21.216110229],[-98.943069458,21.293609619],[-99.043258667,21.268320084],[-99.087783813,21.287220001],[-99.200012207,21.643890381],[-99.255279541,21.625829697],[-99.296676636,21.563890457],[-99.366958618,21.556659698],[-99.411956787,21.461109161],[-99.579727173,21.42388916],[-99.690567017,21.554719925],[-99.743057251,21.521659851],[-99.790542603,21.419179916],[-100.193199158,21.586259842],[-100.29699707,21.648889542],[-100.432502747,21.650550842],[-100.549697876,21.515550613],[-100.608100891,21.506389618],[-100.751701355,21.568889618],[-100.968597412,21.745000839],[-101.203903198,21.767499924],[-101.322799683,21.86138916],[-101.426696777,21.834999084],[-101.524902344,21.856639862],[-101.328598022,22.079170227],[-101.360603333,22.395549774],[-101.29889679,22.454439163],[-101.311401367,22.535270691],[-101.375,22.594169617],[-101.48110199,22.618610382],[-101.570800781,22.598049164],[-101.708297729,22.460830688],[-101.870796204,22.49312973],[-101.934402466,22.620550156],[-102.08139801,22.755830765],[-102.142799377,22.810279846],[-102.245002747,23.002220154],[-102.194503784,23.113050461],[-102.280601501,23.217500687],[-102.193603516,23.333610535],[-102.192802429,23.38861084],[-102.057502747,23.373609543],[-101.870300293,23.548049927],[-101.734703064,23.61000061],[-101.685302734,23.693889618],[-101.402198792,23.898050308],[-101.173103333,24.113330841],[-100.981903076,24.398609161],[-100.823898315,24.559999466],[-100.589698792,24.290830612],[-100.562202454,24.137500763],[-100.601402283,23.959999084],[-100.417198181,23.747499466],[-100.468101501,23.610830307],[-100.42780304,23.412220001],[-100.455299377,23.278329849],[-100.434402466,23.21639061],[-100.371902466,23.194440842],[-100.30329895,23.24805069],[-100.057197571,23.241109848]]]]},"properties":{"name":"San Luis Potosí","mapcolor":29,"cartodb_id":29}},{"type":"Feature","geometry":{"type":"MultiPolygon","coordinates":[[[[-105.402099609,23.067459106],[-105.462799072,23.040830612],[-105.487800598,22.97110939],[-105.444198608,22.90389061],[-105.541702271,22.836940765],[-105.575302124,22.75304985],[-105.479400635,22.681390762],[-105.454498291,22.54888916],[-105.644302368,22.486179352],[-105.694702148,22.473110199],[-105.714576721,22.468360901],[-105.720573425,22.524440765],[-105.756393433,22.532497406],[-105.816963196,22.660274506],[-106.000839233,22.816108704],[-105.983901978,22.85055542],[-106.028900146,22.827220917],[-106.218338013,23.047496796],[-106.378616333,23.184444427],[-106.424728394,23.180553436],[-106.522506714,23.401107788],[-106.802230835,23.647499084],[-106.919166565,23.868888855],[-107.374732971,24.203609467],[-107.396392822,24.248607635],[-107.795837402,24.493888855],[-107.779716492,24.515552521],[-107.497413635,24.340015411],[-107.551963806,24.380275726],[-107.495010376,24.356941223],[-107.475280762,24.392776489],[-107.525009155,24.520275116],[-107.585281372,24.521942139],[-107.595573425,24.5],[-107.553337097,24.498332977],[-107.63583374,24.451663971],[-107.670013428,24.495552063],[-107.741668701,24.498607635],[-107.808326721,24.587219238],[-107.9347229,24.635829926],[-107.811401367,24.525276184],[-107.992233276,24.645275116],[-108.060012817,24.778053284],[-107.991958618,24.75],[-107.974456787,24.768608093],[-108.010559082,24.835277557],[-107.989463806,24.961940765],[-108.050292969,24.998886108],[-108.040557861,24.831108093],[-108.101387024,24.819442749],[-108.228622437,25.027496338],[-108.326133728,25.098609924],[-108.278633118,25.102497101],[-108.179168701,24.980831146],[-108.127502441,24.972499847],[-108.132232666,25.017776489],[-108.163352966,25.028053284],[-108.142791748,25.056941986],[-108.100570679,25.014163971],[-107.999732971,25.004444122],[-108.058059692,25.086940765],[-108.125839233,25.123886108],[-108.167236328,25.108055115],[-108.219177246,25.169998169],[-108.352508545,25.167221069],[-108.355827332,25.203330994],[-108.314453125,25.186664581],[-108.316963196,25.241386414],[-108.363067627,25.263053894],[-108.398620605,25.142776489],[-108.393623352,25.20582962],[-108.436950684,25.263053894],[-108.728057861,25.3552742],[-108.590682983,25.344528198],[-108.652786255,25.394443512],[-108.770278931,25.379444122],[-108.726669312,25.401943207],[-108.7472229,25.442497253],[-108.775558472,25.431941986],[-108.767791748,25.542221069],[-108.898902893,25.561386108],[-108.877792358,25.507221222],[-108.920013428,25.456108093],[-108.945556641,25.498886108],[-109.01222229,25.495552063],[-109.029449463,25.459999084],[-109.108901978,25.526107788],[-109.05695343,25.57749939],[-108.996673584,25.569442749],[-108.979446411,25.536941528],[-108.971389771,25.589443207],[-108.878341675,25.670276642],[-108.828056335,25.798332214],[-108.900848389,25.694999695],[-109.067779541,25.587776184],[-109.136947632,25.578052521],[-109.172233582,25.647777557],[-109.257781982,25.679721832],[-109.156951904,25.555274963],[-109.249732971,25.630275726],[-109.406112671,25.641109467],[-109.300292969,25.658885956],[-109.287513733,25.708885193],[-109.37361145,25.76361084],[-109.399726868,25.678607941],[-109.408340454,25.759441376],[-109.443336487,25.790275574],[-109.416748047,25.860286713],[-109.430282593,26.014442444],[-109.256393433,26.306663513],[-109.28527832,26.153610229],[-109.214736938,26.339164734],[-109.165283203,26.325275421],[-109.152786255,26.276943207],[-109.175292969,26.264720917],[-109.101119995,26.209163666],[-109.081947327,26.281665802],[-109.131393433,26.307220459],[-109.143547058,26.338422775],[-108.48639679,26.831939697],[-108.476997375,26.865829468],[-108.471298218,26.961330414],[-108.404998779,27.030830383],[-108.305297852,27.061389923],[-108.248901367,27.040830612],[-108.220596313,26.972770691],[-108.035598755,26.947500229],[-108.003898621,26.819719315],[-107.846702576,26.63999939],[-107.78440094,26.200279236],[-107.366401672,26.115280151],[-107.299697876,25.943330765],[-107.151702881,25.775550842],[-107.084098816,25.606090546],[-107.124702454,25.294439316],[-107.107498169,25.148609161],[-106.948898315,24.841939926],[-106.885002136,24.770280838],[-106.821098328,24.76333046],[-106.63860321,24.572500229],[-106.519203186,24.301940918],[-106.396102905,24.284719467],[-106.249198914,24.390270233],[-106.002197266,24.211940765],[-105.959701538,24.098890305],[-105.908096313,24.055269241],[-105.885803223,23.759719849],[-105.763298035,23.556659698],[-105.716400146,23.46972084],[-105.684196472,23.287220001],[-105.633903503,23.253440857],[-105.528900146,23.144439697],[-105.416702271,23.147220612],[-105.402099609,23.067459106]]]]},"properties":{"name":"Sinaloa","mapcolor":26,"cartodb_id":26}},{"type":"Feature","geometry":{"type":"MultiPolygon","coordinates":[[[[-112.296401978,28.756385803],[-112.564178467,28.878330231],[-112.48638916,28.961387634],[-112.496948242,29.065830231],[-112.456947327,29.186107635],[-112.268623352,29.253051758],[-112.264183044,29.146942139],[-112.200843811,28.981666565],[-112.264450073,28.811664581],[-112.248062134,28.781665802],[-112.296401978,28.756385803]]],[[[-109.045005798,31.343347549],[-108.827308655,31.343450546],[-108.891403198,31.192220688],[-108.836097717,31.15694046],[-108.798103333,31.204999924],[-108.73500061,30.632499695],[-108.67780304,30.57583046],[-108.558097839,29.992769241],[-108.613601685,29.401109695],[-108.707801819,29.400829315],[-108.623901367,28.771110535],[-108.689498901,28.696390152],[-108.565597534,28.289169312],[-108.652496338,28.212219238],[-108.88079834,28.298330307],[-108.976997375,28.305549622],[-109.022003174,28.275829315],[-109.055801392,28.299160004],[-109.146400452,28.175830841],[-108.913902283,27.784999847],[-108.809700012,27.711669922],[-108.775001526,27.599439621],[-108.655296326,27.520000458],[-108.667503357,27.404159546],[-108.636398315,27.319160461],[-108.665298462,27.151939392],[-108.604202271,27.038059235],[-108.471298218,26.961330414],[-108.476997375,26.865829468],[-108.48639679,26.831939697],[-109.143547058,26.338422775],[-109.158340454,26.37638855],[-109.248336792,26.332775116],[-109.241119385,26.448055267],[-109.276947021,26.535831451],[-109.473342896,26.686943054],[-109.434448242,26.703887939],[-109.505569458,26.729442596],[-109.517501831,26.76499939],[-109.566680908,26.733608246],[-109.508903503,26.682220459],[-109.627502441,26.702774048],[-109.698623657,26.67527771],[-109.806671143,26.736385345],[-109.94695282,26.986385345],[-109.882232666,26.941665649],[-109.962509155,27.1052742],[-110.063339233,27.095832825],[-110.314727783,27.155277252],[-110.414726257,27.264163971],[-110.509742737,27.299163818],[-110.446403503,27.311664581],[-110.490280151,27.384162903],[-110.553886414,27.36749649],[-110.577217102,27.533885956],[-110.63583374,27.656108856],[-110.569168091,27.678886414],[-110.601669312,27.678607941],[-110.591400146,27.719165802],[-110.544448853,27.738052368],[-110.601119995,27.747776031],[-110.609451294,27.822776794],[-110.516113281,27.840831757],[-110.509742737,27.866386414],[-110.603622437,27.887218475],[-110.61000061,27.859996796],[-110.775558472,27.917499542],[-110.84777832,27.905277252],[-110.810012817,27.924720764],[-110.850280762,27.986385345],[-110.891677856,27.895832062],[-110.859176636,27.894443512],[-110.879180908,27.835552216],[-110.995010376,27.967498779],[-111.101119995,27.935554504],[-111.238891602,28.056388855],[-111.456680298,28.32749939],[-111.435836792,28.379165649],[-111.695556641,28.46472168],[-111.763343811,28.58833313],[-111.947242737,28.761665344],[-111.904449463,28.783885956],[-111.863616943,28.747219086],[-111.855293274,28.799720764],[-111.968902588,28.833053589],[-112.110290527,28.963607788],[-112.164726257,28.972499847],[-112.166122437,29.134719849],[-112.223068237,29.184997559],[-112.21056366,29.301940918],[-112.288619995,29.335277557],[-112.336402893,29.323329926],[-112.339447021,29.2927742],[-112.391677856,29.329719543],[-112.41027832,29.380275726],[-112.377227783,29.500553131],[-112.577789307,29.71333313],[-112.663619995,29.900276184],[-112.743057251,29.916942596],[-112.756118774,30.208610535],[-112.818336487,30.276943207],[-112.860839844,30.278610229],[-112.842788696,30.342777252],[-112.871673584,30.431663513],[-113.081390381,30.698886871],[-113.117233276,30.814441681],[-113.080566406,30.949443817],[-113.120292664,31.06860733],[-113.068069458,31],[-113.042236328,31.173885345],[-113.096679688,31.232219696],[-113.142227173,31.230552673],[-113.106117249,31.202774048],[-113.136398315,31.199718475],[-113.238891602,31.288887024],[-113.27166748,31.266941071],[-113.217788696,31.243888855],[-113.253067017,31.241107941],[-113.63583374,31.349441528],[-113.611679077,31.352775574],[-113.638343811,31.496944427],[-113.885559082,31.609165192],[-113.943336487,31.601387024],[-113.960006714,31.660274506],[-113.981948853,31.572498322],[-113.945556641,31.568054199],[-113.990570068,31.517776489],[-114.046676636,31.492774963],[-114.169723511,31.504444122],[-114.583892822,31.760829926],[-114.69695282,31.767776489],[-115.01789856,31.947488785],[-114.998901367,32.136108398],[-115.041496277,32.254669189],[-114.964202881,32.368610382],[-114.936698914,32.473049164],[-114.81930542,32.504447937],[-114.820968628,32.487113953],[-113.32837677,32.043560028],[-111.368865967,31.431438446],[-111.07131958,31.335535049],[-110.451942444,31.337558746],[-109.045005798,31.343347549]]]]},"properties":{"name":"Sonora","mapcolor":23,"cartodb_id":23}},{"type":"Feature","geometry":{"type":"MultiPolygon","coordinates":[[[[-93.589401245,17.375459671],[-93.667510986,17.452770233],[-93.653900146,17.522499084],[-93.689361572,17.56137085],[-93.741958618,17.683610916],[-93.857788086,17.722219467],[-93.864730835,17.74971962],[-93.92388916,17.745830536],[-93.968063354,17.831390381],[-94.075286865,17.880550385],[-94.051391602,17.991659164],[-94.092788696,18.068609238],[-94.094451904,18.155830383],[-94.137825012,18.209142685],[-93.867507935,18.303333282],[-93.886672974,18.254165649],[-93.793899536,18.261943817],[-93.739181519,18.333610535],[-93.580001831,18.352218628],[-93.570281982,18.407775879],[-93.843612671,18.311664581],[-93.578063965,18.423053741],[-93.153335571,18.439163208],[-93.172225952,18.372776031],[-93.117782593,18.388053894],[-93.126953125,18.338886261],[-93.087783813,18.403610229],[-93.138900757,18.432220459],[-92.926116943,18.445831299],[-92.767227173,18.539997101],[-92.703613281,18.583885193],[-92.668899536,18.429164886],[-92.660568237,18.55166626],[-92.687225342,18.619441986],[-92.478286743,18.651676178],[-92.421676636,18.513050079],[-92.153060913,18.511940002],[-92.157791138,18.15722084],[-91.979446411,18.017780304],[-91.855293274,17.951389313],[-91.626403809,17.95083046],[-91.609176636,18.096660614],[-91.453903198,18.099439621],[-91.321121216,18.063329697],[-91.188606262,17.976110458],[-90.983062744,17.96777916],[-90.982421875,17.820652008],[-90.983901978,17.25610733],[-91.4375,17.241107941],[-91.388061523,17.326660156],[-91.426391602,17.386940002],[-91.496116638,17.404159546],[-91.507583618,17.469900131],[-91.665283203,17.505550385],[-91.664169312,17.644720078],[-91.698623657,17.714160919],[-91.793617249,17.726669312],[-91.772872925,17.77368927],[-91.78666687,17.855550766],[-91.82333374,17.889160156],[-91.912513733,17.887220383],[-91.945556641,17.854719162],[-91.950561523,17.895549774],[-91.989898682,17.912220001],[-92.077789307,17.832780838],[-92.068618774,17.788610458],[-92.153633118,17.789440155],[-92.365837097,17.716939926],[-92.386672974,17.667770386],[-92.761672974,17.361660004],[-92.832229614,17.404439926],[-92.905563354,17.53027916],[-92.986106873,17.544719696],[-93.013061523,17.730270386],[-92.994743347,17.918889999],[-93.142227173,17.943609238],[-93.264183044,17.991390228],[-93.309448242,17.959720612],[-93.391952515,17.607780457],[-93.526672363,17.508609772],[-93.589401245,17.375459671]]]]},"properties":{"name":"Tabasco","mapcolor":21,"cartodb_id":21}},{"type":"Feature","geometry":{"type":"MultiPolygon","coordinates":[[[[-97.172218323,25.954568863],[-97.168624878,25.707496643],[-97.290557861,25.432498932],[-97.480285645,25.124164581],[-97.58416748,24.784721375],[-97.688064575,24.322498322],[-97.726959229,23.789718628],[-97.818069458,23.783885956],[-97.755844116,23.765830994],[-97.753341675,23.647499084],[-97.723342896,23.750553131],[-97.766403198,23.300830841],[-97.741394043,22.905830383],[-97.755569458,22.849441528],[-97.758895874,22.924999237],[-97.805847168,22.773609161],[-97.872512817,22.733886719],[-97.84777832,22.708610535],[-97.890289307,22.606666565],[-97.865844727,22.581108093],[-97.828063965,22.662220001],[-97.845840454,22.518054962],[-97.776870728,22.268054962],[-97.776870728,22.26804924],[-97.87612915,22.221309662],[-97.925567627,22.271940231],[-97.913352966,22.326389313],[-98.101959229,22.382770538],[-98.193069458,22.471389771],[-98.293327332,22.468610764],[-98.313903809,22.398330688],[-98.490013123,22.440280914],[-98.616088867,22.418489456],[-98.68611145,22.41917038],[-98.879463196,22.340549469],[-99.231117249,22.446109772],[-99.378067017,22.679439545],[-99.424438477,22.633430481],[-99.536117554,22.726669312],[-99.530563354,22.614999771],[-100.016700745,22.803890228],[-100.048599243,22.838890076],[-99.936401367,22.930549622],[-99.908073425,23.002220154],[-100.025802612,23.127220154],[-100.089202881,23.120830536],[-100.057197571,23.241109848],[-100.042800903,23.316110611],[-100.071998596,23.354999542],[-100.024200439,23.410270691],[-99.888343811,23.372499466],[-99.956390381,23.531669617],[-99.838623047,23.746669769],[-99.59777832,23.76333046],[-99.498901367,23.894720078],[-99.450561523,23.893610001],[-99.491119385,23.993610382],[-99.606399536,24.076940536],[-99.611953735,24.217500687],[-99.557243347,24.368049622],[-99.627227783,24.497219086],[-99.674179077,24.473890305],[-99.731666565,24.528610229],[-99.592788696,24.654439926],[-99.567779541,24.64304924],[-99.413887024,24.756660461],[-99.258903503,24.804159164],[-99.163887024,24.775829315],[-99.195281982,24.876110077],[-99.142501831,25.012220383],[-99.150558472,25.051389694],[-99.106117249,25.046670914],[-99.041397095,25.122499466],[-98.992782593,25.074169159],[-98.924850464,25.076660156],[-98.904716492,25.073749542],[-98.443893433,25.422779083],[-98.450561523,25.493049622],[-98.569168091,25.520549774],[-98.556396484,25.987220764],[-98.585006714,26.040830612],[-98.815292358,26.057779312],[-98.89666748,25.993890762],[-98.996490479,26.088720322],[-99.012077332,26.095479965],[-99.113739014,26.07777977],[-99.176963806,26.290000916],[-99.24861145,26.291109085],[-99.316116333,26.360830307],[-99.38722229,26.354999542],[-99.446670532,26.453609467],[-99.382507324,26.510000229],[-99.415008545,26.628330231],[-99.501106262,26.673049927],[-99.631118774,26.662220001],[-99.566390991,26.852500916],[-99.633903503,26.899169922],[-99.733062744,26.913610458],[-99.699172974,27.159160614],[-99.748336792,27.413059235],[-99.800292969,27.456939697],[-99.894996643,27.447500229],[-99.915847778,27.523050308],[-99.718162537,27.665857315],[-99.714492798,27.661558151],[-99.549186707,27.612627029],[-99.526741028,27.504283905],[-99.490493774,27.490755081],[-99.543586731,27.318653107],[-99.465270996,27.269884109],[-99.437156677,27.199197769],[-99.455062866,27.028648376],[-99.392715454,26.995550156],[-99.390518188,26.946630478],[-99.285522461,26.85736084],[-99.165817261,26.579889297],[-99.168678284,26.545728683],[-99.101470947,26.488340378],[-99.1067276,26.419530869],[-98.93927002,26.395309448],[-98.9088974,26.360328674],[-98.819831848,26.375070572],[-98.67791748,26.242055893],[-98.599967957,26.260454178],[-98.488517761,26.201543808],[-98.453392029,26.220911026],[-98.384521484,26.156030655],[-98.347190857,26.158679962],[-98.327934265,26.111646652],[-98.292274475,26.132808685],[-98.271354675,26.120895386],[-98.291946411,26.098104477],[-98.200691223,26.055376053],[-98.083213806,26.065757751],[-98.076347351,26.034626007],[-98.04006958,26.059394836],[-97.867431641,26.06014061],[-97.647972107,26.023445129],[-97.612922668,25.962001801],[-97.574935913,25.954172134],[-97.590087891,25.933231354],[-97.43434906,25.845197678],[-97.385643005,25.84536171],[-97.380989075,25.917020798],[-97.30443573,25.938663483],[-97.307144165,25.96512413],[-97.172218323,25.954568863]]]]},"properties":{"name":"Tamaulipas","mapcolor":31,"cartodb_id":31}},{"type":"Feature","geometry":{"type":"MultiPolygon","coordinates":[[[[-98.143066406,19.672779083],[-98.001106262,19.677780151],[-98.011123657,19.616109848],[-97.964172363,19.626390457],[-97.845573425,19.541389465],[-97.882781982,19.509719849],[-97.847229004,19.43555069],[-97.775009155,19.456390381],[-97.684173584,19.37443924],[-97.613342285,19.356389999],[-97.656402588,19.286109924],[-97.83416748,19.281669617],[-97.843902588,19.204439163],[-97.901947021,19.156389236],[-97.993621826,19.202770233],[-98.082496643,19.120830536],[-98.198623657,19.095550537],[-98.46056366,19.366939545],[-98.468338013,19.42193985],[-98.627983093,19.475759506],[-98.712783813,19.57749939],[-98.659408569,19.585399628],[-98.492233276,19.644720078],[-98.343902588,19.589439392],[-98.315002441,19.640550613],[-98.257507324,19.713890076],[-98.143066406,19.672779083]]]]},"properties":{"name":"Tlaxcala","mapcolor":18,"cartodb_id":18}},{"type":"Feature","geometry":{"type":"MultiPolygon","coordinates":[[[[-93.589401245,17.375459671],[-93.626953125,17.307500839],[-93.873428345,17.150279999],[-94.328056335,17.172779083],[-94.967216492,17.222499847],[-95.001106262,17.335830688],[-95.069168091,17.346660614],[-95.251708984,17.594770432],[-95.205581665,17.648189545],[-95.210281372,17.733329773],[-95.364181519,17.641389847],[-95.439178467,17.633050919],[-95.560012817,17.533050537],[-95.725013733,17.501659393],[-95.790283203,17.524719238],[-95.915557861,17.779159546],[-95.799453735,17.941110611],[-95.804458618,18.051389694],[-95.862228394,18.119159698],[-96.094650269,18.164079666],[-96.150283813,18.141670227],[-96.161392212,18.18555069],[-96.205291748,18.180269241],[-96.236686707,18.213920593],[-96.254730225,18.291660309],[-96.356948853,18.38861084],[-96.405838013,18.541109085],[-96.674179077,18.681110382],[-96.635559082,18.522220612],[-96.75063324,18.430830002],[-96.807510376,18.552780151],[-97.038619995,18.476669312],[-97.144180298,18.64332962],[-97.272781372,18.632499695],[-97.345291138,18.769439697],[-97.247787476,18.887220383],[-97.250839233,19.026390076],[-97.264717102,19.159999847],[-97.170013428,19.193609238],[-97.079727173,19.183050156],[-97.001678467,19.267499924],[-97.056121826,19.307779312],[-97.185562134,19.306659698],[-97.246398926,19.373609543],[-97.334457397,19.401390076],[-97.353347778,19.538330078],[-97.440002441,19.585830688],[-97.354446411,19.619720459],[-97.308898926,19.683889389],[-97.28527832,19.75],[-97.309448242,19.895549774],[-97.13722229,20.117500305],[-97.146392822,20.147220612],[-97.381446838,20.263729095],[-97.412231445,20.262220383],[-97.470573425,20.239719391],[-97.515007019,20.121110916],[-97.564453125,20.10667038],[-97.614730835,20.168329239],[-97.692497253,20.176109314],[-97.752792358,20.255279541],[-97.758872986,20.439899445],[-97.693336487,20.46972084],[-97.628890991,20.417770386],[-97.570648193,20.490299225],[-97.579177856,20.588609695],[-97.742233276,20.650550842],[-97.733901978,20.793050766],[-97.873901367,20.805000305],[-97.883056641,20.706390381],[-97.948623657,20.666660309],[-97.963058472,20.519720078],[-98.098182678,20.432170868],[-98.042793274,20.506940842],[-98.029449463,20.606939316],[-98.030838013,20.642499924],[-98.095291138,20.661659241],[-98.335006714,20.434999466],[-98.402236938,20.441110611],[-98.452789307,20.359170914],[-98.494743347,20.376390457],[-98.566116333,20.501659393],[-98.424453735,20.718610764],[-98.498901367,20.712499619],[-98.51083374,20.756389618],[-98.421112061,20.790279388],[-98.366958618,20.858610153],[-98.230560303,20.83082962],[-98.220001221,20.961940765],[-98.176391602,21.027500153],[-98.153060913,21.019439697],[-98.130569458,21.074720383],[-98.212509155,21.15722084],[-98.288162231,21.129779816],[-98.272903442,21.183610916],[-98.263061523,21.213050842],[-98.29888916,21.233890533],[-98.337509155,21.152219772],[-98.410568237,21.154159546],[-98.487228394,21.241939545],[-98.477226257,21.352220535],[-98.515007019,21.398889542],[-98.524436951,21.528329849],[-98.642227173,21.608890533],[-98.612792969,21.694719315],[-98.562789917,21.689439774],[-98.562789917,21.728330612],[-98.525283813,21.720550537],[-98.450843811,21.78222084],[-98.490280151,21.851940155],[-98.521118164,21.836669922],[-98.563903809,21.884439468],[-98.537231445,21.911659241],[-98.555007935,21.933330536],[-98.518623352,21.951389313],[-98.57333374,21.941110611],[-98.588562012,21.975269318],[-98.499946594,21.97413063],[-98.481369019,21.998680115],[-98.46925354,22.017139435],[-98.345573425,22.228330612],[-98.616088867,22.418489456],[-98.490013123,22.440280914],[-98.313903809,22.398330688],[-98.293327332,22.468610764],[-98.193069458,22.471389771],[-98.101959229,22.382770538],[-97.913352966,22.326389313],[-97.925567627,22.271940231],[-97.87612915,22.221309662],[-97.776870728,22.26804924],[-97.779174805,22.157775879],[-97.699172974,21.97694397],[-97.556121826,21.774997711],[-97.317230225,21.564163208],[-97.328613281,21.467777252],[-97.416671753,21.271110535],[-97.476669312,21.434165955],[-97.386947632,21.471942902],[-97.369735718,21.53805542],[-97.620285034,21.789165497],[-97.653900146,21.899166107],[-97.781402588,22.088607788],[-97.714736938,21.934719086],[-97.670288086,21.671108246],[-97.568069458,21.48777771],[-97.486679077,21.483608246],[-97.483337402,21.371944427],[-97.200561523,20.812774658],[-97.171401978,20.676109314],[-96.676391602,20.157218933],[-96.447784424,19.861663818],[-96.276947021,19.314720154],[-96.166946411,19.228610992],[-96.116119385,19.223609924],[-96.084457397,19.101665497],[-96.039459229,19.060276031],[-95.970565796,19.058330536],[-95.902236938,18.871944427],[-95.780288696,18.811943054],[-95.753067017,18.803607941],[-95.757507324,18.763332367],[-95.94972229,18.863887787],[-95.808898926,18.746109009],[-95.875839233,18.754165649],[-95.846115112,18.715553284],[-95.774734497,18.744441986],[-95.571670532,18.671943665],[-95.732788086,18.750553131],[-95.731674194,18.795555115],[-95.574172974,18.717498779],[-95.212783813,18.711109161],[-95.051391602,18.613052368],[-95.018890381,18.558052063],[-94.802230835,18.522499084],[-94.579788208,18.190330505],[-94.478897095,18.146663666],[-94.168060303,18.198608398],[-94.137825012,18.209142685],[-94.094451904,18.155830383],[-94.092788696,18.068609238],[-94.051391602,17.991659164],[-94.075286865,17.880550385],[-93.968063354,17.831390381],[-93.92388916,17.745830536],[-93.864730835,17.74971962],[-93.857788086,17.722219467],[-93.741958618,17.683610916],[-93.689361572,17.56137085],[-93.653900146,17.522499084],[-93.667510986,17.452770233],[-93.589401245,17.375459671]]]]},"properties":{"name":"Veracruz","mapcolor":32,"cartodb_id":32}},{"type":"Feature","geometry":{"type":"MultiPolygon","coordinates":[[[[-90.373374939,20.84529686],[-90.338897705,20.941665649],[-90.386695862,20.863229752],[-90.436401367,20.781665802],[-90.407791138,20.863229752],[-90.38583374,20.925830841],[-90.335845947,21.025276184],[-90.106399536,21.160274506],[-90,21.189472198],[-89.771118164,21.284442902],[-88.848617554,21.411663055],[-88.708068848,21.447776794],[-88.601669312,21.533885956],[-88.451400757,21.568885803],[-88.271118164,21.553607941],[-88.086395264,21.584999084],[-88.243347168,21.567218781],[-88.156951904,21.606666565],[-87.994171143,21.602775574],[-87.707229614,21.536663055],[-87.865280151,21.551387787],[-87.754455566,21.505554199],[-87.616668701,21.498332977],[-87.689453125,21.520275116],[-87.655288696,21.528610229],[-87.539154053,21.502313614],[-87.540557861,21.024719238],[-87.753890991,20.662500381],[-89.418327332,19.651939392],[-90.028343201,20.494440079],[-90.065002441,20.443050385],[-90.226959229,20.489719391],[-90.206680298,20.557779312],[-90.378067017,20.553890228],[-90.373374939,20.84529686]]]]},"properties":{"name":"Yucatán","mapcolor":14,"cartodb_id":14}},{"type":"Feature","geometry":{"type":"MultiPolygon","coordinates":[[[[-101.524902344,21.856639862],[-101.800300598,22.015270233],[-101.846199036,22.011760712],[-101.936401367,22.114440918],[-102.056396484,22.137779236],[-102.024200439,22.251939774],[-102.154403687,22.285270691],[-102.155799866,22.324169159],[-102.219200134,22.372219086],[-102.273597717,22.355829239],[-102.287200928,22.456390381],[-102.325798035,22.458890915],[-102.45059967,22.337219238],[-102.635002136,22.278329849],[-102.70690155,22.083330154],[-102.844703674,21.930269241],[-102.851699829,21.823329926],[-102.741401672,21.724170685],[-102.769699097,21.617769241],[-102.639198303,21.54693985],[-102.687202454,21.381940842],[-102.833602905,21.320550919],[-102.906700134,21.328609467],[-102.96219635,21.284719467],[-103.03440094,21.306659698],[-103.085601807,21.1875],[-103.055801392,21.054439545],[-103.542800903,21.198059082],[-103.601699829,21.188049316],[-103.646102905,21.241939545],[-103.736999512,21.203329086],[-103.765602112,21.223890305],[-103.753097534,21.251659393],[-103.702796936,21.386940002],[-103.733596802,21.516389847],[-103.650299072,21.461389542],[-103.514198303,21.593050003],[-103.509498596,21.731939316],[-103.547798157,21.785549164],[-103.446998596,21.848049164],[-103.394203186,21.933330536],[-103.29309845,21.982500076],[-103.170799255,21.975280762],[-103.0911026,22.090269089],[-103.127799988,22.147779465],[-103.055603027,22.286109924],[-103.201400757,22.307779312],[-103.179496765,22.368610382],[-103.372497559,22.505830765],[-103.409202576,22.43555069],[-103.371696472,22.32749939],[-103.52230072,22.117290497],[-103.638298035,22.081670761],[-103.682502747,22.112779617],[-103.700897217,22.145990372],[-103.614997864,22.524719238],[-103.6588974,22.573329926],[-103.741401672,22.576389313],[-103.868598938,22.183889389],[-103.883903503,22.461109161],[-103.833602905,22.489440918],[-103.870796204,22.577220917],[-103.770599365,22.636669159],[-103.802001953,22.723049164],[-104.007003784,22.764720917],[-103.99420166,22.65860939],[-104.029403687,22.581939697],[-103.921699524,22.510829926],[-103.950302124,22.368049622],[-104.144203186,22.342220306],[-104.329597473,22.264539719],[-104.311401367,22.319210052],[-104.258598328,22.42193985],[-104.20110321,23.062770844],[-104.169700623,23.142780304],[-104.096099854,23.195829391],[-104.078102112,23.447500229],[-103.936698914,23.573059082],[-103.919700623,23.623329163],[-103.808296204,23.674720764],[-103.858596802,23.736940384],[-103.875602722,23.86138916],[-103.850898743,24.073059082],[-103.600601196,24.182500839],[-103.612503052,24.275550842],[-103.267501831,24.476110458],[-102.767196655,24.433889389],[-102.735298157,24.458890915],[-102.51360321,24.452220917],[-102.504997253,24.828609467],[-102.666900635,25.07583046],[-102.665802002,25.118049622],[-102.257202148,25.155550003],[-101.837501526,25.026939392],[-101.746398926,24.905830383],[-101.585601807,24.858060837],[-101.61000061,24.788330078],[-101.579696655,24.754440308],[-101.445297241,24.761390686],[-101.360298157,24.821109772],[-101.321098328,24.778610229],[-101.242202759,24.810279846],[-100.996398926,24.589719772],[-100.872200012,24.601390839],[-100.823898315,24.559999466],[-100.981903076,24.398609161],[-101.173103333,24.113330841],[-101.402198792,23.898050308],[-101.685302734,23.693889618],[-101.734703064,23.61000061],[-101.870300293,23.548049927],[-102.057502747,23.373609543],[-102.192802429,23.38861084],[-102.193603516,23.333610535],[-102.280601501,23.217500687],[-102.194503784,23.113050461],[-102.245002747,23.002220154],[-102.142799377,22.810279846],[-102.08139801,22.755830765],[-101.934402466,22.620550156],[-101.870796204,22.49312973],[-101.708297729,22.460830688],[-101.570800781,22.598049164],[-101.48110199,22.618610382],[-101.375,22.594169617],[-101.311401367,22.535270691],[-101.29889679,22.454439163],[-101.360603333,22.395549774],[-101.328598022,22.079170227],[-101.524902344,21.856639862]]]]},"properties":{"name":"Zacatecas","mapcolor":28,"cartodb_id":28}}]}