{"type":"FeatureCollection","features":[{"type":"Feature","geometry":{"type":"MultiPolygon","coordinates":[[[[23.038889,36.203016],[22.884815,36.162296],[22.885321,36.353295],[23.010119,36.346371],[23.038889,36.203016]]],[[[25.451013,36.947449],[25.367464,36.988578],[25.363395,37.114926],[25.472957,37.163436],[25.593692,37.145476],[25.550104,36.97384],[25.451013,36.947449]]],[[[24.973228,37.766619],[24.883997,37.752106],[24.703487,37.878437],[24.770679,38.004536],[24.959004,37.895204],[24.973228,37.766619]]],[[[20.981078,37.748998],[20.79218,37.661102],[20.657351,37.798358],[20.90533,37.820792],[20.981078,37.748998]]],[[[20.650189,38.399203],[20.659652,38.261698],[20.834634,38.143487],[20.541189,38.093238],[20.382312,38.151066],[20.413361,38.29535],[20.650189,38.399203]]],[[[24.591095,38.853669],[24.523896,38.784808],[24.408542,38.895811],[24.486599,38.979861],[24.591095,38.853669]]],[[[23.417778,38.939416],[23.480168,38.825794],[23.618753,38.742728],[23.956095,38.661836],[24.109438,38.662072],[24.176236,38.548483],[24.247259,38.23823],[24.420155,38.150438],[24.529836,38.147411],[24.547562,37.992546],[24.346652,37.970826],[24.175268,38.077692],[24.095616,38.262273],[23.95903,38.402385],[23.675488,38.425495],[23.538965,38.497818],[23.410988,38.67888],[23.062453,38.918445],[23.139118,38.998835],[23.342897,39.025657],[23.417778,38.939416]]],[[[20.718546,38.620328],[20.549398,38.57496],[20.610303,38.760884],[20.728723,38.819028],[20.718546,38.620328]]],[[[25.427668,39.965137],[25.269164,39.80138],[25.048317,39.860247],[25.036877,39.989667],[25.324428,39.947095],[25.427668,39.965137]]],[[[25.940253,40.117166],[25.766293,40.088765],[25.687282,40.147617],[25.917104,40.248799],[25.940253,40.117166]]],[[[19.906772,39.80337],[19.863672,39.561424],[19.704696,39.68338],[19.69635,39.765043],[19.906772,39.80337]]],[[[22.317707,39.958178],[22.732892,39.880773],[22.872062,39.767699],[22.913166,39.617998],[23.221771,39.345854],[23.292537,39.306234],[23.362798,39.140354],[23.194622,39.065169],[23.142481,39.106037],[23.15326,39.296153],[22.996964,39.328],[22.801164,39.242629],[22.990869,39.076898],[22.958985,38.912721],[22.716008,38.813867],[23.312724,38.621397],[23.328526,38.500552],[23.527639,38.466176],[23.61414,38.36341],[23.719052,38.362738],[23.939294,38.262456],[24.036441,38.174534],[23.978484,38.110567],[24.051334,37.838691],[24.04165,37.693002],[23.902985,37.68257],[23.857933,37.79719],[23.75185,37.803098],[23.672615,37.909617],[23.395329,37.879625],[23.287138,37.958153],[23.159159,37.908133],[23.158852,37.660311],[23.292662,37.527728],[23.374029,37.519291],[23.503227,37.405783],[23.316792,37.389699],[23.121118,37.286321],[23.010641,37.443837],[22.900839,37.537331],[22.743096,37.524931],[22.772439,37.368802],[22.888269,37.211998],[22.907004,37.098557],[22.998051,37.032536],[23.075262,36.821033],[23.051379,36.626312],[23.12997,36.576319],[23.172804,36.44416],[22.954007,36.535386],[22.805847,36.677447],[22.787369,36.7881],[22.579751,36.801298],[22.468916,36.591287],[22.357798,36.50111],[22.347709,36.739546],[22.14255,36.915132],[22.138241,37.007496],[21.938106,36.970308],[21.93308,36.77133],[21.725672,36.791743],[21.681873,36.96255],[21.548363,37.130652],[21.683177,37.250387],[21.655983,37.38271],[21.275268,37.742471],[21.131816,37.848087],[21.368564,38.090451],[21.388399,38.190817],[21.607988,38.157264],[21.759735,38.293093],[21.986871,38.32493],[22.27239,38.160337],[22.361192,38.154633],[22.771033,37.998747],[22.837294,37.931898],[22.94588,38.071279],[23.127044,38.066653],[23.170132,38.164173],[22.922274,38.182287],[22.740588,38.292709],[22.584808,38.32623],[22.194974,38.338701],[22.126163,38.390622],[21.95015,38.408277],[21.768035,38.339673],[21.52402,38.297858],[21.455139,38.379545],[21.135986,38.315893],[21.08143,38.505292],[20.892226,38.75688],[20.752453,38.830009],[20.782321,38.905473],[20.988875,38.911243],[21.126791,38.870503],[21.115174,39.009321],[20.728122,38.958352],[20.415195,39.250486],[20.327626,39.255976],[20.223541,39.395755],[20.237343,39.483115],[20.10549,39.650597],[19.996528,39.714471],[20.012212,39.837927],[19.92726,39.98529],[19.793412,40.09547],[19.606291,40.136045],[19.445125,40.220325],[19.347373,40.377958],[19.490491,40.367571],[19.760156,40.290565],[20.109957,40.28124],[20.464232,40.33902],[20.789577,40.292562],[21.04082,40.180946],[21.353193,39.967414],[21.523543,39.883056],[21.686077,39.847645],[21.860518,39.855746],[22.15302,39.944637],[22.317707,39.958178]]]]},"properties":{"name":"Achaia","mapcolor":37,"cartodb_id":37}},{"type":"Feature","geometry":{"type":"MultiPolygon","coordinates":[[[[34.035456,31.188843],[33.662256,30.760973],[33.100896,30.233702],[32.820932,29.996401],[32.692508,29.912768],[32.56085,29.937703],[32.440132,29.904326],[32.46085,29.822848],[32.3176,29.672237],[32.319186,29.57067],[32.470299,29.384653],[32.565595,29.333385],[32.637025,29.089416],[32.599201,28.931939],[32.655227,28.833652],[32.779805,28.758361],[32.850907,28.540215],[32.942946,28.493987],[33.134735,28.234869],[33.344177,28.035533],[33.45028,28.031146],[33.603899,27.838799],[33.557304,27.809419],[33.550677,27.62991],[33.704698,27.384977],[33.843407,27.260444],[33.841724,27.154696],[33.931237,26.979615],[33.918973,26.221643],[33.708472,24.991764],[33.632882,23.616032],[33.409624,22.953867],[32.258385,22.995297],[31.571866,24.609661],[31.200212,25.320709],[30.741192,26.465599],[30.490124,26.874641],[29.863264,27.744642],[29.253927,28.151762],[27.80228,28.228581],[26.178361,28.194915],[24.841762,28.199157],[23.633579,28.062866],[22.798491,28.01037],[22.744972,32.799729],[22.748048,32.815165],[23.060531,32.724307],[23.147186,32.52179],[23.118776,32.378426],[23.294721,32.263142],[23.707112,32.202883],[23.968107,32.13018],[24.020902,32.040098],[24.602964,32.028452],[24.764719,32.06662],[24.992857,32.000657],[25.134022,31.742104],[25.189806,31.551325],[25.4684,31.526459],[25.898035,31.664997],[25.996035,31.669658],[26.405216,31.533855],[26.747502,31.498641],[27.160078,31.396857],[27.326357,31.383608],[27.345494,31.316652],[27.554972,31.232131],[27.769512,31.217092],[27.900537,31.266988],[27.9401,31.135312],[28.324994,31.101923],[28.478971,31.104826],[28.803998,31.01007],[29.00849,30.875641],[29.210511,30.868479],[29.422569,30.935224],[29.591521,31.061689],[29.91582,31.260315],[30.181433,31.313689],[30.271543,31.46247],[30.472617,31.459262],[30.472195,31.403368],[30.659494,31.399793],[30.828325,31.437909],[30.964249,31.532],[31.017376,31.619958],[31.172164,31.592325],[31.409443,31.48618],[31.542335,31.472226],[31.74024,31.54998],[31.763696,31.416671],[31.703768,31.310768],[31.808119,31.262052],[31.997999,31.353258],[32.243723,31.311029],[32.358043,31.249724],[32.493425,31.110875],[32.69306,31.100113],[33.060542,31.194701],[33.140995,31.070731],[33.263445,31.138248],[33.389744,31.121652],[34.035456,31.188843]]]]},"properties":{"name":"Aegyptus","mapcolor":42,"cartodb_id":42}},{"type":"Feature","geometry":{"type":"MultiPolygon","coordinates":[[[[10.863492,33.922822],[11.070449,33.833154],[11.071565,33.768805],[10.955579,33.671952],[10.882628,33.742848],[10.768301,33.749471],[10.766801,33.897886],[10.863492,33.922822]]],[[[18.293779,30.756901],[18.317337,27.700521],[16.031797,28.729872],[13.617762,30.377936],[11.963906,31.431478],[9.969667,32.304712],[8.87233,32.662176],[8.825717,33.011006],[8.738833,33.411971],[8.584361,33.872322],[8.507067,34.022694],[8.400464,34.127963],[8.271947,34.32229],[8.233501,34.54926],[8.248101,34.81844],[8.285505,35.02719],[8.354059,35.215369],[8.489073,35.382085],[8.637694,35.513881],[8.932878,35.851963],[9.046276,36.021816],[9.139409,36.443459],[9.132721,36.688458],[8.986199,37.090165],[9.19046,37.209294],[9.382957,37.244082],[9.70675,37.336795],[9.848334,37.344686],[9.964358,37.245563],[10.101724,37.250132],[10.239741,37.071024],[10.238822,36.972006],[10.380356,36.845256],[10.370544,36.74239],[10.503605,36.733571],[10.625964,36.867081],[10.719942,36.879516],[11.081546,37.087981],[11.132199,36.843519],[10.914431,36.634182],[10.77282,36.43919],[10.680622,36.425062],[10.529855,36.319549],[10.490502,36.083908],[10.639165,35.832083],[10.761021,35.754004],[11.068986,35.615188],[11.077541,35.325356],[11.147614,35.266713],[11.067372,35.093638],[10.920226,34.964032],[10.888936,34.829496],[10.589168,34.549247],[10.256629,34.397745],[10.093871,34.252412],[10.044453,34.156946],[10.176382,33.870888],[10.338051,33.72135],[10.536604,33.637821],[10.765753,33.699787],[10.772826,33.494106],[10.963824,33.533087],[11.043271,33.61818],[11.126902,33.563441],[11.145526,33.30234],[11.184942,33.210629],[11.343675,33.17651],[11.548611,33.189708],[11.710894,33.0808],[11.751961,33.115277],[12.141797,32.969705],[12.292665,32.893155],[12.567228,32.847482],[12.815532,32.841234],[13.13288,32.90293],[13.305366,32.968359],[13.61838,32.825556],[13.838676,32.842304],[14.09219,32.749201],[14.269615,32.733411],[14.506734,32.564366],[14.747008,32.487113],[15.165402,32.40956],[15.302778,32.200761],[15.317169,32.02668],[15.4999,31.675866],[15.652884,31.504845],[15.835448,31.367794],[16.171118,31.244401],[16.683122,31.231871],[17.081715,31.188352],[17.313204,31.127579],[17.514686,31.026881],[17.858025,30.956482],[17.954639,30.882293],[18.293779,30.756901]]]]},"properties":{"name":"Africa Proconsularis","mapcolor":46,"cartodb_id":46}},{"type":"Feature","geometry":{"type":"MultiPolygon","coordinates":[[[[6.252663,44.778312],[6.314904,44.856973],[6.514767,45.024865],[6.813204,45.133801],[7.080001,45.11785],[7.363066,45.097894],[7.435299,45.114267],[7.600264,45.143086],[7.793457,45.121306],[7.670788,44.965616],[7.715745,44.864417],[7.541227,44.787994],[7.462876,44.652679],[7.262423,44.693456],[7.139435,44.677494],[6.976473,44.559085],[6.96436,44.357953],[6.800225,44.24493],[6.634299,44.17449],[6.444797,44.601035],[6.381936,44.697865],[6.252663,44.778312]]]]},"properties":{"name":"Alpes Cottiae","mapcolor":9,"cartodb_id":9}},{"type":"Feature","geometry":{"type":"MultiPolygon","coordinates":[[[[6.780971,46.370965],[6.897683,46.352645],[6.978772,46.470662],[7.080818,46.483658],[7.450995,46.44661],[7.913362,46.473009],[8.336983,46.553509],[8.447243,46.596525],[8.535763,46.594881],[8.393282,46.416818],[8.298416,46.343978],[8.075234,46.229422],[7.961023,46.201262],[7.794284,46.087491],[7.249278,45.599817],[7.190859,45.530089],[7.25199,45.363977],[7.222606,45.307893],[7.302551,45.22025],[7.363066,45.097894],[7.080001,45.11785],[6.813204,45.133801],[6.514767,45.024865],[6.314904,44.856973],[6.252663,44.778312],[6.097034,44.864782],[6.057384,45.124639],[6.194151,45.309916],[6.688931,45.677852],[6.850624,45.839001],[6.883799,46.016406],[6.730878,46.274875],[6.780971,46.370965]]]]},"properties":{"name":"Alpes Graiae et Poeninae","mapcolor":7,"cartodb_id":7}},{"type":"Feature","geometry":{"type":"MultiPolygon","coordinates":[[[[6.800225,44.24493],[6.96436,44.357953],[6.976473,44.559085],[7.139435,44.677494],[7.262423,44.693456],[7.462876,44.652679],[7.541227,44.787994],[7.583075,44.800045],[7.799679,44.556418],[7.80389,44.409176],[7.741927,44.314937],[7.542219,44.18305],[7.442741,44.116972],[7.377774,43.935128],[7.518295,43.764443],[7.487076,43.715551],[7.234377,43.648054],[7.017192,43.652886],[6.673873,43.620502],[6.420277,43.707966],[6.407226,43.810262],[6.634299,44.17449],[6.800225,44.24493]]]]},"properties":{"name":"Alpes Maritimae","mapcolor":10,"cartodb_id":10}},{"type":"Feature","geometry":{"type":"MultiPolygon","coordinates":[[[[-1.384359,47.313129],[-1.263732,47.350676],[-0.976413,47.231946],[-0.704081,47.16476],[-0.456081,47.122627],[0.039116,47.07893],[0.483986,47.111897],[0.830706,47.203168],[0.977156,47.242881],[1.406261,47.424948],[2.092075,47.628309],[2.25495,47.653939],[2.544158,47.63915],[2.706861,47.617826],[2.87686,47.441449],[2.851117,47.35625],[3.018262,47.087206],[3.068722,46.962443],[3.036535,46.769773],[3.312091,46.635836],[3.558399,46.418688],[3.759177,46.122813],[4.047789,45.767837],[4.49849,45.591846],[4.514589,45.503168],[4.357119,45.271893],[4.311216,45.126449],[4.265361,44.826001],[4.077162,44.557027],[3.836296,44.392497],[3.70651,44.347956],[3.381679,44.307296],[3.20739,44.321557],[2.953032,44.32283],[2.753893,44.295812],[2.366612,44.233959],[1.982697,44.142434],[1.789645,44.081193],[1.167596,43.881572],[0.972254,43.803006],[0.821101,43.718067],[0.670876,43.540908],[0.670072,43.337033],[0.71051,43.23328],[0.965046,42.96361],[1.035805,42.874278],[1.024293,42.687145],[0.958337,42.584575],[0.716943,42.572048],[0.607378,42.716715],[0.251937,42.74],[-0.021183,42.667106],[-0.171193,42.68673],[-0.29677,42.709244],[-0.487574,42.806814],[-0.593979,42.884146],[-0.826531,43.090955],[-1.073196,43.112052],[-1.189063,43.137136],[-1.353258,43.239122],[-1.513005,43.268896],[-1.720413,43.341336],[-1.48072,43.620234],[-1.323157,43.93276],[-1.23754,44.167421],[-1.122194,44.346189],[-1.076357,44.502208],[-1.102039,44.696673],[-1.182984,44.887502],[-1.152176,45.07015],[-1.168369,45.444102],[-1.094956,45.553978],[-1.158507,45.649543],[-1.098649,45.801404],[-1.086959,46.038143],[-1.275703,46.295256],[-1.514094,46.356572],[-1.814927,46.521793],[-1.855997,46.607723],[-2.086537,46.79562],[-2.127975,46.890997],[-1.989007,47.041641],[-2.231521,47.130837],[-2.15042,47.258275],[-2.034455,47.270698],[-1.826714,47.212208],[-1.54315,47.239762],[-1.384359,47.313129]]]]},"properties":{"name":"Aquitania","mapcolor":5,"cartodb_id":5}},{"type":"Feature","geometry":{"type":"MultiPolygon","coordinates":[[[[32.692508,29.912768],[32.820932,29.996401],[33.100896,30.233702],[33.662256,30.760973],[34.035456,31.188843],[34.20119,31.316356],[34.386004,31.230828],[34.89127,31.149942],[35.146558,31.127679],[35.338109,31.137221],[35.500454,31.191061],[35.469714,31.314438],[35.681895,31.543527],[35.694231,31.678654],[35.660572,31.95308],[35.700989,32.301929],[35.692203,32.482107],[35.622891,32.652031],[35.694084,32.87045],[35.985548,32.88385],[36.278456,32.992759],[36.586364,32.991455],[36.718243,32.945229],[36.803592,32.866429],[36.833208,32.748756],[36.787564,32.644309],[36.472921,32.32326],[36.306097,32.098676],[36.166772,31.800453],[35.769615,30.778034],[35.712353,30.14896],[35.719,29.861196],[35.793194,29.516147],[35.865152,29.41915],[36.205784,28.565138],[36.635129,27.599577],[36.38837,27.552884],[35.648979,27.607361],[35.514377,27.574218],[35.423896,27.658865],[35.426981,27.740637],[35.231575,27.952593],[35.030204,28.104277],[34.933181,28.071608],[34.692311,28.11086],[34.664803,28.188031],[34.779867,28.515451],[34.785354,28.691647],[34.878735,29.218713],[34.916302,29.256998],[34.964087,29.500575],[34.836644,29.475967],[34.696723,29.254345],[34.630239,28.947893],[34.600527,28.69424],[34.427853,28.347556],[34.420351,27.989587],[34.33379,27.851946],[34.24689,27.789595],[34.061772,27.805668],[33.900089,27.937289],[33.827116,27.945743],[33.683146,28.064464],[33.528214,28.268923],[33.368239,28.359443],[33.235016,28.492429],[33.165606,28.626054],[33.188602,28.744442],[33.137097,28.97847],[32.869012,29.188184],[32.779365,29.378308],[32.68849,29.460563],[32.634588,29.742713],[32.577288,29.857741],[32.692508,29.912768]]]]},"properties":{"name":"Arabia","mapcolor":43,"cartodb_id":43}},{"type":"Feature","geometry":{"type":"MultiPolygon","coordinates":[[[[38.962483,35.898923],[38.724211,35.846722],[38.388991,35.848941],[38.233409,35.919548],[38.095141,35.984563],[38.093184,36.171894],[38.172889,36.247059],[38.242351,36.578103],[38.140871,36.651106],[38.046324,36.674598],[37.996732,36.993574],[37.881107,37.142698],[37.871748,37.316411],[38.020037,37.367397],[38.222207,37.330547],[38.337338,37.410386],[38.440321,37.404662],[38.577296,37.501069],[38.828286,37.503474],[38.86596,37.718473],[39.07289,37.856648],[39.148314,37.911814],[39.113391,37.933533],[39.034318,38.162664],[38.851743,38.237525],[38.812951,38.307378],[38.563397,38.424083],[38.408545,38.462362],[38.365561,38.586522],[38.497545,38.700839],[38.701393,38.778244],[38.771239,39.006609],[38.729096,39.134135],[38.510145,39.247804],[38.350235,39.372257],[38.357733,39.422844],[38.673992,39.48157],[39.01244,39.600594],[39.255142,39.604154],[39.48137,39.7176],[39.56967,39.982461],[39.680562,40.531373],[39.766399,40.792622],[39.948226,40.959084],[41.51636,40.464124],[42.8564,39.924058],[43.790841,39.074701],[43.575656,38.282442],[43.114842,37.692646],[42.889529,36.997099],[42.434332,36.354028],[41.967279,35.82154],[41.274128,35.786034],[39.93977,35.729417],[38.962483,35.898923]]]]},"properties":{"name":"Armenia Mesopotamia","mapcolor":53,"cartodb_id":53}},{"type":"Feature","geometry":{"type":"MultiPolygon","coordinates":[[[[27.170239,35.428576],[27.091239,35.442063],[27.112866,35.579965],[27.227744,35.596082],[27.170239,35.428576]]],[[[27.819627,35.866504],[27.731463,35.911856],[27.715091,36.154993],[27.892536,36.313565],[28.218986,36.413949],[28.220366,36.290162],[28.070138,36.06435],[27.927744,35.981273],[27.819627,35.866504]]],[[[26.97114,36.679281],[26.920355,36.753152],[27.078672,36.875242],[27.124142,36.777029],[27.001523,36.752438],[26.97114,36.679281]]],[[[27.085882,37.79153],[27.044748,37.70885],[26.864969,37.646563],[26.727393,37.713729],[26.762128,37.832346],[27.085882,37.79153]]],[[[26.06899,38.597535],[26.168651,38.580228],[26.155199,38.29211],[26.026908,38.179454],[25.875458,38.245734],[25.979448,38.353289],[25.955008,38.468114],[25.856215,38.588284],[26.06899,38.597535]]],[[[26.505526,39.199913],[26.62243,39.047227],[26.44076,38.954501],[26.125816,39.051618],[25.864106,39.160875],[25.893673,39.286998],[26.106318,39.296067],[26.219939,39.3782],[26.333087,39.38699],[26.505526,39.199913]]],[[[31.523893,39.778094],[31.546087,39.060172],[31.604205,38.47862],[31.540785,38.254231],[31.426826,38.268937],[31.169066,38.446462],[30.702474,38.47694],[30.521637,38.420151],[30.405733,38.24042],[30.38827,38.071879],[30.259269,38.022157],[29.97781,37.769532],[29.837929,37.668262],[29.433076,37.444295],[28.933143,37.066257],[28.797793,36.913268],[28.726692,36.691451],[28.63423,36.792985],[28.485178,36.773158],[28.449228,36.855986],[28.230781,36.652168],[28.082339,36.628201],[28.021246,36.727745],[27.703241,36.724123],[27.652982,36.654935],[27.407193,36.659868],[27.472769,36.758737],[27.644597,36.80412],[28.026777,36.77831],[28.115473,37.020908],[27.547694,36.974352],[27.47607,37.007354],[27.248002,36.963829],[27.235562,37.124723],[27.532091,37.114779],[27.46256,37.318941],[27.370843,37.300787],[27.195057,37.36169],[27.179836,37.575303],[27.039493,37.640979],[27.231443,37.775535],[27.245504,37.944344],[27.03067,38.052722],[26.887641,38.051906],[26.788513,38.192898],[26.492853,38.174338],[26.295731,38.201782],[26.304122,38.340773],[26.426804,38.322152],[26.468045,38.417496],[26.342179,38.522046],[26.355706,38.661382],[26.522647,38.622807],[26.596699,38.467245],[26.779245,38.358522],[26.972139,38.368935],[26.721349,38.634134],[26.741329,38.72086],[26.911643,38.755996],[27.010827,38.864838],[26.809052,38.938366],[26.870453,39.051994],[26.691013,39.245159],[26.735666,39.344678],[26.928224,39.562842],[26.64061,39.543219],[26.389164,39.475086],[26.086385,39.462974],[26.060615,39.542311],[26.140354,39.635853],[26.113602,39.766237],[26.142922,39.969279],[26.290011,40.02229],[26.410064,40.182105],[26.784623,40.40382],[26.991762,40.377165],[27.068201,40.43851],[27.224107,40.458896],[27.324844,40.343861],[27.48288,40.312803],[27.770075,40.317993],[27.750155,40.525805],[27.978127,40.489629],[27.964,40.383228],[28.307421,40.409584],[28.731677,40.398487],[28.796816,40.349098],[29.103636,40.239819],[29.461251,40.170115],[29.975043,40.091214],[30.64418,40.008627],[31.103815,39.988312],[31.581112,40.060586],[31.523893,39.778094]]]]},"properties":{"name":"Asia","mapcolor":52,"cartodb_id":52}},{"type":"Feature","geometry":{"type":"MultiPolygon","coordinates":[[[[-7.310567,37.196626],[-7.429233,37.364468],[-7.388268,37.706227],[-7.466516,38.05586],[-7.324396,38.348569],[-7.171761,38.544069],[-7.134883,38.661474],[-6.982977,38.774957],[-6.77693,38.702545],[-6.411289,38.658025],[-6.210234,38.676584],[-5.806477,38.773097],[-5.538505,38.899637],[-4.977231,38.751245],[-4.543778,38.568708],[-3.996971,38.323962],[-3.767324,38.101312],[-3.688482,37.923818],[-3.567673,37.451017],[-3.511835,37.308547],[-3.395809,37.138111],[-3.283912,37.06124],[-2.542585,36.816597],[-2.619757,36.711157],[-2.741495,36.691755],[-2.943134,36.769336],[-3.047674,36.738878],[-3.241525,36.773704],[-3.460629,36.707838],[-3.611222,36.773238],[-3.9134,36.777917],[-4.212492,36.728269],[-4.357421,36.740798],[-4.614359,36.587628],[-4.686863,36.517209],[-4.84084,36.526771],[-5.109552,36.443845],[-5.227578,36.369297],[-5.428178,36.169429],[-5.409382,36.077127],[-5.623566,36.039672],[-5.827256,36.105008],[-5.906599,36.188898],[-6.061413,36.188808],[-6.28009,36.42435],[-6.268926,36.554853],[-6.404993,36.599935],[-6.470251,36.741901],[-6.208462,36.877707],[-6.092889,36.903028],[-5.827989,37.018983],[-5.996049,37.253346],[-6.343828,37.117076],[-6.556933,37.11653],[-6.637473,37.029445],[-6.929371,37.185907],[-7.146605,37.221649],[-7.310567,37.196626]]]]},"properties":{"name":"Baetica","mapcolor":14,"cartodb_id":14}},{"type":"Feature","geometry":{"type":"MultiPolygon","coordinates":[[[[4.186636,50.085935],[4.370432,49.976876],[4.871811,50.01204],[4.923607,49.973289],[5.090603,49.812915],[5.346731,49.90648],[5.813091,49.867417],[6.049497,49.942991],[6.169018,50.081637],[6.367201,50.186617],[6.660329,50.214524],[6.85456,50.294271],[7.039288,50.275005],[7.124288,50.118952],[7.55284,49.725637],[7.688435,49.557084],[7.689833,49.395654],[7.643596,49.320649],[7.472003,49.177102],[7.378813,49.115161],[7.238877,49.005397],[7.099233,48.836733],[7.023663,48.669968],[7.020577,48.368271],[7.011436,48.150197],[7.003504,48.048151],[6.88667,47.922172],[6.575614,47.970196],[6.375235,47.979381],[6.148641,48.017106],[6.047305,48.125746],[5.951669,48.301626],[5.807095,48.435368],[5.591093,48.513809],[5.315061,48.515753],[5.084223,48.465379],[4.859859,48.404386],[4.66811,48.504668],[3.980551,48.772527],[3.133745,48.983912],[2.526114,49.200859],[2.377341,49.273415],[2.024717,49.368378],[1.708797,49.468932],[1.297361,49.691247],[0.804767,49.905378],[1.08783,49.934947],[1.449981,50.112345],[1.545053,50.311438],[1.584334,50.526606],[1.543102,50.601302],[1.551153,50.82554],[1.603095,50.914199],[2.485459,51.08279],[2.698379,51.151768],[2.860293,51.247225],[3.338389,51.383458],[3.791575,51.317335],[4.211032,51.348517],[4.323274,51.253074],[4.420819,50.903931],[4.366959,50.601954],[4.181997,50.178801],[4.186636,50.085935]]]]},"properties":{"name":"Belgica","mapcolor":3,"cartodb_id":3}},{"type":"Feature","geometry":{"type":"MultiPolygon","coordinates":[[[[33.982921,41.282121],[33.57451,41.09617],[32.922955,40.682516],[32.661447,40.528957],[32.037853,40.222224],[31.529164,40.04674],[31.099021,39.988371],[30.639384,40.008662],[29.970239,40.091215],[29.45644,40.17009],[29.098819,40.239775],[28.791991,40.349039],[28.925934,40.46608],[28.786329,40.532252],[28.944458,40.660427],[29.32045,40.686456],[29.441388,40.728719],[28.993323,40.98859],[29.133908,41.202408],[29.737321,41.177218],[30.000816,41.137378],[30.26444,41.204014],[30.555514,41.160663],[30.72941,41.094427],[30.997026,41.063323],[31.094079,41.112034],[31.332564,41.135834],[31.403441,41.333981],[31.57598,41.413126],[31.700923,41.420594],[31.818449,41.510445],[32.155173,41.643502],[32.287195,41.744051],[32.641138,41.859809],[32.797804,41.861199],[33.15626,41.976965],[33.283932,42.045734],[33.776478,41.976085],[34.297242,41.951867],[34.404577,41.973987],[34.687194,41.93584],[34.840803,41.984091],[35.026204,42.093959],[35.141974,41.98023],[35.15122,41.887443],[35.27429,41.750127],[35.426304,41.678326],[35.625724,41.647755],[35.925618,41.718373],[36.07542,41.703349],[36.153247,41.619582],[36.184301,41.463763],[36.384438,41.272922],[36.530827,41.261198],[36.745609,41.350257],[37.007043,41.258528],[37.04272,41.178991],[37.421681,41.100486],[37.498943,41.032926],[37.314209,40.916672],[37.042618,40.880318],[36.609961,41.008267],[35.746259,41.330825],[35.537618,41.391575],[35.122138,41.430654],[34.788944,41.431531],[34.421029,41.400507],[33.982921,41.282121]]]]},"properties":{"name":"Bithynia et Pontus","mapcolor":38,"cartodb_id":38}},{"type":"Feature","geometry":{"type":"MultiPolygon","coordinates":[[[[-1.227073,50.584034],[-1.543295,50.661963],[-1.280407,50.750712],[-1.088905,50.703587],[-1.227073,50.584034]]],[[[-4.283186,53.310308],[-4.081406,53.284368],[-4.422936,53.141359],[-4.617568,53.302189],[-4.59323,53.394745],[-4.374315,53.390437],[-4.283186,53.310308]]],[[[-1.370146,54.811391],[-1.237012,54.692271],[-0.578497,54.470139],[-0.428565,54.273115],[-0.172617,54.099486],[-0.236054,54.060722],[-0.1251,53.875311],[0.068268,53.708131],[0.091652,53.624798],[-0.084008,53.556877],[0.148381,53.495534],[0.332297,53.211383],[0.347896,53.122968],[-0.078584,52.97955],[-0.131311,52.920853],[0.114888,52.76222],[0.336055,52.791494],[0.506883,52.966517],[0.771974,52.98689],[1.187815,52.971645],[1.347039,52.938664],[1.654001,52.748836],[1.706933,52.670219],[1.70122,52.330235],[1.601516,52.286224],[1.606926,52.154606],[1.463267,52.023186],[1.221747,51.901115],[1.161354,51.800466],[1.024297,51.806204],[0.919088,51.712025],[0.91158,51.579715],[0.671519,51.474984],[0.855448,51.444116],[0.978838,51.358996],[1.445132,51.382152],[1.398155,51.100524],[1.061577,51.015426],[0.967513,50.891998],[0.875149,50.902369],[0.62727,50.829514],[0.186211,50.738133],[-0.072127,50.813514],[-0.433177,50.831282],[-0.833777,50.753218],[-0.960879,50.803661],[-1.356491,50.795786],[-1.562133,50.735782],[-2.000013,50.735708],[-2.05712,50.592434],[-2.319418,50.630255],[-2.477013,50.595524],[-2.811557,50.727125],[-2.989261,50.718073],[-3.440148,50.603859],[-3.520844,50.542522],[-3.563076,50.346101],[-3.700519,50.246765],[-3.847613,50.232421],[-3.974531,50.322724],[-4.271315,50.328501],[-4.421149,50.361881],[-4.782667,50.312252],[-4.848197,50.221276],[-5.101795,50.15975],[-5.112436,50.027295],[-5.212548,49.973704],[-5.362141,50.075284],[-5.777728,50.129172],[-5.716844,50.186555],[-5.423284,50.256583],[-5.215139,50.336626],[-5.053247,50.486553],[-5.045211,50.571814],[-4.793652,50.644973],[-4.544509,50.817929],[-4.552692,50.943668],[-4.193154,51.111778],[-4.237476,51.179765],[-3.712011,51.23416],[-3.451447,51.194304],[-3.148898,51.206038],[-3.024994,51.253733],[-2.995618,51.3767],[-2.748363,51.562064],[-3.04355,51.511996],[-3.293074,51.364026],[-3.581837,51.379401],[-3.784826,51.496262],[-3.862566,51.586671],[-4.322723,51.543693],[-4.20574,51.626678],[-4.485805,51.761967],[-4.750808,51.710388],[-4.78106,51.644629],[-5.017835,51.597907],[-5.226141,51.870797],[-5.109278,52.004475],[-5.009381,52.000276],[-4.338998,52.22257],[-4.105498,52.406754],[-4.054744,52.533928],[-4.066298,52.684541],[-4.146558,52.755084],[-4.157074,52.891008],[-4.356354,52.895535],[-4.560339,52.789682],[-4.798837,52.827285],[-4.664957,52.951412],[-4.395096,53.044662],[-4.313671,53.148474],[-3.93716,53.272493],[-3.880445,53.335382],[-3.657468,53.297306],[-3.080473,53.424772],[-3.133502,53.536374],[-3.043246,53.666749],[-3.105561,53.896203],[-2.909069,53.96558],[-2.951901,54.151728],[-3.27141,54.095986],[-3.421338,54.194498],[-3.563213,54.393037],[-3.691619,54.463331],[-3.645791,54.639224],[-3.159264,54.621138],[-2.567465,54.706229],[-2.237201,54.79713],[-1.451822,54.969937],[-1.370146,54.811391]]]]},"properties":{"name":"Britannia","mapcolor":1,"cartodb_id":1}},{"type":"Feature","geometry":{"type":"MultiPolygon","coordinates":[[[[36.261785,36.671998],[36.110102,36.871945],[35.944255,36.920901],[35.802089,36.780271],[35.603624,36.745864],[35.531792,36.602397],[35.323897,36.553606],[34.898974,36.707415],[34.913301,36.77154],[34.735799,36.793617],[34.440193,36.678833],[34.227541,36.521181],[34.106488,36.384599],[34.07711,36.281608],[33.956882,36.310351],[33.726752,36.149403],[33.449742,36.147885],[33.360892,36.104547],[32.937148,36.083484],[32.749131,36.035757],[32.358663,36.16355],[32.273275,36.304044],[32.045359,36.516179],[31.813321,36.575432],[31.954965,36.752115],[32.149572,36.9],[32.638711,37.090331],[32.908841,37.163443],[33.300265,37.343431],[33.370346,37.452865],[33.387238,37.523535],[33.930975,37.430478],[34.620798,37.428767],[35.408993,37.518085],[36.628005,37.41733],[36.713377,37.380445],[36.548624,37.167871],[36.333636,36.735591],[36.261785,36.671998]]]]},"properties":{"name":"Cilicia","mapcolor":39,"cartodb_id":39}},{"type":"Feature","geometry":{"type":"MultiPolygon","coordinates":[[[[22.748048,32.815165],[22.744972,32.799729],[22.798491,28.01037],[22.000755,27.94386],[21.167925,27.847396],[20.251455,27.75379],[19.384247,27.718739],[18.664291,27.698913],[18.317337,27.700521],[18.293779,30.756901],[18.746404,30.40069],[19.06457,30.286948],[19.281797,30.293733],[19.704412,30.479827],[19.918715,30.672542],[20.126891,30.975019],[20.163669,31.272163],[20.077314,31.377121],[19.955911,31.719356],[19.969579,32.024137],[20.109691,32.203513],[20.305902,32.407922],[20.647253,32.627593],[21.073393,32.817997],[21.232069,32.840496],[21.404979,32.819385],[21.611557,32.964712],[21.763441,33.005589],[21.940439,32.968332],[22.202997,32.986309],[22.253726,32.93231],[22.413043,32.929531],[22.512729,32.861232],[22.748048,32.815165]]],[[[23.821931,35.545074],[24.015792,35.539356],[24.131142,35.597575],[24.264902,35.397879],[24.460986,35.389271],[24.646572,35.467952],[24.997915,35.448422],[25.060959,35.369941],[25.384791,35.376824],[25.50584,35.336793],[25.607962,35.377614],[25.705121,35.310928],[25.714058,35.186413],[25.825693,35.162345],[26.019149,35.250999],[26.198462,35.248355],[26.294017,35.151659],[26.181875,35.027333],[25.927935,35.049588],[25.544464,34.991271],[25.30535,35.01039],[24.749381,34.949769],[24.704426,35.083573],[24.55602,35.108189],[24.470843,35.17226],[23.993982,35.204318],[23.957941,35.231315],[23.478496,35.254174],[23.535765,35.569008],[23.606046,35.515084],[23.716049,35.571374],[23.821931,35.545074]]]]},"properties":{"name":"Creta et Cyrene","mapcolor":40,"cartodb_id":40}},{"type":"Feature","geometry":{"type":"MultiPolygon","coordinates":[[[[32.808674,35.158907],[32.895452,35.20811],[32.952188,35.359397],[33.030274,35.368336],[33.334162,35.311215],[33.705081,35.377503],[33.840218,35.446989],[34.036269,35.470153],[34.195622,35.572799],[34.44595,35.55488],[34.101048,35.383278],[33.954111,35.138381],[34.087091,34.973458],[33.660934,34.945907],[33.627926,34.80586],[33.279955,34.709873],[33.130118,34.715312],[32.9217,34.593059],[32.848708,34.670364],[32.545897,34.685381],[32.370791,34.756539],[32.363717,34.843214],[32.252912,35.059567],[32.467735,35.07694],[32.549426,35.181456],[32.808674,35.158907]]]]},"properties":{"name":"Cyprus","mapcolor":41,"cartodb_id":41}},{"type":"Feature","geometry":{"type":"MultiPolygon","coordinates":[[[[23.568406,43.818671],[23.291115,43.845612],[23.09471,43.823292],[22.903585,43.855069],[22.877937,43.952489],[22.954949,44.030084],[22.980161,44.122075],[22.672931,44.258244],[22.63924,44.319017],[22.513996,44.490529],[22.595083,44.541651],[22.682629,44.54799],[22.682549,44.638343],[22.572087,44.702653],[22.515462,44.743711],[22.399147,44.67182],[22.27197,44.589917],[22.13,44.524776],[22.010851,44.642095],[21.955238,44.6739],[21.800733,44.688721],[21.612411,44.754851],[21.451666,44.804884],[21.409024,44.811173],[21.459218,45.221336],[21.527953,45.426413],[21.641369,45.598823],[21.775582,45.727415],[22.151635,45.974028],[22.368151,46.089781],[22.774392,46.345129],[22.946143,46.519876],[23.03829,46.707215],[23.04192,46.870579],[22.975257,47.156288],[23.133313,47.358794],[23.315956,47.488211],[23.799946,47.680369],[24.231398,47.776792],[24.656419,47.699039],[25.193594,47.416632],[25.692069,47.048985],[26.170826,46.669726],[26.178274,46.227541],[26.275987,45.960314],[26.181551,45.839613],[26.019854,45.761389],[25.452237,45.620816],[25.122704,45.569752],[24.579829,45.458321],[24.404632,45.386929],[24.329245,45.30542],[24.353901,45.081095],[24.296542,45.023775],[24.264192,44.742259],[24.316662,44.609903],[24.322704,44.438925],[24.466653,44.149491],[24.580074,44.020534],[24.603522,43.913741],[24.796434,43.725894],[24.559177,43.740319],[24.16529,43.709198],[23.717907,43.817313],[23.568406,43.818671]]]]},"properties":{"name":"Dacia","mapcolor":33,"cartodb_id":33}},{"type":"Feature","geometry":{"type":"MultiPolygon","coordinates":[[[[17.148602,42.967186],[16.875439,42.89977],[16.71279,42.982295],[17.148602,42.967186]]],[[[16.941876,43.272999],[16.82129,43.248816],[16.557161,43.262204],[16.588928,43.38637],[16.793595,43.359446],[16.941876,43.272999]]],[[[15.191739,44.322359],[14.929545,44.47519],[14.973967,44.572343],[15.220734,44.367731],[15.191739,44.322359]]],[[[14.761197,45.070199],[14.724939,44.971355],[14.504052,45.061461],[14.586631,45.21147],[14.761197,45.070199]]],[[[14.497084,44.969692],[14.486658,44.902135],[14.564444,44.644842],[14.493006,44.639355],[14.337193,44.859838],[14.36748,44.988245],[14.497084,44.969692]]],[[[14.667676,45.396688],[15.325648,45.183201],[15.670731,45.086592],[16.552499,44.891845],[17.051731,44.769228],[17.339184,44.739059],[17.604687,44.657141],[17.84596,44.638109],[17.984359,44.660658],[17.984703,44.661781],[18.600451,44.567967],[19.13783,44.526289],[19.331015,44.527953],[19.6941,44.603264],[19.908668,44.631115],[20.145871,44.679543],[20.217955,44.696266],[20.255508,44.570696],[20.246813,43.964063],[20.269971,43.186054],[20.256607,42.867753],[20.224292,42.654513],[20.122131,42.3731],[19.93976,41.961041],[19.827726,41.809541],[19.623648,41.665542],[19.57456,41.828375],[19.174715,41.94684],[19.145853,42.110509],[19.057252,42.12294],[18.724186,42.412877],[18.528869,42.431047],[18.236916,42.566701],[18.238211,42.625166],[18.056335,42.695894],[17.927003,42.792296],[17.778423,42.775401],[17.533792,42.847686],[17.464887,42.915349],[17.274835,42.976397],[17.356659,43.112928],[17.173066,43.15223],[16.951272,43.353056],[16.667787,43.423472],[16.462282,43.508399],[16.40396,43.462191],[16.079104,43.463696],[15.983007,43.498331],[15.940328,43.657583],[15.814849,43.752806],[15.645937,43.769276],[15.658844,43.851105],[15.46331,43.938977],[15.216679,44.152181],[15.144371,44.257892],[15.305533,44.275623],[15.323727,44.352364],[15.121085,44.507064],[14.954101,44.687661],[14.924161,44.796784],[14.955615,44.993869],[14.853416,45.12234],[14.58498,45.273106],[14.369878,45.357214],[14.273447,45.286168],[14.218,45.129695],[14.155257,45.265846],[14.442662,45.492707],[14.455533,45.508527],[14.667676,45.396688]]]]},"properties":{"name":"Dalmatia","mapcolor":29,"cartodb_id":29}},{"type":"Feature","geometry":{"type":"MultiPolygon","coordinates":[[[[32.128307,37.002406],[32.042057,37.323817],[31.90336,37.506589],[31.507967,37.803102],[31.20419,38.000504],[30.888985,38.119894],[30.66922,38.134619],[30.383636,38.071901],[30.401085,38.240443],[30.516975,38.42018],[30.697807,38.476978],[31.164403,38.446524],[31.422177,38.269012],[31.536138,38.254312],[31.599539,38.478704],[31.541373,39.060253],[31.519117,39.778174],[31.576312,40.060669],[32.037853,40.222224],[32.661447,40.528957],[32.922955,40.682516],[33.57451,41.09617],[33.982921,41.282121],[34.421029,41.400507],[34.788944,41.431531],[35.122138,41.430654],[35.537618,41.391575],[35.746259,41.330825],[36.609961,41.008267],[37.042618,40.880318],[37.314209,40.916672],[37.655493,41.113091],[37.950674,40.97129],[38.429138,40.913334],[38.710954,40.962584],[38.956252,41.045537],[39.295639,41.05051],[39.527924,41.075884],[39.576621,41.013511],[39.948226,40.959084],[39.766399,40.792622],[39.680562,40.531373],[39.56967,39.982461],[39.48137,39.7176],[39.255142,39.604154],[39.01244,39.600594],[38.673992,39.48157],[38.357733,39.422844],[38.350235,39.372257],[38.510145,39.247804],[38.729096,39.134135],[38.771239,39.006609],[38.701393,38.778244],[38.497545,38.700839],[38.365561,38.586522],[38.408545,38.462362],[38.563397,38.424083],[38.812951,38.307378],[38.851743,38.237525],[39.034318,38.162664],[39.113391,37.933533],[39.104928,37.938791],[38.65119,37.84439],[37.806124,37.719376],[37.292526,37.587853],[36.92479,37.462788],[36.713377,37.380445],[36.628005,37.41733],[35.408993,37.518085],[34.620798,37.428767],[33.930975,37.430478],[33.387238,37.523535],[33.370346,37.452865],[33.300265,37.343431],[32.908841,37.163443],[32.638711,37.090331],[32.149572,36.9],[32.131973,36.985086],[32.128307,37.002406]]]]},"properties":{"name":"Galatia et Cappadocia","mapcolor":50,"cartodb_id":50}},{"type":"Feature","geometry":{"type":"MultiPolygon","coordinates":[[[[4.380049,51.474634],[4.287011,51.414151],[3.966055,51.449157],[3.803075,51.39039],[3.479099,51.510293],[3.732155,51.749782],[4.042884,51.836305],[4.316635,51.711448],[4.511078,51.679464],[4.380049,51.474634]]],[[[6.85456,50.294271],[6.660329,50.214524],[6.367201,50.186617],[6.169018,50.081637],[6.049497,49.942991],[5.813091,49.867417],[5.346731,49.90648],[5.090603,49.812915],[4.923607,49.973289],[4.871811,50.01204],[4.370432,49.976876],[4.186636,50.085935],[4.181997,50.178801],[4.366959,50.601954],[4.420819,50.903931],[4.323274,51.253074],[4.211032,51.348517],[4.502403,51.506075],[4.551548,51.70068],[4.212522,51.813121],[4.085769,51.892501],[4.149343,52.015148],[4.37818,52.170313],[4.52045,52.315533],[4.573656,52.449086],[4.943578,52.386401],[5.060667,52.300802],[5.445793,52.178579],[5.852307,51.881674],[5.972952,51.903155],[6.217434,51.819411],[6.508455,51.659123],[6.646225,51.548662],[6.76636,51.197639],[6.861799,51.139379],[6.979136,50.975825],[7.022254,50.829667],[7.28482,50.541183],[7.127372,50.423132],[7.030636,50.276278],[6.85456,50.294271]]]]},"properties":{"name":"Germania Inferior","mapcolor":4,"cartodb_id":4}},{"type":"Feature","geometry":{"type":"MultiPolygon","coordinates":[[[[9.859228,48.787576],[9.799779,48.682642],[9.44866,48.393524],[9.193722,48.1462],[9.063167,47.922583],[9.131088,47.498406],[9.350506,47.191227],[9.303472,47.097937],[9.110407,46.891292],[8.924471,46.754694],[8.555877,46.594497],[8.447243,46.596525],[8.336983,46.553509],[7.913362,46.473009],[7.450995,46.44661],[7.080818,46.483658],[6.978772,46.470662],[6.897683,46.352645],[6.780971,46.370965],[6.352722,46.317211],[6.182607,46.222445],[6.025131,46.220314],[5.891131,46.317027],[5.440652,46.963445],[5.165823,47.23788],[4.892903,47.349535],[4.697055,47.402082],[4.736134,47.594338],[4.479263,47.732484],[4.331301,47.842415],[4.297204,47.979586],[4.582765,48.131916],[4.804178,48.304251],[4.859859,48.404386],[5.084223,48.465379],[5.315061,48.515753],[5.591093,48.513809],[5.807095,48.435368],[5.951669,48.301626],[6.047305,48.125746],[6.148641,48.017106],[6.375235,47.979381],[6.575614,47.970196],[6.88667,47.922172],[7.003504,48.048151],[7.011436,48.150197],[7.020577,48.368271],[7.023663,48.669968],[7.099233,48.836733],[7.238877,49.005397],[7.378813,49.115161],[7.472003,49.177102],[7.643596,49.320649],[7.689833,49.395654],[7.688435,49.557084],[7.55284,49.725637],[7.124288,50.118952],[7.039288,50.275005],[7.127372,50.423132],[7.285309,50.54104],[7.536524,50.410451],[8.087405,50.222835],[8.342624,50.158922],[8.597662,50.159065],[8.730824,50.353492],[8.896839,50.429844],[9.016209,50.373176],[9.096832,50.215015],[9.102821,49.983341],[9.224611,49.748968],[9.505763,49.460717],[9.825969,48.899809],[9.859228,48.787576]]]]},"properties":{"name":"Germania Superior","mapcolor":6,"cartodb_id":6}},{"type":"Feature","geometry":{"type":"MultiPolygon","coordinates":[[[[13.069317,41.881508],[13.207985,41.872089],[13.514017,41.832301],[13.820964,41.749634],[14.029465,41.616112],[14.267656,41.453604],[14.552988,41.354765],[14.529038,41.278672],[14.528585,41.107382],[14.678963,41.027603],[14.782881,41.00714],[14.967084,40.873029],[15.1307,40.736928],[14.991307,40.494658],[14.794357,40.673335],[14.73628,40.633913],[14.367249,40.596007],[14.474157,40.732101],[14.297395,40.81386],[14.085351,40.793446],[14.054205,40.916997],[13.800627,41.185015],[13.65712,41.230249],[13.541794,41.206562],[13.306598,41.263733],[13.068406,41.208316],[12.92918,41.363855],[12.631736,41.436861],[12.52582,41.561525],[12.228839,41.723031],[12.396559,41.782789],[12.545504,41.940484],[12.647517,41.890652],[13.069317,41.881508]]]]},"properties":{"name":"I","mapcolor":24,"cartodb_id":24}},{"type":"Feature","geometry":{"type":"MultiPolygon","coordinates":[[[[16.894239,40.3874],[16.549004,40.613485],[16.246752,40.737436],[16.173327,40.874562],[15.976159,40.934392],[15.630591,40.813634],[15.288526,40.780873],[15.131607,40.736589],[14.967084,40.873029],[14.782881,41.00714],[14.678963,41.027603],[14.528585,41.107382],[14.529038,41.278672],[14.64595,41.420184],[14.833124,41.508879],[14.93066,41.599879],[15.029883,41.766615],[14.91003,41.873929],[14.882855,41.970555],[15.024946,41.994345],[15.307095,41.910503],[15.562379,41.937026],[15.82936,41.919443],[16.08821,41.957106],[16.232052,41.814936],[15.92784,41.617736],[15.986336,41.473267],[16.500093,41.28908],[16.651013,41.210925],[17.038806,41.110615],[17.21324,41.034986],[17.579237,40.793865],[17.750888,40.793203],[18.085462,40.582433],[18.50503,40.244659],[18.547655,40.083929],[18.453858,40.023192],[18.420581,39.807613],[18.212544,39.818946],[18.046621,39.953063],[18.006857,40.115841],[17.835398,40.290136],[17.565343,40.287471],[17.281589,40.38485],[17.3169,40.492162],[17.055095,40.489283],[16.894239,40.3874]]]]},"properties":{"name":"II","mapcolor":30,"cartodb_id":30}},{"type":"Feature","geometry":{"type":"MultiPolygon","coordinates":[[[[15.131607,40.736589],[15.288526,40.780873],[15.630591,40.813634],[15.976159,40.934392],[16.173327,40.874562],[16.246752,40.737436],[16.549004,40.613485],[16.894239,40.3874],[16.804732,40.306574],[16.743964,40.148195],[16.633947,40.084502],[16.665741,39.959845],[16.514347,39.825914],[16.611204,39.653066],[16.849866,39.619759],[16.956938,39.503141],[17.174328,39.396163],[17.134406,39.231785],[17.20431,38.932891],[16.854411,38.923459],[16.588508,38.759254],[16.565899,38.648515],[16.591435,38.452522],[16.4687,38.332748],[16.225302,38.197955],[16.140948,37.960967],[16.096093,37.925425],[15.823293,37.918861],[15.648956,38.000979],[15.643476,38.228783],[15.745769,38.263983],[15.91841,38.485364],[15.834028,38.606678],[15.855243,38.689469],[16.181006,38.773249],[16.202258,38.936948],[16.089357,39.059915],[16.013089,39.415988],[15.860476,39.599105],[15.778615,39.892156],[15.699792,40.045427],[15.615661,40.086298],[15.479161,40.011483],[15.337163,40.012787],[15.184523,40.147428],[15.06443,40.165786],[14.958031,40.252372],[15.047398,40.421381],[14.991307,40.494658],[15.131607,40.736589]]]]},"properties":{"name":"III","mapcolor":25,"cartodb_id":25}},{"type":"Feature","geometry":{"type":"MultiPolygon","coordinates":[[[[34.20119,31.316356],[34.369727,31.450814],[34.690647,31.837305],[34.806889,32.159009],[34.941543,32.679483],[35.196216,32.819573],[35.432909,33.002917],[35.545275,33.073457],[35.674714,33.026214],[35.694084,32.87045],[35.622891,32.652031],[35.692203,32.482107],[35.700989,32.301929],[35.660572,31.95308],[35.694231,31.678654],[35.681895,31.543527],[35.469714,31.314438],[35.500454,31.191061],[35.338109,31.137221],[35.146558,31.127679],[34.89127,31.149942],[34.386004,31.230828],[34.20119,31.316356]]]]},"properties":{"name":"Iudaea","mapcolor":44,"cartodb_id":44}},{"type":"Feature","geometry":{"type":"MultiPolygon","coordinates":[[[[13.282416,42.866244],[13.479152,42.705241],[13.611772,42.471985],[13.859494,42.446914],[14.091168,42.474111],[14.205075,42.519317],[14.525557,42.307585],[14.793581,42.093962],[15.024946,41.994345],[14.882855,41.970555],[14.91003,41.873929],[15.029883,41.766615],[14.93066,41.599879],[14.833124,41.508879],[14.64595,41.420184],[14.552988,41.354765],[14.267656,41.453604],[14.029465,41.616112],[13.820964,41.749634],[13.514017,41.832301],[13.207985,41.872089],[13.069317,41.881508],[12.647517,41.890652],[12.545504,41.940484],[12.616877,42.0969],[12.610001,42.252206],[12.471627,42.29892],[12.434423,42.33862],[12.534157,42.446305],[12.694444,42.551432],[12.791977,42.568812],[13.004344,42.657113],[13.121301,42.829985],[13.282416,42.866244]]]]},"properties":{"name":"IV","mapcolor":22,"cartodb_id":22}},{"type":"Feature","geometry":{"type":"MultiPolygon","coordinates":[[[[7.442741,44.116972],[7.542219,44.18305],[7.741927,44.314937],[7.80389,44.409176],[7.799679,44.556418],[7.583075,44.800045],[7.715745,44.864417],[7.670788,44.965616],[7.793457,45.121306],[7.875799,45.172026],[8.147508,45.194699],[8.35395,45.156265],[8.528192,45.161425],[8.770065,45.037498],[8.917763,45.073353],[8.959653,45.082167],[9.007271,45.009755],[9.267342,44.904262],[9.365796,44.832558],[9.358222,44.597767],[9.296535,44.517423],[9.415624,44.456322],[9.585072,44.460694],[9.640512,44.386303],[9.893861,44.099011],[9.798423,44.088483],[9.469957,44.228428],[9.38416,44.308844],[9.210993,44.315755],[9.098191,44.395181],[8.824132,44.425785],[8.58675,44.336161],[8.408317,44.172116],[8.305287,44.147037],[8.25725,44.008823],[8.056775,43.877423],[7.818418,43.797091],[7.505258,43.776271],[7.377774,43.935128],[7.442741,44.116972]]]]},"properties":{"name":"IX","mapcolor":11,"cartodb_id":11}},{"type":"Feature","geometry":{"type":"MultiPolygon","coordinates":[[[[2.024717,49.368378],[2.377341,49.273415],[2.526114,49.200859],[3.133745,48.983912],[3.980551,48.772527],[4.66811,48.504668],[4.859859,48.404386],[4.804178,48.304251],[4.582765,48.131916],[4.297204,47.979586],[4.331301,47.842415],[4.479263,47.732484],[4.736134,47.594338],[4.697055,47.402082],[4.892903,47.349535],[5.165823,47.23788],[5.440652,46.963445],[5.891131,46.317027],[5.977212,46.142542],[5.855042,46.08623],[5.841192,45.942817],[5.824507,45.884409],[5.824191,45.766473],[5.749348,45.721214],[5.659771,45.640544],[5.533989,45.750559],[5.32085,45.839138],[5.179694,45.822499],[4.989965,45.748024],[4.804718,45.728859],[4.620556,45.632111],[4.49849,45.591846],[4.047789,45.767837],[3.759177,46.122813],[3.558399,46.418688],[3.312091,46.635836],[3.036535,46.769773],[3.068722,46.962443],[3.018262,47.087206],[2.851117,47.35625],[2.87686,47.441449],[2.706861,47.617826],[2.544158,47.63915],[2.25495,47.653939],[2.092075,47.628309],[1.406261,47.424948],[0.977156,47.242881],[0.830706,47.203168],[0.483986,47.111897],[0.039116,47.07893],[-0.456081,47.122627],[-0.704081,47.16476],[-0.976413,47.231946],[-1.263732,47.350676],[-1.384359,47.313129],[-1.54315,47.239762],[-1.758028,47.228756],[-2.007448,47.326881],[-2.303814,47.253452],[-2.473112,47.262649],[-2.547646,47.371157],[-2.465501,47.510825],[-3.085804,47.561765],[-3.276306,47.672366],[-3.700194,47.814943],[-3.807188,47.795151],[-3.95692,47.901785],[-4.038461,47.852225],[-4.332518,47.874902],[-4.413311,47.970129],[-4.613452,48.094081],[-4.293653,48.119952],[-4.3403,48.2178],[-4.526187,48.20891],[-4.601621,48.300368],[-4.223259,48.280677],[-4.39925,48.408842],[-4.763228,48.34717],[-4.785098,48.573572],[-4.415924,48.689895],[-4.076684,48.711068],[-3.897817,48.68498],[-3.773474,48.74925],[-3.635191,48.713963],[-3.550971,48.843696],[-3.163283,48.86702],[-2.982377,48.832035],[-2.721378,48.552979],[-2.309446,48.698334],[-2.134119,48.658327],[-1.828118,48.715632],[-1.76388,48.619366],[-1.57692,48.619866],[-1.521225,48.720002],[-1.526378,48.919935],[-1.595139,49.067245],[-1.619474,49.242146],[-1.78125,49.376718],[-1.858576,49.546057],[-1.879847,49.729661],[-1.573888,49.655925],[-1.471548,49.707048],[-1.286505,49.71089],[-1.227328,49.63178],[-1.306802,49.530848],[-1.158227,49.378384],[-0.983124,49.414331],[-0.688156,49.328947],[-0.518993,49.357856],[-0.284119,49.294624],[-0.095812,49.312561],[0.047285,49.408644],[0.321671,49.445579],[0.036013,49.575772],[0.213403,49.759919],[0.467118,49.869711],[0.806758,49.90417],[1.297361,49.691247],[1.708797,49.468932],[2.024717,49.368378]]]]},"properties":{"name":"Lugdunensis","mapcolor":2,"cartodb_id":2}},{"type":"Feature","geometry":{"type":"MultiPolygon","coordinates":[[[[-7.310567,37.196626],[-7.525202,37.16598],[-7.763713,37.03383],[-7.945183,36.976013],[-8.10329,37.056693],[-8.32954,37.091979],[-8.462201,37.069096],[-8.619951,37.124058],[-8.678401,37.078666],[-8.930541,37.001708],[-8.997062,37.01069],[-8.880445,37.256722],[-8.878953,37.35655],[-8.794144,37.409931],[-8.81626,37.582811],[-8.788553,37.879584],[-8.880607,37.993142],[-8.81383,38.061903],[-8.766533,38.241038],[-8.870966,38.51634],[-9.107921,38.440815],[-9.248015,38.694137],[-9.414157,38.704118],[-9.419262,38.832127],[-9.367621,39.129372],[-9.317286,39.231272],[-9.359605,39.3877],[-9.080187,39.541094],[-8.840911,40.098599],[-8.876954,40.214965],[-8.803712,40.335972],[-8.709894,40.717455],[-8.623851,40.916537],[-8.618833,41.155611],[-8.307252,41.047411],[-7.75492,41.18764],[-7.491529,41.219115],[-7.208275,41.159102],[-7.092168,41.163103],[-7.026484,41.073876],[-6.91864,41.056304],[-6.758226,41.096476],[-6.734643,41.17806],[-6.451685,41.295186],[-6.214578,41.526473],[-6.140922,41.55641],[-5.945342,41.465881],[-5.487399,41.16892],[-5.239889,40.94802],[-5.003872,40.740548],[-4.724312,40.516927],[-4.369655,40.43544],[-4.290364,40.281617],[-4.389584,40.137419],[-4.687138,39.897049],[-4.760259,39.647894],[-4.932103,39.411744],[-5.04398,39.375407],[-5.373501,39.073584],[-5.538505,38.899637],[-5.806477,38.773097],[-6.210234,38.676584],[-6.411289,38.658025],[-6.77693,38.702545],[-6.982977,38.774957],[-7.134883,38.661474],[-7.171761,38.544069],[-7.324396,38.348569],[-7.466516,38.05586],[-7.388268,37.706227],[-7.429233,37.364468],[-7.310567,37.196626]]]]},"properties":{"name":"Lusitania","mapcolor":15,"cartodb_id":15}},{"type":"Feature","geometry":{"type":"MultiPolygon","coordinates":[[[[32.149572,36.9],[31.954965,36.752115],[31.837403,36.622674],[31.681689,36.612822],[31.378032,36.785954],[30.953835,36.86696],[30.897975,36.841315],[30.662261,36.863387],[30.573446,36.808485],[30.561808,36.594353],[30.476352,36.421147],[30.461682,36.250416],[30.214953,36.294418],[30.148291,36.237633],[29.854167,36.165354],[29.814706,36.109929],[29.655515,36.117147],[29.622881,36.183135],[29.332179,36.223743],[29.107962,36.363354],[29.097975,36.518748],[29.021223,36.659671],[28.722169,36.691389],[28.793253,36.913209],[28.92859,37.066205],[29.428493,37.444269],[29.833328,37.668256],[29.973201,37.769534],[30.254639,38.022173],[30.383636,38.071901],[30.66922,38.134619],[30.888985,38.119894],[31.20419,38.000504],[31.507967,37.803102],[31.90336,37.506589],[32.042057,37.323817],[32.128307,37.002406],[32.131973,36.985086],[32.149572,36.9]]]]},"properties":{"name":"Lycia et Pamphylia","mapcolor":51,"cartodb_id":51}},{"type":"Feature","geometry":{"type":"MultiPolygon","coordinates":[[[[24.788112,40.665096],[24.65739,40.600532],[24.543457,40.646234],[24.628369,40.794462],[24.755688,40.754576],[24.788112,40.665096]]],[[[21.31438,41.844897],[21.533573,41.828265],[21.708906,41.861378],[22.100298,42.064807],[22.255892,42.158216],[22.501632,41.884701],[22.64114,41.827218],[23.101227,41.709657],[23.544906,41.626791],[23.902407,41.491316],[24.180121,41.33482],[24.322782,41.117045],[24.483579,40.947646],[24.330708,40.880925],[24.223872,40.761945],[24.065381,40.706997],[23.821999,40.756251],[23.651887,40.694453],[23.842046,40.550657],[23.81249,40.461069],[23.889669,40.387446],[24.024735,40.401402],[24.217802,40.345519],[24.396091,40.222796],[24.332485,40.11686],[24.148403,40.283168],[24.015828,40.287827],[23.949666,40.3536],[23.733653,40.322389],[23.817257,40.202793],[23.98475,40.107051],[24.04425,39.943065],[23.938942,39.935299],[23.674427,40.199838],[23.381596,40.230468],[23.477459,40.059499],[23.58941,39.938052],[23.357551,39.937102],[23.313392,40.22515],[23.097213,40.268916],[22.857505,40.460084],[22.979002,40.526265],[22.952206,40.614878],[22.622273,40.455948],[22.677455,40.337281],[22.615515,40.273191],[22.571929,40.051339],[22.705187,39.964774],[22.641047,39.891388],[22.317707,39.958178],[22.15302,39.944637],[21.860518,39.855746],[21.686077,39.847645],[21.523543,39.883056],[21.353193,39.967414],[21.04082,40.180946],[20.789577,40.292562],[20.464232,40.33902],[20.109957,40.28124],[19.760156,40.290565],[19.490491,40.367571],[19.36377,40.610904],[19.420189,40.797202],[19.557581,40.896617],[19.489309,40.989647],[19.486094,41.120897],[19.54617,41.248882],[19.437226,41.400764],[19.530161,41.518358],[19.492098,41.583304],[19.623648,41.665542],[19.827726,41.809541],[19.936063,41.956057],[20.098472,41.971845],[20.484749,41.974358],[20.888905,41.940985],[21.31438,41.844897]]]]},"properties":{"name":"Macedonia","mapcolor":36,"cartodb_id":36}},{"type":"Feature","geometry":{"type":"MultiPolygon","coordinates":[[[[6.021879,36.862537],[6.11106,36.747438],[6.421186,36.454049],[6.449369,36.318372],[6.402245,36.139752],[6.316507,35.96567],[6.016351,35.66434],[5.563567,35.295532],[5.317032,34.990961],[5.238516,34.320627],[5.257246,34.084901],[5.318356,33.855169],[5.492564,33.546607],[5.187414,33.646637],[4.238975,33.797703],[2.961456,33.889242],[1.858421,33.939166],[0.372548,33.965486],[-0.687366,33.929277],[-2.240157,33.971189],[-3.477309,33.858274],[-3.379929,33.96198],[-3.379127,34.071154],[-3.299319,34.194513],[-3.207363,34.328719],[-3.151262,34.369615],[-3.063866,34.444249],[-2.9573,34.611065],[-2.806818,34.722611],[-2.560615,34.934955],[-2.457411,34.984593],[-2.353814,35.103601],[-2.205078,35.106618],[-2.111565,35.056096],[-1.84504,35.117849],[-1.784931,35.104781],[-1.447722,35.285736],[-1.268384,35.357915],[-1.183668,35.547957],[-0.930824,35.684761],[-0.771246,35.709781],[-0.68703,35.668704],[-0.501537,35.748115],[-0.524159,35.838042],[-0.329871,35.86984],[-0.236397,35.783881],[-0.046008,35.773101],[0.106134,36.020314],[0.332349,36.168899],[0.686867,36.310817],[0.860986,36.349062],[0.960918,36.428297],[1.207825,36.514128],[1.499854,36.523915],[1.916375,36.580623],[2.006395,36.5532],[2.39484,36.626699],[2.557309,36.570053],[2.864691,36.695584],[2.898235,36.753229],[3.060491,36.7992],[3.238063,36.746047],[3.320736,36.792721],[3.461278,36.74894],[3.617951,36.775643],[3.809574,36.889995],[3.960394,36.923576],[4.139225,36.890227],[4.34735,36.900324],[4.864778,36.874025],[5.182253,36.792462],[5.140572,36.729342],[5.278486,36.652214],[5.48724,36.683307],[5.57709,36.775928],[5.76694,36.845074],[6.021879,36.862537]]]]},"properties":{"name":"Mauretania Caesariensis","mapcolor":48,"cartodb_id":48}},{"type":"Feature","geometry":{"type":"MultiPolygon","coordinates":[[[[-2.353814,35.103601],[-2.457411,34.984593],[-2.560615,34.934955],[-2.806818,34.722611],[-2.9573,34.611065],[-3.063866,34.444249],[-3.151262,34.369615],[-3.207363,34.328719],[-3.299319,34.194513],[-3.379127,34.071154],[-3.379929,33.96198],[-3.477309,33.858274],[-4.731458,33.945212],[-5.924381,33.997597],[-6.898509,34.00073],[-6.852689,34.042214],[-6.501415,34.557316],[-6.326796,34.878014],[-6.221415,35.126477],[-6.135974,35.243636],[-6.102302,35.41472],[-6.020508,35.530018],[-6.017833,35.635352],[-5.92173,35.792964],[-5.619357,35.831675],[-5.477735,35.904052],[-5.35611,35.827631],[-5.235934,35.568159],[-4.941808,35.36552],[-4.776005,35.226446],[-4.487585,35.148937],[-4.321854,35.158029],[-4.087016,35.240044],[-3.917738,35.26086],[-3.78316,35.191449],[-3.671328,35.243855],[-3.390689,35.177932],[-3.163099,35.227896],[-2.957863,35.387351],[-2.935642,35.199199],[-2.865109,35.065843],[-2.768147,35.102116],[-2.593559,35.060707],[-2.353814,35.103601]]]]},"properties":{"name":"Mauretania Tingitana","mapcolor":49,"cartodb_id":49}},{"type":"Feature","geometry":{"type":"MultiPolygon","coordinates":[[[[24.796434,43.725894],[25.125235,43.715194],[25.271441,43.672885],[25.579226,43.665789],[25.862661,43.761404],[26.049766,43.900343],[26.4285,44.010685],[26.677741,44.028576],[26.903253,44.120213],[27.081859,44.130213],[27.197962,44.091259],[27.409038,44.101576],[27.516605,44.167616],[27.943583,44.250375],[28.07515,44.400778],[28.062264,44.571871],[27.906209,44.777766],[27.89418,45.155992],[28.026212,45.264363],[28.012946,45.435712],[28.245748,45.463425],[28.457511,45.309306],[28.702515,45.235123],[28.80351,45.32564],[28.933699,45.312964],[29.015058,45.412477],[29.428061,45.481389],[29.71079,45.336739],[29.658605,45.292962],[29.691293,45.15034],[29.630164,45.081432],[29.6165,44.912291],[29.561207,44.856597],[29.188667,44.812724],[28.917085,45.024211],[28.846936,44.911683],[28.947799,44.796535],[28.756505,44.651772],[28.703132,44.343942],[28.641486,44.310146],[28.650809,43.948312],[28.566181,43.771797],[28.580358,43.514895],[28.453449,43.397092],[28.260656,43.437396],[28.067836,43.370628],[27.99383,43.226268],[27.914452,43.183817],[27.866772,43.026137],[27.89989,42.822333],[27.877831,42.70215],[27.735679,42.689789],[27.633322,42.544034],[27.539879,42.65922],[27.509627,42.818839],[27.524761,42.988099],[27.514186,43.215928],[27.270577,43.234911],[26.896369,43.308503],[26.540939,43.254541],[26.367826,43.248387],[26.170469,43.257917],[25.935893,43.147137],[25.665777,43.059619],[25.471146,43.04248],[25.31888,43.069259],[24.958346,43.220894],[24.672668,43.299173],[24.042488,43.229597],[23.809387,43.240799],[23.343883,43.346456],[23.229572,43.385206],[23.237365,43.391427],[23.410038,43.592137],[23.568406,43.818671],[23.717907,43.817313],[24.16529,43.709198],[24.559177,43.740319],[24.796434,43.725894]]]]},"properties":{"name":"Moesia Inferior","mapcolor":34,"cartodb_id":34}},{"type":"Feature","geometry":{"type":"MultiPolygon","coordinates":[[[[20.457129,44.853698],[20.656669,44.907392],[20.73575,44.751384],[20.91109,44.694678],[21.086267,44.710171],[21.335773,44.81322],[21.451666,44.804884],[21.612411,44.754851],[21.800733,44.688721],[21.955238,44.6739],[22.010851,44.642095],[22.13,44.524776],[22.27197,44.589917],[22.399147,44.67182],[22.515462,44.743711],[22.572087,44.702653],[22.682549,44.638343],[22.682629,44.54799],[22.595083,44.541651],[22.513996,44.490529],[22.63924,44.319017],[22.672931,44.258244],[22.980161,44.122075],[22.954949,44.030084],[22.877937,43.952489],[22.903585,43.855069],[23.09471,43.823292],[23.291115,43.845612],[23.568406,43.818671],[23.410038,43.592137],[23.237365,43.391427],[22.908352,43.080319],[22.634135,42.664166],[22.403262,42.31368],[22.255892,42.158216],[22.100298,42.064807],[21.708906,41.861378],[21.533573,41.828265],[21.31438,41.844897],[20.888905,41.940985],[20.484749,41.974358],[20.098472,41.971845],[19.93976,41.961041],[20.122131,42.3731],[20.224292,42.654513],[20.256607,42.867753],[20.269971,43.186054],[20.246813,43.964063],[20.255508,44.570696],[20.217955,44.696266],[20.23868,44.701063],[20.381217,44.739769],[20.457129,44.853698]]]]},"properties":{"name":"Moesia Superior","mapcolor":32,"cartodb_id":32}},{"type":"Feature","geometry":{"type":"MultiPolygon","coordinates":[[[[6.381936,44.697865],[6.444797,44.601035],[6.634299,44.17449],[6.407226,43.810262],[6.420277,43.707966],[6.673873,43.620502],[7.017192,43.652886],[7.196132,43.63424],[6.905807,43.416589],[6.758274,43.386491],[6.64758,43.296633],[6.597665,43.168742],[6.381534,43.093073],[6.049073,43.086244],[5.814082,43.044839],[5.659304,43.164152],[5.379294,43.218765],[5.36505,43.343937],[5.060666,43.33783],[4.998242,43.425922],[4.803332,43.373233],[4.649128,43.443323],[4.278589,43.44939],[4.106245,43.548681],[3.989323,43.538411],[3.586828,43.300113],[3.378059,43.279516],[3.118251,43.078096],[3.018652,42.898149],[3.082379,42.546488],[3.149157,42.446195],[3.031397,42.484558],[2.822759,42.446996],[2.56046,42.410161],[2.423683,42.43782],[2.321052,42.486728],[1.92662,42.550648],[1.650961,42.660624],[1.378266,42.680094],[1.122448,42.641423],[1.024293,42.687145],[1.035805,42.874278],[0.965046,42.96361],[0.71051,43.23328],[0.670072,43.337033],[0.670876,43.540908],[0.821101,43.718067],[0.972254,43.803006],[1.167596,43.881572],[1.789645,44.081193],[1.982697,44.142434],[2.366612,44.233959],[2.753893,44.295812],[2.953032,44.32283],[3.20739,44.321557],[3.381679,44.307296],[3.70651,44.347956],[3.836296,44.392497],[4.077162,44.557027],[4.265361,44.826001],[4.311216,45.126449],[4.357119,45.271893],[4.514589,45.503168],[4.501554,45.592998],[4.620556,45.632111],[4.804718,45.728859],[4.989965,45.748024],[5.179694,45.822499],[5.32085,45.839138],[5.533989,45.750559],[5.659771,45.640544],[5.749348,45.721214],[5.824191,45.766473],[5.824507,45.884409],[5.841192,45.942817],[5.855042,46.08623],[6.025131,46.220314],[6.182607,46.222445],[6.352722,46.317211],[6.700519,46.361008],[6.883799,46.016406],[6.850624,45.839001],[6.688931,45.677852],[6.194151,45.309916],[6.057384,45.124639],[6.054447,44.953735],[6.164581,44.806684],[6.324193,44.764862],[6.381936,44.697865]]]]},"properties":{"name":"Narbonensis","mapcolor":12,"cartodb_id":12}},{"type":"Feature","geometry":{"type":"MultiPolygon","coordinates":[[[[10.596551,46.747239],[10.501524,46.733993],[10.245382,46.722228],[10.119729,46.734985],[10.275743,46.809298],[10.54461,46.935336],[10.639418,47.048802],[10.597967,47.17795],[10.944119,47.241601],[11.037227,47.285837],[11.282223,47.275235],[11.564374,47.29791],[11.749659,47.391624],[11.912327,47.412896],[12.141262,47.526849],[12.19812,47.590911],[12.184363,47.983523],[12.395835,48.236475],[12.727836,48.304093],[13.076188,48.298418],[13.308419,48.361898],[13.433297,48.442264],[13.49377,48.621152],[13.749425,48.567224],[13.880391,48.472129],[14.033726,48.455608],[14.155499,48.355685],[14.251262,48.363176],[14.467971,48.270321],[14.711309,48.213634],[14.966073,48.242993],[15.073402,48.212216],[15.408863,48.297323],[15.463139,48.376402],[15.881244,48.418758],[16.033377,48.366846],[16.274421,48.378164],[16.402531,48.270709],[16.31689,48.194819],[16.143518,47.951355],[16.085203,47.715995],[16.113613,47.413877],[16.18233,47.136687],[16.276508,46.935757],[16.249565,46.691787],[16.196455,46.50936],[16.131548,46.370806],[16.022151,46.2587],[15.873864,46.186636],[15.627113,46.165728],[15.12962,46.232233],[14.840786,46.379436],[13.957634,46.514575],[13.865214,46.565677],[13.482415,46.603784],[13.320079,46.577873],[12.55516,46.642551],[11.785703,46.760516],[11.210314,46.809748],[10.726609,46.767308],[10.596551,46.747239]]]]},"properties":{"name":"Noricum","mapcolor":17,"cartodb_id":17}},{"type":"Feature","geometry":{"type":"MultiPolygon","coordinates":[[[[5.492564,33.546607],[5.318356,33.855169],[5.257246,34.084901],[5.238516,34.320627],[5.317032,34.990961],[5.563567,35.295532],[6.016351,35.66434],[6.316507,35.96567],[6.402245,36.139752],[6.449369,36.318372],[6.421186,36.454049],[6.11106,36.747438],[6.021879,36.862537],[6.272719,36.936243],[6.295143,37.026683],[6.521968,37.084018],[6.59442,37.001125],[6.829748,36.977511],[6.961933,36.899517],[7.20454,36.945094],[7.348749,37.096721],[7.544878,37.069012],[7.686208,36.981758],[7.810068,36.972023],[7.855185,36.862175],[8.009589,36.867044],[8.259386,36.96107],[8.527731,36.925425],[8.742828,36.977476],[8.828711,36.960809],[8.986199,37.090165],[9.132721,36.688458],[9.139409,36.443459],[9.046276,36.021816],[8.932878,35.851963],[8.637694,35.513881],[8.489073,35.382085],[8.354059,35.215369],[8.285505,35.02719],[8.248101,34.81844],[8.233501,34.54926],[8.271947,34.32229],[8.400464,34.127963],[8.507067,34.022694],[8.584361,33.872322],[8.738833,33.411971],[8.825717,33.011006],[8.867253,32.700336],[8.009384,32.984877],[6.795267,33.377802],[5.91071,33.534844],[5.492564,33.546607]]]]},"properties":{"name":"Numidia","mapcolor":47,"cartodb_id":47}},{"type":"Feature","geometry":{"type":"MultiPolygon","coordinates":[[[[17.984703,44.661781],[18.003612,44.723265],[18.067026,44.851401],[18.205985,45.133071],[18.254666,45.366802],[18.234949,45.823481],[18.264046,45.995941],[18.37114,46.358442],[18.413921,46.852851],[18.324071,47.084902],[18.031258,47.452435],[17.955959,47.540876],[17.862822,47.7],[17.914085,47.765374],[18.419315,47.747855],[18.819674,47.802959],[19.128579,47.765082],[19.170674,47.617591],[19.114966,47.447564],[19.003207,47.322298],[18.914217,47.098098],[19.032639,46.731274],[18.928894,46.619322],[18.954656,46.461583],[18.828316,46.372374],[18.924098,46.186791],[18.81083,46.042075],[18.926306,45.764103],[18.99468,45.739853],[18.988151,45.562524],[19.131693,45.521007],[19.077892,45.395517],[19.233895,45.292233],[19.450151,45.239105],[19.844339,45.22853],[19.994368,45.281022],[20.060041,45.218199],[20.355422,45.114362],[20.3924,44.916733],[20.457129,44.853698],[20.381217,44.739769],[20.23868,44.701063],[20.145871,44.679543],[19.908668,44.631115],[19.6941,44.603264],[19.331015,44.527953],[19.13783,44.526289],[18.600451,44.567967],[17.984703,44.661781]]]]},"properties":{"name":"Pannonia Inferior","mapcolor":28,"cartodb_id":28}},{"type":"Feature","geometry":{"type":"MultiPolygon","coordinates":[[[[14.455533,45.508527],[14.523505,45.591894],[14.620764,45.719523],[14.805308,46.094561],[14.959325,46.298894],[15.12962,46.232233],[15.627113,46.165728],[15.873864,46.186636],[16.022151,46.2587],[16.131548,46.370806],[16.196455,46.50936],[16.249565,46.691787],[16.276508,46.935757],[16.18233,47.136687],[16.113613,47.413877],[16.085203,47.715995],[16.143518,47.951355],[16.31689,48.194819],[16.468729,48.219699],[16.798584,48.145031],[17.066475,48.195705],[17.598508,47.821306],[17.862822,47.7],[17.955959,47.540876],[18.031258,47.452435],[18.324071,47.084902],[18.413921,46.852851],[18.37114,46.358442],[18.264046,45.995941],[18.234949,45.823481],[18.254666,45.366802],[18.205985,45.133071],[18.067026,44.851401],[18.003612,44.723265],[17.984359,44.660658],[17.84596,44.638109],[17.604687,44.657141],[17.339184,44.739059],[17.051731,44.769228],[16.552499,44.891845],[15.670731,45.086592],[15.325648,45.183201],[14.667676,45.396688],[14.455533,45.508527]]]]},"properties":{"name":"Pannonia Superior","mapcolor":27,"cartodb_id":27}},{"type":"Feature","geometry":{"type":"MultiPolygon","coordinates":[[[[10.119729,46.734985],[9.932125,46.58819],[9.791566,46.523865],[9.372793,46.48688],[8.961942,46.431242],[8.849541,46.412743],[8.591209,46.391478],[8.377201,46.404491],[8.393282,46.416818],[8.535763,46.594881],[8.555877,46.594497],[8.924471,46.754694],[9.110407,46.891292],[9.303472,47.097937],[9.350506,47.191227],[9.131088,47.498406],[9.063167,47.922583],[9.193722,48.1462],[9.44866,48.393524],[9.799779,48.682642],[9.859228,48.787576],[10.586327,49.086963],[10.788647,49.102421],[11.280308,49.071964],[11.661902,49.00043],[11.73732,49.01997],[12.025215,48.972487],[12.073845,49.062349],[12.366741,49.055687],[12.612212,48.952225],[12.876964,48.905836],[13.177258,48.728557],[13.49377,48.621152],[13.433297,48.442264],[13.308419,48.361898],[13.076188,48.298418],[12.727836,48.304093],[12.395835,48.236475],[12.184363,47.983523],[12.19812,47.590911],[12.141262,47.526849],[11.912327,47.412896],[11.749659,47.391624],[11.564374,47.29791],[11.282223,47.275235],[11.037227,47.285837],[10.944119,47.241601],[10.597967,47.17795],[10.639418,47.048802],[10.54461,46.935336],[10.275743,46.809298],[10.119729,46.734985]]]]},"properties":{"name":"Raetia","mapcolor":16,"cartodb_id":16}},{"type":"Feature","geometry":{"type":"MultiPolygon","coordinates":[[[[9.462815,41.119295],[9.656178,40.97822],[9.819328,40.55216],[9.782096,40.407681],[9.6581,40.280245],[9.712639,40.142982],[9.696174,39.827276],[9.645909,39.433489],[9.566221,39.112927],[9.400171,39.116612],[9.27179,39.195363],[9.061191,39.149806],[9.041935,39.009163],[8.963232,38.921596],[8.823295,38.865913],[8.615359,38.876255],[8.548502,39.014901],[8.398621,39.136535],[8.37512,39.399138],[8.468713,39.576041],[8.432855,39.709564],[8.53858,39.780822],[8.530401,39.903869],[8.391717,39.915302],[8.391183,40.052151],[8.46789,40.121794],[8.497502,40.268288],[8.375944,40.361522],[8.308454,40.555434],[8.139083,40.621416],[8.135539,40.74762],[8.198942,40.902519],[8.412034,40.848399],[8.456412,40.788726],[8.617764,40.828461],[8.691765,40.899738],[9.150508,41.158202],[9.215428,41.28194],[9.462815,41.119295]]],[[[9.4644,42.716689],[9.538304,42.509592],[9.575229,42.117502],[9.387842,41.911519],[9.359061,41.540507],[9.24902,41.451737],[9.258717,41.338285],[9.104469,41.381782],[8.790265,41.54986],[8.874102,41.651582],[8.699901,41.749936],[8.76671,41.894642],[8.621225,41.945285],[8.729637,42.0475],[8.550616,42.170936],[8.650733,42.242783],[8.572091,42.375889],[8.666837,42.436066],[8.729245,42.585096],[9.024555,42.655265],[9.069429,42.701394],[9.354306,42.755128],[9.332831,42.978845],[9.459975,43.005928],[9.4644,42.716689]]]]},"properties":{"name":"Sardinia et Corsica","mapcolor":31,"cartodb_id":31}},{"type":"Feature","geometry":{"type":"MultiPolygon","coordinates":[[[[14.501733,35.857431],[14.306392,35.959658],[14.326343,36.031603],[14.562792,35.965314],[14.501733,35.857431]]],[[[12.81726,38.143445],[12.925715,38.062568],[13.030732,38.062034],[13.122203,38.200683],[13.344784,38.22151],[13.423557,38.119966],[13.516266,38.12949],[13.62945,38.035969],[13.84312,38.011807],[14.021213,38.063542],[14.418601,38.027999],[14.664909,38.10289],[14.792746,38.188487],[15.147636,38.162768],[15.303971,38.248509],[15.617095,38.267269],[15.568515,38.166326],[15.389225,37.962566],[15.245443,37.741892],[15.201558,37.564809],[15.123737,37.475679],[15.126286,37.324552],[15.236936,37.249695],[15.227915,37.151544],[15.331508,37.066788],[15.160765,36.87287],[15.039456,36.66685],[14.86642,36.723323],[14.727726,36.69971],[14.513984,36.796056],[14.37013,36.975538],[14.181869,37.072265],[13.974704,37.070206],[13.785166,37.118656],[13.580523,37.266479],[13.480127,37.264554],[13.304106,37.411823],[13.12439,37.459071],[12.969727,37.552518],[12.688153,37.574201],[12.525278,37.675315],[12.481272,37.803154],[12.499808,37.961651],[12.57537,38.079541],[12.81726,38.143445]]]]},"properties":{"name":"Sicilia","mapcolor":26,"cartodb_id":26}},{"type":"Feature","geometry":{"type":"MultiPolygon","coordinates":[[[[34.941543,32.679483],[34.966257,32.844774],[35.030015,32.846732],[35.118132,33.099143],[35.205818,33.221278],[35.274859,33.455781],[35.352,33.506348],[35.477216,33.883418],[35.592867,33.974124],[35.638745,34.247635],[35.734989,34.395141],[35.976648,34.579953],[35.958908,34.696804],[35.863418,34.868712],[35.857605,35.057575],[35.922593,35.170133],[35.912817,35.388128],[35.708287,35.5689],[35.798491,35.703539],[35.774165,35.832618],[35.892479,35.925237],[35.921302,36.07249],[35.772837,36.253071],[35.825461,36.373159],[35.930621,36.482662],[36.261785,36.671998],[36.333636,36.735591],[36.548624,37.167871],[36.713377,37.380445],[36.92479,37.462788],[37.292526,37.587853],[37.806124,37.719376],[38.65119,37.84439],[39.104928,37.938791],[39.148314,37.911814],[39.07289,37.856648],[38.86596,37.718473],[38.828286,37.503474],[38.577296,37.501069],[38.440321,37.404662],[38.337338,37.410386],[38.222207,37.330547],[38.020037,37.367397],[37.871748,37.316411],[37.881107,37.142698],[37.996732,36.993574],[38.046324,36.674598],[38.140871,36.651106],[38.242351,36.578103],[38.172889,36.247059],[38.093184,36.171894],[38.095141,35.984563],[38.233409,35.919548],[38.388991,35.848941],[38.724211,35.846722],[38.962483,35.898923],[38.979283,35.772898],[38.942011,35.645074],[38.697643,35.367689],[37.322752,33.663609],[36.780305,32.887954],[36.718243,32.945229],[36.586364,32.991455],[36.278456,32.992759],[35.985548,32.88385],[35.694084,32.87045],[35.674714,33.026214],[35.545275,33.073457],[35.432909,33.002917],[35.196216,32.819573],[34.941543,32.679483]]]]},"properties":{"name":"Syria","mapcolor":45,"cartodb_id":45}},{"type":"Feature","geometry":{"type":"MultiPolygon","coordinates":[[[[1.454643,38.873674],[1.367632,38.833645],[1.239405,38.931531],[1.35373,39.055621],[1.541916,39.116141],[1.630111,39.024075],[1.454643,38.873674]]],[[[3.241974,39.947617],[3.108774,39.867573],[3.207296,39.744908],[3.392854,39.776175],[3.482362,39.674417],[3.387316,39.597543],[3.240502,39.353418],[3.051919,39.265561],[2.957344,39.33322],[2.771412,39.361332],[2.672392,39.552664],[2.505421,39.457652],[2.363931,39.571641],[2.512895,39.678338],[3.042078,39.930495],[3.241974,39.947617]]],[[[4.073337,40.074443],[4.240485,40.036215],[4.336184,39.895358],[4.283684,39.799915],[4.022134,39.926964],[3.857778,39.923473],[3.846555,40.022912],[4.073337,40.074443]]],[[[-1.513005,43.268896],[-1.353258,43.239122],[-1.189063,43.137136],[-1.073196,43.112052],[-0.826531,43.090955],[-0.593979,42.884146],[-0.487574,42.806814],[-0.29677,42.709244],[-0.171193,42.68673],[-0.021183,42.667106],[0.251937,42.74],[0.607378,42.716715],[0.716943,42.572048],[0.958337,42.584575],[1.122448,42.641423],[1.378266,42.680094],[1.650961,42.660624],[1.92662,42.550648],[2.321052,42.486728],[2.423683,42.43782],[2.56046,42.410161],[2.822759,42.446996],[3.031397,42.484558],[3.149157,42.446195],[3.316482,42.296008],[3.146073,42.23835],[3.203677,42.088094],[3.214747,41.894879],[3.062819,41.772973],[2.870139,41.69587],[2.747134,41.601168],[2.337863,41.46609],[2.155039,41.28294],[2.081785,41.251681],[1.486113,41.172675],[1.30346,41.121636],[0.868385,40.945741],[0.736948,40.794308],[0.922395,40.718953],[0.75678,40.576237],[0.605453,40.62278],[0.449122,40.362303],[0.370178,40.312073],[0.193226,40.106979],[-0.096138,39.839865],[-0.324043,39.462278],[-0.214892,39.169747],[-0.195518,39.035223],[-0.057893,38.897293],[0.233311,38.838182],[0.247266,38.721929],[-0.040019,38.589284],[-0.107898,38.506936],[-0.370517,38.397897],[-0.564454,38.143899],[-0.653172,38.086856],[-0.835353,37.677599],[-0.741478,37.568676],[-0.876381,37.544663],[-1.015938,37.582455],[-1.17222,37.516852],[-1.324661,37.546498],[-1.557399,37.394296],[-1.807071,37.179253],[-1.879806,36.941989],[-2.086,36.727279],[-2.18147,36.713901],[-2.293675,36.843467],[-2.536718,36.814569],[-3.283912,37.06124],[-3.395809,37.138111],[-3.511835,37.308547],[-3.567673,37.451017],[-3.688482,37.923818],[-3.767324,38.101312],[-3.996971,38.323962],[-4.543778,38.568708],[-4.977231,38.751245],[-5.538505,38.899637],[-5.373501,39.073584],[-5.04398,39.375407],[-4.932103,39.411744],[-4.760259,39.647894],[-4.687138,39.897049],[-4.389584,40.137419],[-4.290364,40.281617],[-4.369655,40.43544],[-4.724312,40.516927],[-5.003872,40.740548],[-5.239889,40.94802],[-5.487399,41.16892],[-5.945342,41.465881],[-6.140922,41.55641],[-6.214578,41.526473],[-6.451685,41.295186],[-6.734643,41.17806],[-6.758226,41.096476],[-6.91864,41.056304],[-7.026484,41.073876],[-7.092168,41.163103],[-7.208275,41.159102],[-7.491529,41.219115],[-7.75492,41.18764],[-8.307252,41.047411],[-8.618833,41.155611],[-8.725656,41.286348],[-8.764055,41.560646],[-8.840824,41.725284],[-8.87242,42.127107],[-8.782109,42.150122],[-8.752954,42.278802],[-8.829847,42.432106],[-8.787182,42.508722],[-8.872811,42.637309],[-8.958198,42.554411],[-9.060198,42.618571],[-9.015775,42.731479],[-9.114569,42.829622],[-9.121421,42.943087],[-9.254604,43.061788],[-9.133337,43.206303],[-8.972466,43.232395],[-8.93646,43.314468],[-8.499914,43.329296],[-8.411189,43.395965],[-8.243253,43.413154],[-8.285859,43.566868],[-8.070632,43.675686],[-7.715995,43.752617],[-7.469251,43.730419],[-7.250534,43.597795],[-7.01934,43.550117],[-6.870536,43.587605],[-6.242796,43.57745],[-6.09614,43.549633],[-5.784452,43.638715],[-5.730656,43.584475],[-5.452169,43.558139],[-5.191616,43.489953],[-4.578889,43.392519],[-4.077381,43.415849],[-3.882321,43.482273],[-3.761438,43.434235],[-3.585413,43.494009],[-3.224555,43.410036],[-3.111372,43.334852],[-2.958787,43.41289],[-2.778976,43.454402],[-2.566443,43.40728],[-2.389916,43.316044],[-2.14388,43.296195],[-1.768271,43.373229],[-1.513005,43.268896]]]]},"properties":{"name":"Tarraconensis","mapcolor":13,"cartodb_id":13}},{"type":"Feature","geometry":{"type":"MultiPolygon","coordinates":[[[[23.809387,43.240799],[24.042488,43.229597],[24.672668,43.299173],[24.958346,43.220894],[25.31888,43.069259],[25.471146,43.04248],[25.665777,43.059619],[25.935893,43.147137],[26.170469,43.257917],[26.367826,43.248387],[26.540939,43.254541],[26.896369,43.308503],[27.270577,43.234911],[27.514186,43.215928],[27.524761,42.988099],[27.509627,42.818839],[27.539879,42.65922],[27.633322,42.544034],[27.745155,42.255004],[27.879869,42.156664],[28.033792,41.973812],[28.022759,41.896296],[28.087385,41.63111],[28.2565,41.506289],[28.874029,41.251337],[29.049248,41.232596],[29.037983,41.095579],[28.91274,41.090125],[28.795712,40.958883],[28.468766,40.98515],[28.286915,41.060419],[28.047958,41.039381],[27.893449,40.949542],[27.807201,40.999152],[27.514631,40.969362],[27.260078,40.671834],[26.864619,40.534439],[26.629594,40.402853],[26.560419,40.301544],[26.362422,40.203598],[26.25332,40.189068],[26.244091,40.326452],[26.574276,40.513964],[26.788788,40.585278],[26.773942,40.654835],[26.505878,40.614511],[26.054268,40.613437],[25.997743,40.834837],[25.736574,40.840093],[25.428309,40.887816],[25.109546,40.985677],[24.786019,40.861264],[24.612549,40.882661],[24.483579,40.947646],[24.322782,41.117045],[24.180121,41.33482],[23.902407,41.491316],[23.544906,41.626791],[23.101227,41.709657],[22.64114,41.827218],[22.501632,41.884701],[22.255892,42.158216],[22.403262,42.31368],[22.634135,42.664166],[22.908352,43.080319],[23.229572,43.385206],[23.343883,43.346456],[23.809387,43.240799]]]]},"properties":{"name":"Thracia","mapcolor":35,"cartodb_id":35}},{"type":"Feature","geometry":{"type":"MultiPolygon","coordinates":[[[[14.205075,42.519317],[14.091168,42.474111],[13.859494,42.446914],[13.611772,42.471985],[13.479152,42.705241],[13.282416,42.866244],[13.202588,43.225355],[13.199487,43.343521],[13.486128,43.589809],[13.662611,43.518749],[13.687174,43.392342],[13.825725,43.212816],[13.929464,42.894897],[14.205075,42.519317]]]]},"properties":{"name":"V","mapcolor":23,"cartodb_id":23}},{"type":"Feature","geometry":{"type":"MultiPolygon","coordinates":[[[[12.434423,42.33862],[12.403639,42.371418],[12.285745,42.487049],[12.227766,42.607145],[12.221639,42.677948],[12.40154,42.776134],[12.393952,42.931679],[12.487164,43.079262],[12.465671,43.170244],[12.276794,43.384949],[12.192416,43.526895],[12.101266,43.556214],[12.045924,43.690379],[11.962997,43.694906],[11.756793,43.689729],[11.681229,43.826742],[11.713871,43.907023],[11.893457,44.044002],[12.156003,44.082956],[12.302756,44.040048],[12.525325,43.984444],[12.618124,43.95757],[12.749734,43.885595],[12.821428,43.928468],[13.105763,43.821441],[13.373733,43.629783],[13.486128,43.589809],[13.199487,43.343521],[13.202588,43.225355],[13.282416,42.866244],[13.121301,42.829985],[13.004344,42.657113],[12.791977,42.568812],[12.694444,42.551432],[12.534157,42.446305],[12.434423,42.33862]]]]},"properties":{"name":"VI","mapcolor":21,"cartodb_id":21}},{"type":"Feature","geometry":{"type":"MultiPolygon","coordinates":[[[[10.44996,42.840066],[10.474499,42.736548],[10.201975,42.724974],[10.146518,42.806665],[10.44996,42.840066]]],[[[12.227766,42.607145],[12.285745,42.487049],[12.403639,42.371418],[12.471627,42.29892],[12.610001,42.252206],[12.616877,42.0969],[12.545504,41.940484],[12.396559,41.782789],[12.228839,41.723031],[12.161961,41.890521],[11.922619,42.024083],[11.790291,42.064132],[11.653657,42.29154],[11.416797,42.408313],[11.201349,42.455227],[11.185917,42.549366],[10.937066,42.761264],[10.791665,42.772776],[10.787354,42.902867],[10.515934,42.96294],[10.577261,43.118289],[10.499483,43.326429],[10.35065,43.439651],[10.32021,43.745335],[10.198348,43.959931],[9.893861,44.099011],[9.640512,44.386303],[9.586844,44.458319],[9.833654,44.533886],[10.139455,44.438373],[10.445248,44.307338],[10.826208,44.164213],[10.914939,44.120503],[11.211014,44.003469],[11.448281,43.978874],[11.713871,43.907023],[11.681229,43.826742],[11.756793,43.689729],[11.962997,43.694906],[12.045924,43.690379],[12.101266,43.556214],[12.192416,43.526895],[12.276794,43.384949],[12.465671,43.170244],[12.487164,43.079262],[12.393952,42.931679],[12.40154,42.776134],[12.221639,42.677948],[12.227766,42.607145]]]]},"properties":{"name":"VII","mapcolor":20,"cartodb_id":20}},{"type":"Feature","geometry":{"type":"MultiPolygon","coordinates":[[[[9.586844,44.458319],[9.415624,44.456322],[9.296535,44.517423],[9.358222,44.597767],[9.365796,44.832558],[9.267342,44.904262],[9.007271,45.009755],[8.959653,45.082167],[8.983596,45.087196],[9.074114,45.119985],[9.27478,45.138622],[9.510133,45.104076],[9.637058,45.14372],[9.740904,45.095729],[9.911,45.157489],[10.094553,45.055654],[10.401294,44.999522],[10.507748,44.950421],[10.669605,45.012754],[10.729881,45.055348],[11.046886,45.084582],[11.208762,45.060736],[11.378483,45.014913],[11.553178,44.954323],[11.823926,44.98815],[12.00035,45.012116],[12.174384,45.043041],[12.28945,44.993915],[12.510003,44.99855],[12.492292,44.8777],[12.270291,44.795598],[12.292564,44.522218],[12.390375,44.255614],[12.57379,44.077482],[12.821428,43.928468],[12.749734,43.885595],[12.618124,43.95757],[12.525325,43.984444],[12.302756,44.040048],[12.156003,44.082956],[11.893457,44.044002],[11.713871,43.907023],[11.448281,43.978874],[11.211014,44.003469],[10.914939,44.120503],[10.826208,44.164213],[10.445248,44.307338],[10.139455,44.438373],[9.833654,44.533886],[9.586844,44.458319]]]]},"properties":{"name":"VIII","mapcolor":19,"cartodb_id":19}},{"type":"Feature","geometry":{"type":"MultiPolygon","coordinates":[[[[13.320079,46.577873],[13.482415,46.603784],[13.865214,46.565677],[13.957634,46.514575],[14.840786,46.379436],[14.959325,46.298894],[14.805308,46.094561],[14.620764,45.719523],[14.523505,45.591894],[14.442662,45.492707],[14.155257,45.265846],[14.218,45.129695],[14.179173,44.990275],[13.932761,44.796164],[13.807897,44.975186],[13.655355,45.098781],[13.603372,45.323645],[13.537525,45.388363],[13.537731,45.514827],[13.801221,45.620161],[13.728373,45.7277],[13.542087,45.726141],[13.288715,45.777582],[13.124776,45.758001],[13.128677,45.663658],[12.926195,45.615388],[12.590641,45.470841],[12.491308,45.51722],[12.300728,45.496446],[12.239343,45.231841],[12.424424,45.037312],[12.28945,44.993915],[12.174384,45.043041],[12.00035,45.012116],[11.823926,44.98815],[11.553178,44.954323],[11.378483,45.014913],[11.208762,45.060736],[11.046886,45.084582],[10.729881,45.055348],[10.669605,45.012754],[10.507748,44.950421],[10.401294,44.999522],[10.094553,45.055654],[9.911,45.157489],[9.847533,45.186161],[9.837644,45.340539],[9.997894,45.625327],[10.253725,46.038523],[10.3306,46.177445],[10.567725,46.567205],[10.596551,46.747239],[10.726609,46.767308],[11.210314,46.809748],[11.785703,46.760516],[12.55516,46.642551],[13.320079,46.577873]]]]},"properties":{"name":"X","mapcolor":18,"cartodb_id":18}},{"type":"Feature","geometry":{"type":"MultiPolygon","coordinates":[[[[7.435299,45.114267],[7.302551,45.22025],[7.222606,45.307893],[7.25199,45.363977],[7.190859,45.530089],[7.249278,45.599817],[7.794284,46.087491],[7.961023,46.201262],[8.075234,46.229422],[8.298416,46.343978],[8.377201,46.404491],[8.591209,46.391478],[8.849541,46.412743],[8.961942,46.431242],[9.372793,46.48688],[9.791566,46.523865],[9.932125,46.58819],[10.119729,46.734985],[10.245382,46.722228],[10.501524,46.733993],[10.596551,46.747239],[10.567725,46.567205],[10.3306,46.177445],[10.253725,46.038523],[9.997894,45.625327],[9.837644,45.340539],[9.847533,45.186161],[9.911,45.157489],[9.740904,45.095729],[9.637058,45.14372],[9.510133,45.104076],[9.27478,45.138622],[9.074114,45.119985],[8.983596,45.087196],[8.917763,45.073353],[8.770065,45.037498],[8.528192,45.161425],[8.35395,45.156265],[8.147508,45.194699],[7.875799,45.172026],[7.793457,45.121306],[7.600264,45.143086],[7.435299,45.114267]]]]},"properties":{"name":"XI","mapcolor":8,"cartodb_id":8}}]}